{"type":"FeatureCollection","name":"国土数値情報 空港データ C28-21（2021）標点","features":[{"type":"Feature","geometry":{"type":"Point","coordinates":[129.91361,32.91694]},"properties":{"name":"長崎空港","kind":"拠点空港（国管理）","kind_code":"2","status":"供用中","pref":"長崎県"}},{"type":"Feature","geometry":{"type":"Point","coordinates":[131.035,33.84556]},"properties":{"name":"北九州空港","kind":"拠点空港（国管理）","kind_code":"2","status":"供用中","pref":"福岡県"}},{"type":"Feature","geometry":{"type":"Point","coordinates":[140.41556,36.18111]},"properties":{"name":"百里飛行場","kind":"共用空港","kind_code":"6","status":"供用中","pref":"茨城県"}},{"type":"Feature","geometry":{"type":"Point","coordinates":[133.32333,36.17833]},"properties":{"name":"隠岐空港","kind":"地方管理空港","kind_code":"4","status":"供用中","pref":"島根県"}},{"type":"Feature","geometry":{"type":"Point","coordinates":[135.43917,34.78444]},"properties":{"name":"大阪国際空港","kind":"拠点空港（会社管理）","kind_code":"1","status":"供用中","pref":"大阪府"}},{"type":"Feature","geometry":{"type":"Point","coordinates":[141.03917,45.455]},"properties":{"name":"礼文空港","kind":"地方管理空港","kind_code":"4","status":"休止中","pref":"北海道"}},{"type":"Feature","geometry":{"type":"Point","coordinates":[141.1875,45.24194]},"properties":{"name":"利尻空港","kind":"地方管理空港","kind_code":"4","status":"供用中","pref":"北海道"}},{"type":"Feature","geometry":{"type":"Point","coordinates":[143.21722,42.73333]},"properties":{"name":"帯広空港","kind":"拠点空港（特定地方管理）","kind_code":"3","status":"供用中","pref":"北海道"}},{"type":"Feature","geometry":{"type":"Point","coordinates":[144.19306,43.04083]},"properties":{"name":"釧路空港","kind":"拠点空港（国管理）","kind_code":"2","status":"供用中","pref":"北海道"}},{"type":"Feature","geometry":{"type":"Point","coordinates":[144.96,43.5775]},"properties":{"name":"中標津空港","kind":"地方管理空港","kind_code":"4","status":"供用中","pref":"北海道"}},{"type":"Feature","geometry":{"type":"Point","coordinates":[144.16405,43.88061]},"properties":{"name":"女満別空港","kind":"地方管理空港","kind_code":"4","status":"供用中","pref":"北海道"}},{"type":"Feature","geometry":{"type":"Point","coordinates":[143.40417,44.30417]},"properties":{"name":"紋別空港","kind":"地方管理空港","kind_code":"4","status":"供用中","pref":"北海道"}},{"type":"Feature","geometry":{"type":"Point","coordinates":[142.4475,43.67083]},"properties":{"name":"旭川空港","kind":"拠点空港（特定地方管理）","kind_code":"3","status":"供用中","pref":"北海道"}},{"type":"Feature","geometry":{"type":"Point","coordinates":[141.6925,42.77528]},"properties":{"name":"新千歳空港","kind":"拠点空港（国管理）","kind_code":"2","status":"供用中","pref":"北海道"}},{"type":"Feature","geometry":{"type":"Point","coordinates":[141.38139,43.1175]},"properties":{"name":"札幌飛行場","kind":"共用空港","kind_code":"6","status":"供用中","pref":"北海道"}},{"type":"Feature","geometry":{"type":"Point","coordinates":[140.82194,41.77]},"properties":{"name":"函館空港","kind":"拠点空港（国管理）","kind_code":"2","status":"供用中","pref":"北海道"}},{"type":"Feature","geometry":{"type":"Point","coordinates":[140.68861,40.73333]},"properties":{"name":"青森空港","kind":"地方管理空港","kind_code":"4","status":"供用中","pref":"青森県"}},{"type":"Feature","geometry":{"type":"Point","coordinates":[141.36944,40.70528]},"properties":{"name":"三沢飛行場","kind":"共用空港","kind_code":"6","status":"供用中","pref":"青森県"}},{"type":"Feature","geometry":{"type":"Point","coordinates":[140.37167,40.19194]},"properties":{"name":"大館能代空港","kind":"地方管理空港","kind_code":"4","status":"供用中","pref":"秋田県"}},{"type":"Feature","geometry":{"type":"Point","coordinates":[140.21861,39.61556]},"properties":{"name":"秋田空港","kind":"拠点空港（特定地方管理）","kind_code":"3","status":"供用中","pref":"秋田県"}},{"type":"Feature","geometry":{"type":"Point","coordinates":[141.13528,39.42861]},"properties":{"name":"花巻空港","kind":"地方管理空港","kind_code":"4","status":"供用中","pref":"岩手県"}},{"type":"Feature","geometry":{"type":"Point","coordinates":[139.78722,38.81222]},"properties":{"name":"庄内空港","kind":"地方管理空港","kind_code":"4","status":"供用中","pref":"山形県"}},{"type":"Feature","geometry":{"type":"Point","coordinates":[140.37111,38.41194]},"properties":{"name":"山形空港","kind":"拠点空港（特定地方管理）","kind_code":"3","status":"供用中","pref":"山形県"}},{"type":"Feature","geometry":{"type":"Point","coordinates":[140.91694,38.13972]},"properties":{"name":"仙台空港","kind":"拠点空港（国管理）","kind_code":"2","status":"供用中","pref":"宮城県"}},{"type":"Feature","geometry":{"type":"Point","coordinates":[140.42806,37.2275]},"properties":{"name":"福島空港","kind":"地方管理空港","kind_code":"4","status":"供用中","pref":"福島県"}},{"type":"Feature","geometry":{"type":"Point","coordinates":[139.52806,35.67167]},"properties":{"name":"調布飛行場","kind":"その他","kind_code":"5","status":"供用中","pref":"東京都"}},{"type":"Feature","geometry":{"type":"Point","coordinates":[139.13361,34.18944]},"properties":{"name":"神津島空港","kind":"地方管理空港","kind_code":"4","status":"供用中","pref":"東京都"}},{"type":"Feature","geometry":{"type":"Point","coordinates":[139.36028,34.78194]},"properties":{"name":"大島空港","kind":"地方管理空港","kind_code":"4","status":"供用中","pref":"東京都"}},{"type":"Feature","geometry":{"type":"Point","coordinates":[139.26861,34.36944]},"properties":{"name":"新島空港","kind":"地方管理空港","kind_code":"4","status":"供用中","pref":"東京都"}},{"type":"Feature","geometry":{"type":"Point","coordinates":[139.56028,34.07361]},"properties":{"name":"三宅島空港","kind":"地方管理空港","kind_code":"4","status":"供用中","pref":"東京都"}},{"type":"Feature","geometry":{"type":"Point","coordinates":[139.78583,33.115]},"properties":{"name":"八丈島空港","kind":"地方管理空港","kind_code":"4","status":"供用中","pref":"東京都"}},{"type":"Feature","geometry":{"type":"Point","coordinates":[136.92444,35.255]},"properties":{"name":"名古屋飛行場","kind":"その他","kind_code":"5","status":"供用中","pref":"愛知県"}},{"type":"Feature","geometry":{"type":"Point","coordinates":[135.60056,34.59667]},"properties":{"name":"八尾空港","kind":"その他","kind_code":"5","status":"供用中","pref":"大阪府"}},{"type":"Feature","geometry":{"type":"Point","coordinates":[135.36444,33.66222]},"properties":{"name":"南紀白浜空港","kind":"地方管理空港","kind_code":"4","status":"供用中","pref":"和歌山県"}},{"type":"Feature","geometry":{"type":"Point","coordinates":[139.11167,37.95583]},"properties":{"name":"新潟空港","kind":"拠点空港（国管理）","kind_code":"2","status":"供用中","pref":"新潟県"}},{"type":"Feature","geometry":{"type":"Point","coordinates":[138.41439,38.0603]},"properties":{"name":"佐渡空港","kind":"地方管理空港","kind_code":"4","status":"供用中","pref":"新潟県"}},{"type":"Feature","geometry":{"type":"Point","coordinates":[129.78583,33.74917]},"properties":{"name":"壱岐空港","kind":"地方管理空港","kind_code":"4","status":"供用中","pref":"長崎県"}},{"type":"Feature","geometry":{"type":"Point","coordinates":[129.33056,34.285]},"properties":{"name":"対馬空港","kind":"地方管理空港","kind_code":"4","status":"供用中","pref":"長崎県"}},{"type":"Feature","geometry":{"type":"Point","coordinates":[128.83278,32.66639]},"properties":{"name":"福江空港","kind":"地方管理空港","kind_code":"4","status":"供用中","pref":"長崎県"}},{"type":"Feature","geometry":{"type":"Point","coordinates":[130.15889,32.48222]},"properties":{"name":"天草飛行場","kind":"その他","kind_code":"5","status":"供用中","pref":"熊本県"}},{"type":"Feature","geometry":{"type":"Point","coordinates":[130.71944,31.80333]},"properties":{"name":"鹿児島空港","kind":"拠点空港（国管理）","kind_code":"2","status":"供用中","pref":"鹿児島県"}},{"type":"Feature","geometry":{"type":"Point","coordinates":[130.99167,30.605]},"properties":{"name":"種子島空港","kind":"地方管理空港","kind_code":"4","status":"供用中","pref":"鹿児島県"}},{"type":"Feature","geometry":{"type":"Point","coordinates":[130.65917,30.38556]},"properties":{"name":"屋久島空港","kind":"地方管理空港","kind_code":"4","status":"供用中","pref":"鹿児島県"}},{"type":"Feature","geometry":{"type":"Point","coordinates":[130.85528,32.83722]},"properties":{"name":"熊本空港","kind":"拠点空港（国管理）","kind_code":"2","status":"供用中","pref":"熊本県"}},{"type":"Feature","geometry":{"type":"Point","coordinates":[131.44861,31.87722]},"properties":{"name":"宮崎空港","kind":"拠点空港（国管理）","kind_code":"2","status":"供用中","pref":"宮崎県"}},{"type":"Feature","geometry":{"type":"Point","coordinates":[131.50556,33.02611]},"properties":{"name":"大分県央飛行場","kind":"その他","kind_code":"5","status":"供用中","pref":"大分県"}},{"type":"Feature","geometry":{"type":"Point","coordinates":[133.66944,33.54611]},"properties":{"name":"高知空港","kind":"拠点空港（国管理）","kind_code":"2","status":"供用中","pref":"高知県"}},{"type":"Feature","geometry":{"type":"Point","coordinates":[132.69972,33.82722]},"properties":{"name":"松山空港","kind":"拠点空港（国管理）","kind_code":"2","status":"供用中","pref":"愛媛県"}},{"type":"Feature","geometry":{"type":"Point","coordinates":[134.01556,34.21417]},"properties":{"name":"高松空港","kind":"拠点空港（国管理）","kind_code":"2","status":"供用中","pref":"香川県"}},{"type":"Feature","geometry":{"type":"Point","coordinates":[134.60583,34.13278]},"properties":{"name":"徳島飛行場","kind":"共用空港","kind_code":"6","status":"供用中","pref":"徳島県"}},{"type":"Feature","geometry":{"type":"Point","coordinates":[128.70556,27.43167]},"properties":{"name":"沖永良部空港","kind":"地方管理空港","kind_code":"4","status":"供用中","pref":"鹿児島県"}},{"type":"Feature","geometry":{"type":"Point","coordinates":[128.40167,27.04389]},"properties":{"name":"与論空港","kind":"地方管理空港","kind_code":"4","status":"供用中","pref":"鹿児島県"}},{"type":"Feature","geometry":{"type":"Point","coordinates":[131.32694,25.94472]},"properties":{"name":"北大東空港","kind":"地方管理空港","kind_code":"4","status":"供用中","pref":"沖縄県"}},{"type":"Feature","geometry":{"type":"Point","coordinates":[131.26361,25.84667]},"properties":{"name":"南大東空港","kind":"地方管理空港","kind_code":"4","status":"供用中","pref":"沖縄県"}},{"type":"Feature","geometry":{"type":"Point","coordinates":[127.78694,26.7225]},"properties":{"name":"伊江島空港","kind":"地方管理空港","kind_code":"4","status":"供用中","pref":"沖縄県"}},{"type":"Feature","geometry":{"type":"Point","coordinates":[126.71389,26.36361]},"properties":{"name":"久米島空港","kind":"地方管理空港","kind_code":"4","status":"供用中","pref":"沖縄県"}},{"type":"Feature","geometry":{"type":"Point","coordinates":[125.295,24.78278]},"properties":{"name":"宮古空港","kind":"地方管理空港","kind_code":"4","status":"供用中","pref":"沖縄県"}},{"type":"Feature","geometry":{"type":"Point","coordinates":[125.14472,24.82667]},"properties":{"name":"下地島空港","kind":"地方管理空港","kind_code":"4","status":"供用中","pref":"沖縄県"}},{"type":"Feature","geometry":{"type":"Point","coordinates":[123.80546,24.05956]},"properties":{"name":"波照間空港","kind":"地方管理空港","kind_code":"4","status":"供用中","pref":"沖縄県"}},{"type":"Feature","geometry":{"type":"Point","coordinates":[122.97972,24.4675]},"properties":{"name":"与那国空港","kind":"地方管理空港","kind_code":"4","status":"供用中","pref":"沖縄県"}},{"type":"Feature","geometry":{"type":"Point","coordinates":[124.67528,24.65389]},"properties":{"name":"多良間空港","kind":"地方管理空港","kind_code":"4","status":"供用中","pref":"沖縄県"}},{"type":"Feature","geometry":{"type":"Point","coordinates":[137.92278,36.16667]},"properties":{"name":"松本空港","kind":"地方管理空港","kind_code":"4","status":"供用中","pref":"長野県"}},{"type":"Feature","geometry":{"type":"Point","coordinates":[136.96222,37.29333]},"properties":{"name":"能登空港","kind":"地方管理空港","kind_code":"4","status":"供用中","pref":"石川県"}},{"type":"Feature","geometry":{"type":"Point","coordinates":[137.1875,36.64833]},"properties":{"name":"富山空港","kind":"地方管理空港","kind_code":"4","status":"供用中","pref":"富山県"}},{"type":"Feature","geometry":{"type":"Point","coordinates":[136.4075,36.39389]},"properties":{"name":"小松飛行場","kind":"共用空港","kind_code":"6","status":"供用中","pref":"石川県"}},{"type":"Feature","geometry":{"type":"Point","coordinates":[136.22389,36.14278]},"properties":{"name":"福井空港","kind":"地方管理空港","kind_code":"4","status":"供用中","pref":"福井県"}},{"type":"Feature","geometry":{"type":"Point","coordinates":[134.78694,35.51278]},"properties":{"name":"但馬飛行場","kind":"その他","kind_code":"5","status":"供用中","pref":"兵庫県"}},{"type":"Feature","geometry":{"type":"Point","coordinates":[134.165,35.53]},"properties":{"name":"鳥取空港","kind":"地方管理空港","kind_code":"4","status":"供用中","pref":"鳥取県"}},{"type":"Feature","geometry":{"type":"Point","coordinates":[133.85528,34.75694]},"properties":{"name":"岡山空港","kind":"地方管理空港","kind_code":"4","status":"供用中","pref":"岡山県"}},{"type":"Feature","geometry":{"type":"Point","coordinates":[133.93333,34.59139]},"properties":{"name":"岡南飛行場","kind":"その他","kind_code":"5","status":"供用中","pref":"岡山県"}},{"type":"Feature","geometry":{"type":"Point","coordinates":[132.89,35.41361]},"properties":{"name":"出雲空港","kind":"地方管理空港","kind_code":"4","status":"供用中","pref":"島根県"}},{"type":"Feature","geometry":{"type":"Point","coordinates":[132.92,34.43611]},"properties":{"name":"広島空港","kind":"拠点空港（国管理）","kind_code":"2","status":"供用中","pref":"広島県"}},{"type":"Feature","geometry":{"type":"Point","coordinates":[131.79028,34.67639]},"properties":{"name":"石見空港","kind":"地方管理空港","kind_code":"4","status":"供用中","pref":"島根県"}},{"type":"Feature","geometry":{"type":"Point","coordinates":[131.27861,33.93]},"properties":{"name":"山口宇部空港","kind":"拠点空港（特定地方管理）","kind_code":"3","status":"供用中","pref":"山口県"}},{"type":"Feature","geometry":{"type":"Point","coordinates":[130.45167,33.58444]},"properties":{"name":"福岡空港","kind":"拠点空港（国管理）","kind_code":"2","status":"供用中","pref":"福岡県"}},{"type":"Feature","geometry":{"type":"Point","coordinates":[130.30222,33.14972]},"properties":{"name":"佐賀空港","kind":"地方管理空港","kind_code":"4","status":"供用中","pref":"佐賀県"}},{"type":"Feature","geometry":{"type":"Point","coordinates":[128.88139,27.83639]},"properties":{"name":"徳之島空港","kind":"地方管理空港","kind_code":"4","status":"供用中","pref":"鹿児島県"}},{"type":"Feature","geometry":{"type":"Point","coordinates":[129.92806,28.32139]},"properties":{"name":"喜界空港","kind":"地方管理空港","kind_code":"4","status":"供用中","pref":"鹿児島県"}},{"type":"Feature","geometry":{"type":"Point","coordinates":[127.29333,26.16833]},"properties":{"name":"慶良間空港","kind":"地方管理空港","kind_code":"4","status":"供用中","pref":"沖縄県"}},{"type":"Feature","geometry":{"type":"Point","coordinates":[127.24028,26.59278]},"properties":{"name":"粟国空港","kind":"地方管理空港","kind_code":"4","status":"供用中","pref":"沖縄県"}},{"type":"Feature","geometry":{"type":"Point","coordinates":[138.18944,34.79611]},"properties":{"name":"静岡空港","kind":"地方管理空港","kind_code":"4","status":"供用中","pref":"静岡県"}},{"type":"Feature","geometry":{"type":"Point","coordinates":[135.23278,34.43417]},"properties":{"name":"関西国際空港","kind":"拠点空港（会社管理）","kind_code":"1","status":"供用中","pref":"大阪府"}},{"type":"Feature","geometry":{"type":"Point","coordinates":[136.80528,34.85833]},"properties":{"name":"中部国際空港","kind":"拠点空港（会社管理）","kind_code":"1","status":"供用中","pref":"愛知県"}},{"type":"Feature","geometry":{"type":"Point","coordinates":[131.73722,33.47944]},"properties":{"name":"大分空港","kind":"拠点空港（国管理）","kind_code":"2","status":"供用中","pref":"大分県"}},{"type":"Feature","geometry":{"type":"Point","coordinates":[135.22389,34.63278]},"properties":{"name":"神戸空港","kind":"地方管理空港","kind_code":"4","status":"供用中","pref":"兵庫県"}},{"type":"Feature","geometry":{"type":"Point","coordinates":[129.7125,28.43083]},"properties":{"name":"奄美空港","kind":"地方管理空港","kind_code":"4","status":"供用中","pref":"鹿児島県"}},{"type":"Feature","geometry":{"type":"Point","coordinates":[129.1925,33.01361]},"properties":{"name":"上五島空港","kind":"地方管理空港","kind_code":"4","status":"供用中","pref":"長崎県"}},{"type":"Feature","geometry":{"type":"Point","coordinates":[129.09028,33.19083]},"properties":{"name":"小値賀空港","kind":"地方管理空港","kind_code":"4","status":"供用中","pref":"長崎県"}},{"type":"Feature","geometry":{"type":"Point","coordinates":[140.38639,35.76472]},"properties":{"name":"成田国際空港","kind":"拠点空港（会社管理）","kind_code":"1","status":"供用中","pref":"千葉県"}},{"type":"Feature","geometry":{"type":"Point","coordinates":[133.23639,35.49222]},"properties":{"name":"美保飛行場","kind":"共用空港","kind_code":"6","status":"供用中","pref":"鳥取県"}},{"type":"Feature","geometry":{"type":"Point","coordinates":[141.80083,45.40417]},"properties":{"name":"稚内空港","kind":"拠点空港（国管理）","kind_code":"2","status":"供用中","pref":"北海道"}},{"type":"Feature","geometry":{"type":"Point","coordinates":[124.245,24.39639]},"properties":{"name":"新石垣空港","kind":"地方管理空港","kind_code":"4","status":"供用中","pref":"沖縄県"}},{"type":"Feature","geometry":{"type":"Point","coordinates":[132.24695,34.1448]},"properties":{"name":"岩国飛行場","kind":"共用空港","kind_code":"6","status":"供用中","pref":"山口県"}},{"type":"Feature","geometry":{"type":"Point","coordinates":[139.43278,42.07167]},"properties":{"name":"奥尻空港","kind":"地方管理空港","kind_code":"4","status":"供用中","pref":"北海道"}},{"type":"Feature","geometry":{"type":"Point","coordinates":[139.78111,35.55333]},"properties":{"name":"東京国際空港","kind":"拠点空港（国管理）","kind_code":"2","status":"供用中","pref":"東京都"}},{"type":"Feature","geometry":{"type":"Point","coordinates":[127.63972,26.19333]},"properties":{"name":"那覇空港","kind":"拠点空港（国管理）","kind_code":"2","status":"供用中","pref":"沖縄県"}},{"type":"Feature","geometry":{"type":"Point","coordinates":[130.39083,33.6775]},"properties":{"name":"福岡空港（奈多地区）","kind":"拠点空港（国管理）","kind_code":"2","status":"供用中","pref":"福岡県"}}]}