{"type":"FeatureCollection","features":[{"type":"Feature","properties":{"kind":"eez","n":"日本領海・EEZ範囲（近似）"},"geometry":{"type":"MultiLineString","coordinates":[[[151.19,26.19],[151.81,26.87],[152.58,27.35],[153.25,27.54],[154.37,27.61],[155.37,27.32],[156.11,26.86],[156.71,26.21],[157.11,25.43],[157.32,24.21],[157.15,23.23],[156.67,22.31],[155.86,21.53],[154.89,21.08],[153.87,20.95],[153.04,21.09],[152.33,21.39],[151.58,21.96],[151.03,22.69],[150.79,23.3],[150.62,24.47],[150.79,25.37],[151.19,26.19]],[[128.15,22.84],[127.68,22.27],[126.91,21.75],[124.9,21.09],[123.99,20.93],[122.97,21.04],[123.26,22.01],[123.11,23.07],[123.46,24.07],[123.37,24.36],[123.67,24.95],[123.6,25.45],[123.28,25.49],[123.17,25.68],[123.28,26.08],[122.53,26.64],[123.13,27.56],[123.51,28.64],[123.86,29.08],[124.6,28.92],[125.26,29.36],[126.14,30.42],[125.8,30.81],[125.39,31.79],[126.12,31.54],[126.9,31.6],[127.71,31.89],[128.15,32.27],[128.41,32.95],[128.79,33.19],[128.89,33.51],[129.23,33.58],[129.35,33.74],[128.98,33.88],[128.87,34.08],[129.1,34.85],[129.62,34.96],[129.79,34.68],[129.63,34.16],[130.06,33.92],[130.22,33.97],[130.56,34.2],[130.63,34.48],[130.9,34.73],[131.23,35.85],[132.06,36.27],[132.41,36.77],[132.57,37.28],[132.53,37.97],[132.23,38.57],[131.45,39.1],[132.59,39.6],[133.53,39.66],[134.23,39.51],[134.69,39.98],[135.4,40.4],[136.13,40.65],[136.01,41.43],[136.09,42.18],[136.65,42.52],[140.28,45.85],[140.69,44.95],[141.38,44.4],[141.43,44.85],[141.11,44.83],[140.76,45.16],[140.67,45.45],[140.82,45.72],[141.17,45.73],[141.36,45.51],[141.6,45.74],[142.0,45.81]],[[142.04,45.79],[143.28,44.75],[144.53,44.23],[144.7,44.22],[145.25,44.63],[145.51,44.59],[145.67,44.25],[145.6,44.1]],[[145.68,43.67],[146.0,43.62],[146.0,43.6]],[[146.05,43.38],[146.09,43.23],[145.13,42.71],[144.18,42.66],[144.78,42.17],[145.57,41.89],[146.13,41.79],[146.7,41.88],[147.75,42.35],[148.21,42.74],[148.52,43.43],[149.11,43.68],[148.98,42.31],[148.57,41.49],[147.96,40.82],[147.27,40.33],[145.75,39.77],[145.36,39.38],[145.12,38.17],[144.22,36.37],[144.1,34.87],[143.78,34.09],[143.2,33.33],[143.1,32.29],[143.59,31.17],[143.63,30.65],[144.46,30.08],[145.15,29.15],[145.45,28.33],[145.56,27.36],[145.55,26.17],[145.38,25.5],[144.77,24.4],[144.71,23.45],[144.05,22.13],[143.32,21.46],[142.42,21.04],[141.77,20.91],[140.52,21.03],[139.78,21.34],[139.02,21.96],[139.32,21.19],[139.4,20.19],[138.96,18.75],[138.49,18.13],[137.89,17.63],[137.18,17.28],[136.24,17.1],[135.46,17.15],[134.7,17.39],[133.54,18.26],[133.01,19.11],[132.76,20.06],[132.77,20.84],[133.01,21.68],[132.42,21.37],[131.56,21.15],[130.52,21.2],[129.34,21.69],[128.28,22.86],[128.15,22.84]],[[122.86,24.76],[123.28,24.61],[123.3,24.36],[123.15,24.18],[122.87,24.15],[122.65,24.53],[122.86,24.76]]]}},{"type":"Feature","properties":{"kind":"isl","n":"小笠原諸島","own":"東京都小笠原村","k":"ogasawara"},"geometry":{"type":"MultiPolygon","coordinates":[[[[142.2226,27.05271],[142.22296,27.05205],[142.22353,27.05234],[142.22341,27.05201],[142.22454,27.05189],[142.2252,27.05092],[142.22601,27.05046],[142.22637,27.04964],[142.22537,27.0478],[142.22569,27.04643],[142.22626,27.0461],[142.22588,27.04533],[142.22452,27.04518],[142.22434,27.04525],[142.22454,27.04567],[142.22357,27.04606],[142.22272,27.04539],[142.22268,27.04439],[142.22376,27.04345],[142.22508,27.04402],[142.22521,27.04306],[142.22393,27.0426],[142.22452,27.0425],[142.22513,27.04159],[142.22601,27.04173],[142.227,27.04106],[142.22639,27.04074],[142.22534,27.03918],[142.22583,27.03889],[142.22695,27.03936],[142.22845,27.03885],[142.22869,27.03812],[142.22984,27.03765],[142.22967,27.03695],[142.22993,27.03651],[142.22932,27.03581],[142.22678,27.03577],[142.2255,27.0362],[142.22308,27.0359],[142.22267,27.03664],[142.2221,27.03685],[142.22215,27.03628],[142.22188,27.03595],[142.22057,27.03637],[142.21949,27.03616],[142.21957,27.03648],[142.22068,27.0367],[142.22071,27.03696],[142.21922,27.03719],[142.21881,27.0378],[142.21926,27.03808],[142.21921,27.03848],[142.21901,27.03835],[142.21919,27.03895],[142.22043,27.03916],[142.22067,27.03997],[142.21999,27.04107],[142.21898,27.04155],[142.21669,27.04143],[142.21648,27.04119],[142.21671,27.04085],[142.21621,27.04079],[142.21585,27.04013],[142.21415,27.03899],[142.21367,27.03937],[142.21327,27.03926],[142.21348,27.0396],[142.21299,27.03945],[142.21233,27.04062],[142.21234,27.04021],[142.21195,27.04031],[142.21141,27.03995],[142.21167,27.03907],[142.21133,27.03804],[142.21033,27.03892],[142.2102,27.03976],[142.21058,27.0402],[142.2104,27.04057],[142.21008,27.04044],[142.20971,27.04071],[142.20887,27.04009],[142.20786,27.04047],[142.20794,27.04111],[142.20747,27.04171],[142.20745,27.0426],[142.20701,27.04257],[142.2071,27.04296],[142.20617,27.0441],[142.2056,27.04391],[142.20539,27.04417],[142.20457,27.04411],[142.204,27.04442],[142.20171,27.04434],[142.20092,27.04459],[142.20107,27.04478],[142.20044,27.04522],[142.19906,27.04562],[142.19752,27.04505],[142.19588,27.04402],[142.1946,27.04159],[142.19376,27.04122],[142.19332,27.04161],[142.19352,27.04203],[142.19289,27.04187],[142.19284,27.04224],[142.19211,27.04246],[142.19123,27.04229],[142.18979,27.0438],[142.18843,27.0441],[142.18791,27.04462],[142.18698,27.04465],[142.1863,27.04388],[142.18633,27.04219],[142.18599,27.04174],[142.18659,27.04039],[142.18615,27.03978],[142.18575,27.04033],[142.18562,27.04158],[142.18519,27.04233],[142.18532,27.04283],[142.18464,27.04349],[142.18449,27.04492],[142.18405,27.04549],[142.1845,27.04592],[142.18512,27.04573],[142.18583,27.04688],[142.18588,27.04762],[142.18525,27.04819],[142.18569,27.04793],[142.18645,27.04823],[142.1869,27.0479],[142.18803,27.04798],[142.18897,27.04864],[142.18979,27.05066],[142.18961,27.05176],[142.18911,27.0521],[142.18923,27.05266],[142.18875,27.05312],[142.18957,27.05357],[142.18924,27.05414],[142.18948,27.05417],[142.18941,27.05472],[142.18971,27.05494],[142.18948,27.05557],[142.18876,27.0561],[142.18758,27.05606],[142.18728,27.05479],[142.18623,27.0548],[142.1868,27.05564],[142.18652,27.05596],[142.18673,27.05682],[142.18739,27.05669],[142.18795,27.05735],[142.18797,27.05802],[142.1877,27.05834],[142.18792,27.05899],[142.18735,27.06104],[142.18827,27.06145],[142.18979,27.06158],[142.18973,27.06099],[142.19024,27.06105],[142.19119,27.05995],[142.19185,27.0599],[142.19239,27.05922],[142.19274,27.05921],[142.19422,27.05933],[142.19487,27.06006],[142.1953,27.0614],[142.19415,27.0617],[142.19484,27.06277],[142.19476,27.06305],[142.19358,27.06341],[142.19366,27.06405],[142.19311,27.0645],[142.19236,27.06477],[142.19142,27.06373],[142.19097,27.06415],[142.19144,27.06517],[142.1931,27.06636],[142.19321,27.06693],[142.19286,27.06762],[142.19131,27.06815],[142.18996,27.06786],[142.18875,27.06809],[142.18896,27.0684],[142.1895,27.06819],[142.18976,27.06836],[142.19023,27.06875],[142.19027,27.06935],[142.1893,27.07014],[142.18871,27.06964],[142.18793,27.06974],[142.18769,27.0704],[142.18791,27.07108],[142.18715,27.07161],[142.1861,27.07101],[142.18514,27.07087],[142.18431,27.07017],[142.1839,27.0702],[142.18392,27.07065],[142.18275,27.07066],[142.18255,27.07044],[142.18244,27.07068],[142.18217,27.07047],[142.18243,27.0718],[142.18182,27.07275],[142.18239,27.07382],[142.18187,27.07395],[142.1818,27.07435],[142.18395,27.07551],[142.18536,27.07366],[142.18559,27.07367],[142.18596,27.07474],[142.18629,27.07342],[142.18715,27.07269],[142.18774,27.0729],[142.18793,27.07337],[142.18822,27.0731],[142.18926,27.07362],[142.18993,27.07347],[142.19084,27.07376],[142.19186,27.07522],[142.19383,27.07577],[142.19417,27.07534],[142.19652,27.0748],[142.19852,27.07523],[142.20004,27.07449],[142.20113,27.07488],[142.20118,27.07398],[142.20171,27.07307],[142.20323,27.07299],[142.20453,27.07372],[142.20516,27.07428],[142.20528,27.0749],[142.20581,27.07511],[142.20582,27.07603],[142.20516,27.07652],[142.20488,27.07731],[142.20543,27.07769],[142.20631,27.07735],[142.20721,27.0785],[142.20695,27.07874],[142.20707,27.07993],[142.2067,27.08022],[142.20735,27.08143],[142.20707,27.08199],[142.20733,27.08267],[142.20792,27.08249],[142.20818,27.08268],[142.20838,27.08353],[142.20696,27.08596],[142.206,27.08624],[142.20561,27.08549],[142.20516,27.08555],[142.20506,27.08518],[142.20463,27.08535],[142.20387,27.08488],[142.20369,27.08512],[142.20402,27.08581],[142.20369,27.086],[142.20408,27.08653],[142.20351,27.08632],[142.20337,27.08677],[142.20269,27.08667],[142.20274,27.08711],[142.20218,27.08709],[142.20196,27.08736],[142.20217,27.08842],[142.20312,27.08911],[142.20359,27.08993],[142.20326,27.09112],[142.20366,27.09145],[142.20376,27.09345],[142.20338,27.09466],[142.20249,27.09558],[142.19975,27.09581],[142.19951,27.0956],[142.1992,27.09605],[142.20131,27.09588],[142.20228,27.09752],[142.2017,27.09786],[142.20237,27.09755],[142.20332,27.09867],[142.2029,27.09886],[142.20273,27.09859],[142.20111,27.09937],[142.20065,27.09944],[142.19998,27.09825],[142.20015,27.09879],[142.19982,27.09893],[142.19951,27.09876],[142.19962,27.09836],[142.19942,27.09873],[142.19899,27.09863],[142.19909,27.09822],[142.19887,27.0986],[142.19801,27.0984],[142.19891,27.09775],[142.19836,27.09695],[142.19871,27.09639],[142.19789,27.09631],[142.19816,27.09605],[142.19618,27.0944],[142.19534,27.09451],[142.19456,27.09406],[142.19524,27.09344],[142.19585,27.09354],[142.19464,27.09318],[142.19376,27.0939],[142.19185,27.0927],[142.19109,27.09081],[142.19234,27.09039],[142.19229,27.09012],[142.19333,27.08957],[142.19332,27.08926],[142.19255,27.08991],[142.19223,27.0895],[142.19056,27.08929],[142.18837,27.08845],[142.18779,27.08793],[142.18652,27.08802],[142.18619,27.08868],[142.18641,27.09016],[142.18579,27.09135],[142.18388,27.09279],[142.18291,27.0931],[142.18221,27.09283],[142.18251,27.09327],[142.18193,27.09444],[142.18209,27.09538],[142.18325,27.0974],[142.18268,27.09792],[142.18266,27.09898],[142.18174,27.10019],[142.1814,27.10027],[142.18249,27.10139],[142.18276,27.10248],[142.18338,27.10303],[142.18329,27.10338],[142.18506,27.10406],[142.18611,27.10477],[142.18625,27.10525],[142.1873,27.10555],[142.18798,27.10537],[142.18805,27.10507],[142.18842,27.10517],[142.18847,27.10466],[142.18878,27.10454],[142.1908,27.10444],[142.19253,27.10536],[142.19256,27.106],[142.19305,27.10603],[142.19362,27.10547],[142.19324,27.10432],[142.19432,27.10363],[142.19564,27.1039],[142.19567,27.10474],[142.19536,27.10493],[142.19673,27.10572],[142.19673,27.10506],[142.19769,27.1046],[142.19827,27.10478],[142.19817,27.10535],[142.19843,27.10548],[142.1989,27.10481],[142.20088,27.10501],[142.20195,27.10468],[142.20213,27.10507],[142.20191,27.10527],[142.20261,27.10558],[142.20336,27.10537],[142.20476,27.10551],[142.20535,27.10522],[142.20485,27.10506],[142.20478,27.10415],[142.20571,27.10333],[142.20662,27.10338],[142.2075,27.10304],[142.20781,27.10312],[142.20755,27.10333],[142.20801,27.10334],[142.21093,27.10266],[142.21129,27.10342],[142.2109,27.10355],[142.21123,27.10349],[142.2111,27.1037],[142.21137,27.10383],[142.21153,27.1035],[142.21231,27.10354],[142.21343,27.10279],[142.21278,27.10278],[142.21276,27.10191],[142.21471,27.10045],[142.21672,27.10006],[142.21699,27.10047],[142.21771,27.10056],[142.21813,27.10131],[142.21895,27.1009],[142.21903,27.1004],[142.21844,27.10063],[142.21772,27.1001],[142.21765,27.09846],[142.21861,27.09806],[142.2183,27.09782],[142.21833,27.0972],[142.21916,27.09689],[142.21932,27.09606],[142.2201,27.09593],[142.22048,27.09629],[142.22114,27.09609],[142.22137,27.0953],[142.22104,27.09469],[142.22195,27.09423],[142.22215,27.09327],[142.22307,27.09309],[142.223,27.09212],[142.2241,27.09133],[142.22373,27.09081],[142.2243,27.09073],[142.22428,27.09009],[142.22496,27.08976],[142.22486,27.08869],[142.2251,27.08855],[142.22526,27.08748],[142.2244,27.08756],[142.22303,27.08545],[142.22322,27.08479],[142.22352,27.08464],[142.22394,27.08492],[142.22431,27.08428],[142.22475,27.08411],[142.22466,27.08358],[142.22532,27.08319],[142.22436,27.08245],[142.22464,27.08157],[142.22611,27.08058],[142.22656,27.08086],[142.22661,27.08124],[142.22794,27.08089],[142.2282,27.08151],[142.2292,27.08106],[142.2297,27.0815],[142.23034,27.08055],[142.23007,27.08016],[142.23057,27.07907],[142.23233,27.07828],[142.23331,27.07664],[142.23287,27.07654],[142.23329,27.0752],[142.23261,27.07411],[142.23271,27.07316],[142.233,27.07286],[142.23242,27.07238],[142.23236,27.0719],[142.23189,27.07209],[142.23138,27.07161],[142.23129,27.07045],[142.23165,27.07006],[142.23128,27.06995],[142.23079,27.06886],[142.23107,27.0679],[142.2314,27.0677],[142.23111,27.06705],[142.23143,27.06638],[142.23125,27.06583],[142.23176,27.06499],[142.23177,27.06396],[142.23231,27.06385],[142.23233,27.06313],[142.23269,27.06306],[142.23284,27.06258],[142.23169,27.06261],[142.23122,27.06186],[142.2314,27.06147],[142.23108,27.06154],[142.23108,27.06112],[142.23083,27.06124],[142.23011,27.06029],[142.23013,27.05951],[142.23106,27.05914],[142.23226,27.05794],[142.2323,27.05765],[142.23185,27.0577],[142.23215,27.05678],[142.23276,27.0565],[142.23306,27.05663],[142.23298,27.05689],[142.2334,27.05681],[142.23404,27.05621],[142.23436,27.05648],[142.23506,27.05616],[142.23573,27.05508],[142.23612,27.05506],[142.2373,27.05403],[142.23745,27.05366],[142.23721,27.05371],[142.23709,27.05334],[142.23785,27.05227],[142.2379,27.05152],[142.23701,27.05089],[142.23627,27.05108],[142.23544,27.05059],[142.2369,27.05018],[142.23698,27.04942],[142.23519,27.04932],[142.23479,27.04953],[142.23454,27.04928],[142.23413,27.04985],[142.23384,27.04985],[142.23386,27.05028],[142.23353,27.05032],[142.23388,27.0506],[142.23472,27.05053],[142.23469,27.05074],[142.23431,27.05111],[142.23309,27.0514],[142.23159,27.05268],[142.2314,27.05321],[142.23079,27.05333],[142.2306,27.05373],[142.23021,27.05373],[142.2296,27.05429],[142.22933,27.05514],[142.22964,27.05603],[142.22933,27.05658],[142.22861,27.05686],[142.22801,27.05654],[142.22762,27.05569],[142.22694,27.05561],[142.22697,27.0552],[142.22645,27.05515],[142.22659,27.05459],[142.22616,27.05469],[142.22525,27.0535],[142.22406,27.0533],[142.22292,27.05418],[142.22202,27.05363],[142.22192,27.05287],[142.2226,27.05271]]],[[[142.16542,26.65951],[142.16573,26.65969],[142.16647,26.65923],[142.16634,26.65859],[142.16669,26.65816],[142.167,26.65839],[142.16753,26.65802],[142.16994,26.65818],[142.17265,26.65618],[142.17456,26.65587],[142.17566,26.65691],[142.1767,26.65592],[142.17763,26.65623],[142.17858,26.65574],[142.18018,26.65645],[142.18058,26.65714],[142.18215,26.65703],[142.18248,26.65812],[142.18191,26.65855],[142.18173,26.65913],[142.18214,26.65972],[142.18277,26.65944],[142.18412,26.66001],[142.18438,26.6592],[142.18501,26.65891],[142.1858,26.65925],[142.18618,26.65975],[142.18678,26.65943],[142.18722,26.65975],[142.18802,26.6595],[142.18869,26.65971],[142.18905,26.65937],[142.18816,26.65886],[142.18805,26.65808],[142.18748,26.65739],[142.18775,26.65709],[142.18837,26.6571],[142.18837,26.65651],[142.18862,26.65645],[142.18812,26.65611],[142.18846,26.6556],[142.18819,26.65516],[142.18687,26.65548],[142.18647,26.65595],[142.18474,26.65597],[142.18539,26.65441],[142.18502,26.65375],[142.1843,26.65384],[142.18405,26.65475],[142.18241,26.65432],[142.18201,26.6534],[142.18112,26.65365],[142.18021,26.65313],[142.17926,26.6542],[142.17797,26.65482],[142.17697,26.65455],[142.17576,26.65504],[142.17505,26.65446],[142.17454,26.65458],[142.17377,26.65207],[142.17415,26.6513],[142.174,26.65056],[142.17455,26.64995],[142.17448,26.6491],[142.17421,26.6489],[142.17459,26.64867],[142.17459,26.6478],[142.17358,26.64701],[142.17337,26.64562],[142.1729,26.64545],[142.17335,26.64524],[142.17336,26.64473],[142.17266,26.64453],[142.17248,26.64407],[142.17117,26.64307],[142.17155,26.64275],[142.17183,26.64172],[142.17217,26.64162],[142.17262,26.64085],[142.17249,26.64053],[142.17179,26.6404],[142.17308,26.6397],[142.17319,26.63817],[142.17353,26.63814],[142.17303,26.63782],[142.17273,26.63633],[142.17582,26.63458],[142.17706,26.63426],[142.17748,26.63318],[142.17822,26.63301],[142.17929,26.63172],[142.18023,26.63118],[142.18057,26.63047],[142.18021,26.63027],[142.18025,26.62953],[142.18071,26.62935],[142.18113,26.62866],[142.18053,26.62743],[142.18062,26.62553],[142.18033,26.62455],[142.18086,26.62392],[142.18116,26.62409],[142.18166,26.62388],[142.18218,26.62246],[142.1819,26.62202],[142.18201,26.62139],[142.1816,26.621],[142.18181,26.62085],[142.18169,26.6204],[142.1821,26.62017],[142.1817,26.61967],[142.18196,26.61921],[142.181,26.61832],[142.18152,26.61675],[142.18126,26.61647],[142.18152,26.61593],[142.18114,26.61594],[142.18146,26.6156],[142.18117,26.61516],[142.1817,26.61411],[142.18119,26.61405],[142.18215,26.6136],[142.18225,26.61183],[142.18288,26.61203],[142.18362,26.61166],[142.18264,26.61075],[142.18253,26.61101],[142.18181,26.61075],[142.18151,26.61028],[142.18189,26.60966],[142.18067,26.60965],[142.18057,26.6094],[142.18108,26.60935],[142.18037,26.60879],[142.17991,26.60895],[142.17972,26.60958],[142.17919,26.60894],[142.17905,26.60786],[142.17808,26.60736],[142.17704,26.60839],[142.17721,26.60903],[142.17673,26.60914],[142.17676,26.60886],[142.17668,26.60945],[142.17613,26.60963],[142.17466,26.60941],[142.17475,26.60853],[142.1744,26.60804],[142.17338,26.60785],[142.17356,26.60839],[142.17331,26.6087],[142.17364,26.60869],[142.17339,26.60917],[142.17371,26.60947],[142.17355,26.60976],[142.17449,26.61032],[142.17469,26.61098],[142.17448,26.61159],[142.17493,26.61143],[142.17528,26.61173],[142.17517,26.61284],[142.17589,26.61254],[142.17609,26.61346],[142.17677,26.61359],[142.17742,26.61474],[142.178,26.61486],[142.17817,26.6153],[142.17723,26.61547],[142.17709,26.6161],[142.17672,26.61623],[142.17647,26.61588],[142.17633,26.61608],[142.17653,26.61741],[142.17724,26.61738],[142.17693,26.61786],[142.17737,26.6197],[142.17722,26.62008],[142.17604,26.61991],[142.17587,26.62014],[142.17654,26.62069],[142.17634,26.62136],[142.17573,26.62158],[142.17538,26.62134],[142.17414,26.62222],[142.17472,26.62298],[142.17613,26.62296],[142.17617,26.62326],[142.17555,26.62377],[142.17647,26.62405],[142.17517,26.62455],[142.17476,26.62435],[142.17432,26.62483],[142.17393,26.62482],[142.17422,26.62527],[142.17409,26.62557],[142.17316,26.62559],[142.17335,26.62721],[142.17292,26.62753],[142.17298,26.62827],[142.17186,26.62849],[142.17204,26.6291],[142.17148,26.62973],[142.17118,26.63094],[142.17019,26.63136],[142.17,26.63188],[142.16934,26.63228],[142.16782,26.63167],[142.16744,26.63103],[142.16668,26.6315],[142.16512,26.63128],[142.16361,26.62973],[142.16318,26.63007],[142.16265,26.62982],[142.16195,26.63021],[142.16103,26.63146],[142.1613,26.63187],[142.16092,26.63266],[142.16131,26.63287],[142.16103,26.63371],[142.16117,26.63424],[142.16091,26.63469],[142.16001,26.6348],[142.16085,26.63498],[142.1607,26.63602],[142.16133,26.63679],[142.16099,26.63808],[142.16147,26.63907],[142.1612,26.63965],[142.16069,26.63993],[142.1604,26.63944],[142.16051,26.63978],[142.1599,26.63973],[142.16007,26.63889],[142.15861,26.63751],[142.15922,26.63837],[142.15848,26.63892],[142.15735,26.63756],[142.15873,26.63712],[142.15848,26.63695],[142.15752,26.63725],[142.1567,26.63581],[142.15892,26.63491],[142.15878,26.63465],[142.15656,26.63565],[142.15571,26.63545],[142.15397,26.63582],[142.15379,26.63687],[142.15406,26.63728],[142.15327,26.63853],[142.15353,26.63909],[142.15304,26.63946],[142.15328,26.63958],[142.15307,26.63999],[142.15326,26.64069],[142.15266,26.64096],[142.15307,26.64149],[142.15291,26.64174],[142.15325,26.64189],[142.15324,26.64257],[142.1522,26.64302],[142.15251,26.64354],[142.1524,26.64438],[142.1516,26.64511],[142.15163,26.64553],[142.1528,26.64615],[142.15286,26.64681],[142.15187,26.64767],[142.1505,26.64765],[142.15007,26.64777],[142.14989,26.6482],[142.14926,26.64824],[142.14949,26.649],[142.14895,26.6494],[142.14868,26.64911],[142.14845,26.64964],[142.14868,26.64999],[142.14846,26.6505],[142.14899,26.6509],[142.14889,26.65131],[142.14823,26.65169],[142.14771,26.6513],[142.14701,26.65177],[142.14759,26.65211],[142.14638,26.65288],[142.14671,26.65376],[142.1476,26.65345],[142.14807,26.65294],[142.14867,26.65337],[142.14885,26.65395],[142.14837,26.65468],[142.14729,26.65493],[142.14684,26.65536],[142.14746,26.65621],[142.14723,26.65653],[142.14591,26.65667],[142.14541,26.6561],[142.14483,26.65646],[142.14499,26.65822],[142.14624,26.65822],[142.1467,26.65964],[142.14753,26.6603],[142.14793,26.66137],[142.14903,26.6623],[142.14947,26.66374],[142.14921,26.66494],[142.14939,26.66531],[142.14894,26.66543],[142.14925,26.66588],[142.14852,26.66702],[142.14667,26.66803],[142.14569,26.66748],[142.14607,26.66704],[142.14452,26.6663],[142.14417,26.66662],[142.14386,26.66595],[142.14325,26.66651],[142.14223,26.66577],[142.14137,26.66652],[142.14136,26.66725],[142.14167,26.66736],[142.14161,26.66832],[142.14228,26.66875],[142.14326,26.66821],[142.14317,26.66924],[142.14288,26.66943],[142.14378,26.66986],[142.14325,26.66987],[142.1431,26.6702],[142.14366,26.67034],[142.14405,26.6701],[142.14433,26.67048],[142.14349,26.67267],[142.14433,26.67326],[142.14508,26.67461],[142.14469,26.6765],[142.14411,26.67696],[142.14272,26.67693],[142.14236,26.67776],[142.14126,26.67804],[142.14018,26.67872],[142.13953,26.67851],[142.13991,26.67895],[142.13904,26.67942],[142.13925,26.67977],[142.13838,26.68006],[142.138,26.68082],[142.13711,26.68076],[142.13637,26.68135],[142.13617,26.68163],[142.13647,26.68223],[142.13609,26.6824],[142.13628,26.68286],[142.13604,26.68311],[142.13643,26.68326],[142.13656,26.68401],[142.13589,26.68442],[142.13496,26.68605],[142.13432,26.68623],[142.13369,26.68601],[142.13385,26.68643],[142.13308,26.68678],[142.13312,26.68716],[142.13279,26.68741],[142.1322,26.68753],[142.13177,26.68841],[142.13147,26.68861],[142.13104,26.68843],[142.1308,26.68883],[142.13111,26.68865],[142.13109,26.68884],[142.13041,26.68936],[142.13069,26.68934],[142.13092,26.69013],[142.13073,26.69065],[142.12973,26.69142],[142.13022,26.69221],[142.1299,26.6932],[142.13004,26.69403],[142.12857,26.69492],[142.12862,26.69537],[142.12832,26.69546],[142.12855,26.69554],[142.12845,26.69627],[142.12806,26.69679],[142.1284,26.69703],[142.12809,26.69726],[142.12807,26.69758],[142.12836,26.69757],[142.12809,26.69778],[142.12867,26.69841],[142.12836,26.69918],[142.12788,26.69936],[142.12839,26.70073],[142.12798,26.70117],[142.12733,26.70101],[142.12628,26.70187],[142.12644,26.70223],[142.12613,26.70251],[142.12551,26.70259],[142.12563,26.70283],[142.12528,26.70297],[142.12544,26.70343],[142.12512,26.70389],[142.12538,26.70414],[142.12448,26.70507],[142.12321,26.7056],[142.12268,26.70644],[142.12335,26.70777],[142.12313,26.70816],[142.1233,26.7087],[142.1229,26.70895],[142.12313,26.70971],[142.12257,26.71027],[142.12288,26.71045],[142.1221,26.71063],[142.12174,26.71109],[142.12197,26.71122],[142.12238,26.71088],[142.12277,26.7112],[142.12273,26.71229],[142.12344,26.71345],[142.12325,26.71416],[142.12596,26.71436],[142.12604,26.71399],[142.12546,26.71391],[142.12534,26.71339],[142.12656,26.71265],[142.12652,26.71197],[142.12717,26.71151],[142.12714,26.71113],[142.12851,26.7109],[142.12835,26.71044],[142.12763,26.71004],[142.12764,26.70969],[142.12839,26.70969],[142.12869,26.70936],[142.12972,26.70944],[142.1297,26.70895],[142.13035,26.70886],[142.12953,26.70822],[142.12902,26.70823],[142.12894,26.70796],[142.12943,26.70781],[142.13014,26.70809],[142.13036,26.70796],[142.12979,26.70769],[142.12993,26.70739],[142.13091,26.70739],[142.13063,26.70699],[142.13097,26.70691],[142.13095,26.70645],[142.13139,26.70619],[142.13072,26.70555],[142.13069,26.70419],[142.13126,26.70385],[142.13121,26.70358],[142.1317,26.70396],[142.13182,26.70362],[142.13217,26.70377],[142.13178,26.70264],[142.13276,26.7025],[142.1329,26.70159],[142.13325,26.70215],[142.13362,26.70203],[142.13361,26.70147],[142.13313,26.70093],[142.13379,26.70111],[142.13408,26.70048],[142.13384,26.69982],[142.13467,26.69924],[142.13513,26.69916],[142.1354,26.7],[142.13642,26.70039],[142.13656,26.70007],[142.13753,26.69961],[142.13792,26.69983],[142.13907,26.69958],[142.13947,26.70071],[142.13965,26.70027],[142.14039,26.70009],[142.14082,26.69924],[142.14245,26.69794],[142.14294,26.69822],[142.14314,26.69871],[142.14208,26.69933],[142.14223,26.69948],[142.14151,26.70035],[142.14169,26.70052],[142.14122,26.70147],[142.14162,26.70172],[142.14156,26.70235],[142.1422,26.70335],[142.14101,26.70448],[142.14144,26.70433],[142.14169,26.7046],[142.14099,26.70537],[142.14085,26.70664],[142.14102,26.70728],[142.14124,26.70717],[142.14062,26.70807],[142.1409,26.70843],[142.14137,26.70836],[142.1419,26.70869],[142.14263,26.70848],[142.14262,26.70814],[142.14303,26.70823],[142.14311,26.70767],[142.14382,26.70753],[142.14351,26.70628],[142.14467,26.70613],[142.14524,26.70648],[142.1457,26.70627],[142.14756,26.70756],[142.14885,26.70766],[142.14969,26.70732],[142.14986,26.70683],[142.15019,26.70686],[142.15012,26.706],[142.15053,26.70562],[142.15116,26.70637],[142.1512,26.70683],[142.15189,26.70674],[142.15251,26.70595],[142.15271,26.70603],[142.15284,26.70632],[142.15245,26.70699],[142.15275,26.70818],[142.15359,26.70849],[142.15393,26.70904],[142.15419,26.70851],[142.15482,26.70891],[142.15535,26.70818],[142.15527,26.70789],[142.1558,26.70768],[142.15592,26.70727],[142.15622,26.708],[142.15691,26.70649],[142.15778,26.70628],[142.15824,26.70584],[142.15894,26.70426],[142.15883,26.70337],[142.15893,26.70371],[142.15936,26.70374],[142.16107,26.703],[142.16182,26.70432],[142.16246,26.70384],[142.1621,26.70336],[142.16238,26.70283],[142.16331,26.70329],[142.16365,26.70285],[142.16386,26.70301],[142.16462,26.70254],[142.16508,26.7026],[142.16472,26.70154],[142.1651,26.70157],[142.1652,26.70126],[142.1635,26.70015],[142.16188,26.70043],[142.16114,26.70134],[142.16035,26.70157],[142.15982,26.70103],[142.15902,26.7009],[142.15887,26.70047],[142.15835,26.7003],[142.15846,26.69988],[142.15722,26.70009],[142.15704,26.69968],[142.15682,26.69977],[142.15677,26.69913],[142.15596,26.69908],[142.1552,26.69864],[142.15454,26.69889],[142.15389,26.69882],[142.15358,26.69836],[142.15307,26.69849],[142.15261,26.69765],[142.15127,26.69718],[142.15088,26.69667],[142.15111,26.69491],[142.15063,26.69409],[142.14784,26.69448],[142.14832,26.69362],[142.14773,26.69214],[142.14814,26.69358],[142.14778,26.69407],[142.14743,26.69385],[142.14711,26.69426],[142.14652,26.69414],[142.14576,26.69308],[142.146,26.69248],[142.14543,26.69139],[142.14553,26.69095],[142.1464,26.69052],[142.14693,26.68931],[142.14667,26.68923],[142.14676,26.68842],[142.14649,26.68838],[142.14662,26.68771],[142.14708,26.68724],[142.1465,26.68623],[142.14662,26.68514],[142.14821,26.68462],[142.14878,26.68392],[142.14962,26.68367],[142.15199,26.68365],[142.15437,26.68429],[142.15696,26.68576],[142.15877,26.6861],[142.15911,26.68668],[142.1599,26.68677],[142.15997,26.68701],[142.16093,26.68667],[142.16135,26.68705],[142.1622,26.687],[142.16269,26.68663],[142.16302,26.68696],[142.16412,26.68709],[142.1653,26.68688],[142.16603,26.68744],[142.16639,26.68901],[142.16688,26.68909],[142.16777,26.68989],[142.16875,26.69],[142.16857,26.68954],[142.16905,26.6894],[142.16843,26.6892],[142.16872,26.68861],[142.16851,26.68821],[142.1677,26.68798],[142.16793,26.68738],[142.16773,26.68598],[142.16737,26.68531],[142.16602,26.6842],[142.16616,26.68263],[142.1666,26.68254],[142.16642,26.68195],[142.16724,26.68037],[142.16675,26.68067],[142.16618,26.67995],[142.16543,26.67981],[142.16545,26.67939],[142.16508,26.67906],[142.16567,26.6782],[142.16393,26.67761],[142.16365,26.6762],[142.16276,26.6745],[142.16187,26.67398],[142.16151,26.67297],[142.16288,26.66997],[142.16291,26.66868],[142.16235,26.66825],[142.162,26.6669],[142.1627,26.66558],[142.16309,26.66547],[142.16297,26.66485],[142.1639,26.66418],[142.16367,26.66377],[142.16407,26.66266],[142.16394,26.66196],[142.16457,26.66088],[142.16423,26.66052],[142.16542,26.65951]]],[[[142.22582,27.12421],[142.22673,27.12394],[142.22656,27.12244],[142.22727,27.12168],[142.22698,27.12129],[142.22617,27.12132],[142.22585,27.12024],[142.22631,27.11967],[142.22702,27.11998],[142.22761,27.11963],[142.22655,27.11939],[142.22703,27.11892],[142.22727,27.11806],[142.22656,27.11762],[142.22672,27.11725],[142.22595,27.11694],[142.22584,27.11641],[142.22607,27.11617],[142.22685,27.11622],[142.22695,27.11564],[142.22753,27.11501],[142.22867,27.115],[142.22903,27.11437],[142.23008,27.11474],[142.23004,27.11436],[142.23103,27.11442],[142.23126,27.11394],[142.23221,27.11449],[142.23249,27.11439],[142.23233,27.11393],[142.23256,27.11378],[142.234,27.1144],[142.23566,27.11397],[142.23606,27.11248],[142.23563,27.11202],[142.23613,27.11186],[142.23587,27.11176],[142.23608,27.11159],[142.23505,27.11079],[142.23494,27.11041],[142.2357,27.11016],[142.23557,27.10959],[142.23434,27.11012],[142.23398,27.10978],[142.23385,27.10908],[142.23177,27.10913],[142.23076,27.11031],[142.22981,27.10979],[142.22759,27.11054],[142.22706,27.11016],[142.22715,27.11061],[142.22604,27.11114],[142.22518,27.11056],[142.2253,27.11036],[142.22426,27.11048],[142.22394,27.11079],[142.22299,27.11058],[142.22279,27.11012],[142.22037,27.11082],[142.21973,27.11027],[142.21998,27.10881],[142.21896,27.10878],[142.21884,27.10912],[142.21846,27.10888],[142.21797,27.10919],[142.21753,27.10861],[142.2169,27.10842],[142.21579,27.1091],[142.21511,27.10897],[142.21229,27.10964],[142.21111,27.10963],[142.20995,27.10886],[142.20903,27.10874],[142.20807,27.10903],[142.20774,27.10952],[142.20701,27.10952],[142.20674,27.10914],[142.20555,27.10978],[142.20521,27.1095],[142.20491,27.11016],[142.20446,27.11038],[142.20077,27.1098],[142.20072,27.1105],[142.20035,27.1108],[142.20058,27.11127],[142.20165,27.11181],[142.20258,27.11172],[142.20274,27.11209],[142.20268,27.11249],[142.20216,27.11248],[142.20198,27.11287],[142.2027,27.11339],[142.20225,27.11391],[142.20137,27.1142],[142.20219,27.1148],[142.20269,27.11424],[142.20308,27.11424],[142.20332,27.11485],[142.20361,27.11464],[142.20408,27.11494],[142.20398,27.11535],[142.2055,27.11583],[142.20637,27.11707],[142.20634,27.11802],[142.20604,27.11845],[142.20562,27.11866],[142.20502,27.1184],[142.20464,27.11856],[142.20473,27.11881],[142.20395,27.11888],[142.20387,27.1192],[142.2032,27.11955],[142.20236,27.11951],[142.20195,27.11993],[142.20232,27.12094],[142.20211,27.12133],[142.20165,27.12118],[142.20165,27.12167],[142.20122,27.12203],[142.19965,27.12231],[142.19757,27.12345],[142.19659,27.1232],[142.19588,27.12337],[142.19485,27.12296],[142.1943,27.12325],[142.19314,27.12325],[142.19221,27.12202],[142.19072,27.12135],[142.19114,27.12112],[142.19002,27.12105],[142.19032,27.12065],[142.18712,27.12153],[142.18713,27.12199],[142.18771,27.12193],[142.18781,27.12166],[142.18806,27.12265],[142.18892,27.12291],[142.18905,27.12269],[142.1902,27.12325],[142.19081,27.12493],[142.18975,27.12617],[142.18829,27.12681],[142.18876,27.1274],[142.18822,27.12942],[142.18736,27.13037],[142.18685,27.1302],[142.18676,27.13043],[142.18741,27.13091],[142.18785,27.13033],[142.18837,27.13034],[142.18989,27.13186],[142.19315,27.13361],[142.19286,27.13408],[142.19202,27.13397],[142.19124,27.13486],[142.19106,27.13534],[142.19134,27.13592],[142.1902,27.13601],[142.19002,27.13675],[142.18904,27.13673],[142.18991,27.13948],[142.19082,27.13985],[142.19087,27.14094],[142.19131,27.14107],[142.19136,27.14213],[142.19075,27.14279],[142.19044,27.14372],[142.19118,27.14418],[142.19217,27.14408],[142.19201,27.14314],[142.19237,27.14295],[142.193,27.14365],[142.19407,27.1436],[142.1936,27.14193],[142.19363,27.14165],[142.19391,27.14168],[142.19386,27.14069],[142.19439,27.14013],[142.1961,27.14026],[142.19564,27.13987],[142.19601,27.13968],[142.19565,27.13885],[142.19457,27.13784],[142.19701,27.13621],[142.19681,27.13554],[142.1975,27.135],[142.19761,27.13526],[142.19835,27.13474],[142.19959,27.13476],[142.20033,27.13355],[142.20013,27.13258],[142.20093,27.13307],[142.20147,27.13278],[142.20171,27.13323],[142.20274,27.13317],[142.20282,27.13365],[142.2036,27.13455],[142.20508,27.13381],[142.20477,27.13431],[142.20499,27.13488],[142.20547,27.13432],[142.20567,27.13466],[142.20595,27.1343],[142.20688,27.13406],[142.20692,27.13286],[142.20581,27.13302],[142.20626,27.13252],[142.20613,27.13208],[142.20482,27.13094],[142.20509,27.13055],[142.20485,27.12995],[142.20509,27.12781],[142.20585,27.12905],[142.20887,27.12927],[142.20941,27.12972],[142.20962,27.12951],[142.20993,27.1304],[142.2103,27.1305],[142.21055,27.13012],[142.21136,27.13083],[142.21195,27.13064],[142.21221,27.13093],[142.21378,27.13126],[142.21536,27.13241],[142.21612,27.1323],[142.21646,27.13254],[142.21652,27.13346],[142.21689,27.13358],[142.21966,27.13263],[142.2196,27.13178],[142.21902,27.13157],[142.21938,27.13106],[142.2192,27.13041],[142.21887,27.13044],[142.21867,27.12966],[142.2178,27.12917],[142.21815,27.12903],[142.21823,27.12865],[142.21904,27.12889],[142.21966,27.12828],[142.22011,27.12833],[142.22046,27.12691],[142.22145,27.12762],[142.2216,27.12727],[142.22122,27.12722],[142.22168,27.12688],[142.22163,27.12646],[142.22253,27.12632],[142.22329,27.12548],[142.22305,27.12465],[142.22395,27.12365],[142.22353,27.12357],[142.22383,27.12311],[142.2242,27.12304],[142.22473,27.12351],[142.22529,27.12335],[142.22543,27.12404],[142.22582,27.12421]]],[[[142.20066,27.16938],[142.20118,27.169],[142.20182,27.16954],[142.20217,27.16918],[142.20154,27.16831],[142.20134,27.16736],[142.20144,27.16688],[142.20207,27.16642],[142.20082,27.16623],[142.20001,27.16567],[142.20011,27.16442],[142.20069,27.16406],[142.20058,27.16306],[142.20033,27.16263],[142.19943,27.16223],[142.19897,27.16101],[142.19806,27.1609],[142.19746,27.1596],[142.19783,27.15919],[142.19846,27.1592],[142.19846,27.15855],[142.19922,27.15866],[142.19939,27.15816],[142.19741,27.15693],[142.19766,27.15632],[142.19753,27.15586],[142.19678,27.15532],[142.19688,27.15511],[142.1963,27.15502],[142.19624,27.15454],[142.19455,27.1533],[142.19393,27.15329],[142.19317,27.15255],[142.19247,27.15238],[142.19284,27.15193],[142.19235,27.15054],[142.19141,27.15017],[142.18935,27.1507],[142.18792,27.15018],[142.1882,27.14871],[142.18742,27.14768],[142.18789,27.14726],[142.18826,27.1463],[142.18814,27.14557],[142.1887,27.14521],[142.18877,27.14448],[142.18775,27.14438],[142.18733,27.14475],[142.18555,27.14517],[142.18519,27.14498],[142.18367,27.14549],[142.18399,27.1463],[142.18378,27.14659],[142.18195,27.14606],[142.18064,27.14645],[142.18027,27.1477],[142.17974,27.14797],[142.17963,27.14834],[142.17998,27.14875],[142.1801,27.14965],[142.18025,27.14925],[142.18053,27.14974],[142.18128,27.14979],[142.18132,27.15006],[142.18052,27.15035],[142.18056,27.15067],[142.18115,27.15083],[142.18154,27.15047],[142.18349,27.15008],[142.18455,27.14952],[142.18505,27.14974],[142.18566,27.15083],[142.18517,27.15132],[142.18469,27.15258],[142.18635,27.15465],[142.18493,27.15641],[142.18464,27.15635],[142.18445,27.15688],[142.18305,27.15691],[142.18197,27.15652],[142.18097,27.15762],[142.18115,27.15792],[142.18317,27.15807],[142.18316,27.15888],[142.18456,27.15946],[142.18419,27.15966],[142.18446,27.16024],[142.18382,27.16059],[142.18444,27.16175],[142.18375,27.16328],[142.1837,27.16487],[142.18327,27.16605],[142.18446,27.16683],[142.18385,27.16912],[142.18397,27.16946],[142.18458,27.16964],[142.18503,27.17047],[142.1843,27.17135],[142.18353,27.17161],[142.18366,27.17201],[142.18635,27.17145],[142.1872,27.17157],[142.18769,27.17231],[142.18724,27.17392],[142.1874,27.17524],[142.18779,27.17573],[142.18755,27.17669],[142.18616,27.17687],[142.18586,27.17739],[142.18629,27.17848],[142.18613,27.17889],[142.18551,27.17895],[142.18484,27.17832],[142.18447,27.17839],[142.18489,27.17865],[142.18463,27.17904],[142.18477,27.1795],[142.18568,27.17997],[142.1877,27.18216],[142.18791,27.18298],[142.18772,27.18446],[142.18727,27.18435],[142.18663,27.18492],[142.18618,27.18458],[142.18575,27.18467],[142.18535,27.18633],[142.18424,27.18714],[142.18438,27.18741],[142.18652,27.18728],[142.18651,27.1879],[142.18844,27.18916],[142.18912,27.19012],[142.18964,27.18899],[142.18894,27.18825],[142.18885,27.18748],[142.18938,27.18691],[142.19061,27.18652],[142.19122,27.18585],[142.192,27.18572],[142.19263,27.18484],[142.1931,27.18536],[142.19443,27.18483],[142.19503,27.18492],[142.19541,27.18533],[142.19572,27.18506],[142.19581,27.18461],[142.19475,27.18349],[142.19458,27.18278],[142.19539,27.18339],[142.19593,27.18314],[142.19653,27.18333],[142.19726,27.18251],[142.19885,27.18286],[142.19935,27.18375],[142.19978,27.18365],[142.20008,27.18283],[142.19992,27.18137],[142.19912,27.18083],[142.19847,27.18098],[142.19815,27.18045],[142.19701,27.1807],[142.19761,27.18032],[142.19786,27.17946],[142.19679,27.18009],[142.1967,27.17946],[142.19564,27.1797],[142.19481,27.17774],[142.19483,27.1767],[142.19451,27.17645],[142.19518,27.17506],[142.19557,27.17502],[142.19502,27.17413],[142.19511,27.17329],[142.1964,27.17274],[142.19761,27.17105],[142.19806,27.17103],[142.19779,27.17016],[142.19827,27.16857],[142.19895,27.16849],[142.19986,27.16932],[142.20066,27.16938]]],[[[142.13461,27.68162],[142.13299,27.68098],[142.13324,27.68007],[142.13314,27.67893],[142.13261,27.67893],[142.13237,27.67962],[142.13165,27.67972],[142.13145,27.6794],[142.13164,27.67856],[142.13107,27.67839],[142.12994,27.6798],[142.12936,27.68008],[142.12912,27.68082],[142.12934,27.68109],[142.12903,27.68156],[142.12721,27.68174],[142.12696,27.68244],[142.12712,27.68278],[142.12676,27.68307],[142.12687,27.68355],[142.12647,27.68403],[142.12536,27.6842],[142.12508,27.68361],[142.12427,27.68335],[142.12392,27.68351],[142.12394,27.68417],[142.12359,27.68445],[142.12398,27.6848],[142.12393,27.6853],[142.12506,27.68553],[142.12528,27.68706],[142.12776,27.68759],[142.12816,27.68819],[142.1294,27.68782],[142.12977,27.68819],[142.12972,27.68867],[142.13033,27.68869],[142.13093,27.68925],[142.1313,27.68912],[142.13143,27.68806],[142.13159,27.68834],[142.1323,27.68842],[142.13202,27.68768],[142.13226,27.68759],[142.13252,27.68569],[142.13282,27.68549],[142.13322,27.68587],[142.13526,27.68655],[142.13547,27.68702],[142.13625,27.68736],[142.13657,27.68725],[142.13663,27.68656],[142.13741,27.68698],[142.13826,27.68651],[142.13843,27.68577],[142.13872,27.68563],[142.14034,27.68668],[142.1401,27.68857],[142.14145,27.68895],[142.14248,27.68885],[142.14264,27.68846],[142.14237,27.68732],[142.14319,27.68637],[142.14444,27.68599],[142.14476,27.68624],[142.14522,27.6853],[142.14647,27.68508],[142.14825,27.68337],[142.14834,27.6825],[142.14764,27.6824],[142.14756,27.682],[142.14799,27.68188],[142.14864,27.68083],[142.14834,27.67984],[142.1479,27.67953],[142.1483,27.67882],[142.14805,27.67814],[142.14859,27.67717],[142.14824,27.67531],[142.14875,27.67321],[142.14692,27.67122],[142.14575,27.67059],[142.14469,27.67088],[142.14359,27.67165],[142.14259,27.67127],[142.14224,27.67153],[142.14092,27.6715],[142.14088,27.67216],[142.14158,27.67283],[142.14063,27.67293],[142.14049,27.67257],[142.1396,27.67205],[142.13857,27.67286],[142.1391,27.67279],[142.13935,27.67317],[142.13955,27.67302],[142.1394,27.67357],[142.13785,27.67434],[142.13901,27.67468],[142.13863,27.67504],[142.13924,27.67505],[142.13911,27.67539],[142.13953,27.67613],[142.13884,27.67615],[142.13828,27.67658],[142.1384,27.67758],[142.13921,27.67793],[142.13898,27.67896],[142.13757,27.67916],[142.13728,27.68006],[142.13677,27.67979],[142.13542,27.68009],[142.13517,27.68127],[142.13461,27.68162]]],[[[142.15901,26.55585],[142.15908,26.55438],[142.16021,26.5547],[142.16057,26.55422],[142.16059,26.55377],[142.15993,26.5534],[142.16009,26.553],[142.16087,26.55279],[142.16092,26.55173],[142.16115,26.55159],[142.16108,26.55114],[142.16041,26.55135],[142.16106,26.55041],[142.16091,26.5481],[142.16019,26.54737],[142.15956,26.54725],[142.15945,26.54668],[142.15913,26.54663],[142.15903,26.54698],[142.15872,26.54694],[142.15871,26.54667],[142.15852,26.54691],[142.15785,26.54687],[142.15813,26.54579],[142.15766,26.54509],[142.15809,26.54425],[142.15703,26.54325],[142.15675,26.54318],[142.15642,26.54386],[142.15635,26.54337],[142.15598,26.54336],[142.15589,26.5437],[142.15534,26.54368],[142.15519,26.54409],[142.15453,26.54368],[142.1542,26.545],[142.15381,26.54496],[142.15326,26.5455],[142.15312,26.54597],[142.15347,26.54636],[142.15338,26.54671],[142.15133,26.54659],[142.15083,26.54799],[142.15107,26.54843],[142.15212,26.54854],[142.15256,26.54809],[142.15264,26.54734],[142.15272,26.54829],[142.15332,26.54776],[142.1536,26.54837],[142.15337,26.54895],[142.15379,26.54886],[142.15437,26.54933],[142.15464,26.5489],[142.15518,26.55027],[142.15478,26.55168],[142.1545,26.55182],[142.15401,26.55144],[142.15404,26.55225],[142.15378,26.55223],[142.15344,26.55316],[142.1537,26.55371],[142.15333,26.55406],[142.15346,26.5544],[142.15401,26.55452],[142.15508,26.55409],[142.15489,26.55459],[142.15512,26.5549],[142.15495,26.55515],[142.15449,26.55502],[142.15488,26.55547],[142.15473,26.5557],[142.15374,26.55547],[142.15322,26.55568],[142.153,26.55626],[142.15339,26.55671],[142.15259,26.55677],[142.15238,26.55711],[142.15303,26.55831],[142.15208,26.55865],[142.15231,26.55906],[142.15362,26.55973],[142.15286,26.56029],[142.15276,26.56205],[142.15246,26.56228],[142.15213,26.56188],[142.15156,26.56226],[142.15212,26.56346],[142.15285,26.56355],[142.15265,26.56402],[142.15285,26.56425],[142.15348,26.56423],[142.15368,26.56457],[142.15446,26.56451],[142.15457,26.56498],[142.15517,26.56422],[142.15568,26.56465],[142.15565,26.56375],[142.15605,26.56324],[142.15574,26.56266],[142.15607,26.56237],[142.15677,26.56195],[142.15803,26.56167],[142.15932,26.56177],[142.16087,26.56117],[142.16108,26.56059],[142.16092,26.55996],[142.16133,26.55972],[142.16133,26.55942],[142.16056,26.55819],[142.15953,26.55784],[142.15934,26.55732],[142.15961,26.55669],[142.15901,26.55585]]],[[[142.1329,26.60951],[142.13255,26.60851],[142.13357,26.60858],[142.13412,26.60828],[142.13348,26.60663],[142.13391,26.60646],[142.13474,26.6052],[142.1351,26.60307],[142.13589,26.6013],[142.1356,26.60047],[142.13523,26.60028],[142.13456,26.599],[142.13401,26.59899],[142.13353,26.59677],[142.13314,26.59677],[142.13292,26.59639],[142.13231,26.59677],[142.13214,26.59575],[142.13114,26.5963],[142.13097,26.5958],[142.13006,26.59516],[142.13011,26.59486],[142.12893,26.59501],[142.12851,26.5963],[142.12879,26.59709],[142.1286,26.59761],[142.12784,26.59822],[142.12722,26.5977],[142.12753,26.59711],[142.12712,26.59642],[142.12716,26.59595],[142.12526,26.59559],[142.12506,26.59612],[142.12538,26.59651],[142.12564,26.59865],[142.12721,26.59912],[142.12743,26.59989],[142.12705,26.60051],[142.12659,26.60046],[142.12632,26.60007],[142.12543,26.6004],[142.12582,26.60125],[142.1264,26.601],[142.12664,26.6014],[142.12633,26.60236],[142.12572,26.60235],[142.12605,26.60261],[142.12504,26.60285],[142.12509,26.60356],[142.12429,26.60394],[142.12315,26.60352],[142.12271,26.60373],[142.12288,26.60478],[142.12333,26.60486],[142.12417,26.60621],[142.1242,26.60657],[142.12341,26.60713],[142.12472,26.60754],[142.12554,26.60722],[142.12617,26.60758],[142.12653,26.60892],[142.12588,26.60906],[142.12576,26.60952],[142.12603,26.60991],[142.12722,26.61037],[142.12832,26.61048],[142.12849,26.61014],[142.12819,26.60979],[142.12823,26.60916],[142.12887,26.60894],[142.12925,26.60928],[142.12975,26.60868],[142.13,26.61041],[142.13042,26.61063],[142.13202,26.61051],[142.13212,26.60941],[142.13273,26.61028],[142.1329,26.60951]]],[[[142.17267,27.62717],[142.17304,27.62773],[142.17226,27.62843],[142.17251,27.62882],[142.17225,27.62921],[142.17241,27.62933],[142.17261,27.62884],[142.17307,27.62907],[142.17307,27.62939],[142.1723,27.63037],[142.1714,27.63086],[142.17171,27.63074],[142.17156,27.63099],[142.17192,27.63126],[142.17161,27.63141],[142.17188,27.63145],[142.17151,27.63234],[142.17113,27.63253],[142.17156,27.6326],[142.17121,27.63275],[142.17132,27.63313],[142.17077,27.63393],[142.16994,27.63398],[142.17057,27.63416],[142.17061,27.6345],[142.17025,27.63463],[142.17064,27.63477],[142.17077,27.63432],[142.17185,27.6338],[142.17219,27.6331],[142.17296,27.63297],[142.17355,27.63377],[142.1738,27.6352],[142.17451,27.63581],[142.17507,27.63589],[142.17505,27.63529],[142.17549,27.63518],[142.1754,27.63473],[142.17603,27.63386],[142.17704,27.63419],[142.17733,27.63377],[142.17818,27.63372],[142.17867,27.63068],[142.1788,27.63114],[142.17936,27.63126],[142.17925,27.63072],[142.17959,27.63041],[142.18036,27.63062],[142.18062,27.63043],[142.1815,27.63083],[142.18309,27.63038],[142.18391,27.62931],[142.18369,27.62876],[142.18418,27.62806],[142.18422,27.62705],[142.18462,27.62723],[142.18478,27.62684],[142.18539,27.6269],[142.18588,27.62642],[142.18568,27.62601],[142.18504,27.62615],[142.18468,27.62588],[142.18541,27.62556],[142.18596,27.62491],[142.18549,27.6245],[142.18591,27.62436],[142.18619,27.62367],[142.18579,27.62338],[142.18624,27.62309],[142.18583,27.62281],[142.18613,27.62244],[142.18727,27.62249],[142.18747,27.62214],[142.1869,27.62202],[142.18681,27.62134],[142.18616,27.62104],[142.18672,27.62051],[142.18617,27.62046],[142.18562,27.6197],[142.18494,27.61977],[142.18473,27.62],[142.18499,27.62004],[142.1849,27.62033],[142.1842,27.6207],[142.18427,27.62041],[142.18402,27.62044],[142.1839,27.62091],[142.18329,27.62093],[142.1829,27.62129],[142.18277,27.62184],[142.18298,27.62215],[142.18215,27.6227],[142.18178,27.62334],[142.18135,27.62272],[142.1818,27.62187],[142.18143,27.62193],[142.18095,27.62274],[142.18036,27.62272],[142.17988,27.62381],[142.17908,27.62436],[142.17905,27.62495],[142.17832,27.62617],[142.17773,27.62644],[142.17727,27.62617],[142.17785,27.6254],[142.17791,27.62458],[142.17719,27.62425],[142.17701,27.62474],[142.17659,27.62468],[142.17655,27.62426],[142.17718,27.62321],[142.17667,27.62318],[142.17661,27.62282],[142.17644,27.62325],[142.17577,27.62194],[142.17534,27.62184],[142.17533,27.62239],[142.17579,27.62262],[142.17613,27.62335],[142.17459,27.62432],[142.17406,27.62364],[142.17365,27.62426],[142.17347,27.62634],[142.17329,27.6267],[142.17287,27.6267],[142.17299,27.62692],[142.17267,27.62717]]],[[[142.21426,26.56421],[142.21501,26.56376],[142.2163,26.56381],[142.2166,26.56313],[142.21707,26.56286],[142.21785,26.5633],[142.21841,26.56301],[142.21809,26.56209],[142.21839,26.56169],[142.21773,26.56162],[142.21747,26.5612],[142.21674,26.56127],[142.21672,26.56039],[142.21616,26.55924],[142.21634,26.559],[142.21571,26.55867],[142.21607,26.55845],[142.21529,26.55681],[142.21386,26.55656],[142.21382,26.55617],[142.21341,26.55594],[142.21347,26.55547],[142.21316,26.55552],[142.21302,26.55591],[142.21254,26.55585],[142.21229,26.55624],[142.21157,26.55592],[142.21135,26.55623],[142.21088,26.55625],[142.21042,26.5558],[142.21071,26.55527],[142.21061,26.55485],[142.2101,26.55483],[142.20937,26.5554],[142.20881,26.55522],[142.2084,26.55459],[142.20658,26.55447],[142.2063,26.55382],[142.20611,26.55414],[142.20629,26.55458],[142.20569,26.55413],[142.20558,26.55472],[142.20474,26.55486],[142.20408,26.55461],[142.20382,26.55361],[142.20331,26.55442],[142.20252,26.55311],[142.20209,26.55298],[142.20172,26.55324],[142.20148,26.55403],[142.20184,26.55414],[142.20193,26.55449],[142.20156,26.55479],[142.20173,26.55529],[142.20148,26.5559],[142.20251,26.5564],[142.20199,26.55633],[142.20157,26.55665],[142.20253,26.55743],[142.20291,26.55813],[142.20346,26.55834],[142.20329,26.55869],[142.20398,26.55883],[142.20433,26.56004],[142.20391,26.56002],[142.20417,26.5608],[142.20311,26.56161],[142.20318,26.5621],[142.20414,26.56227],[142.20451,26.56168],[142.20501,26.56205],[142.20595,26.5617],[142.20686,26.56247],[142.20771,26.56277],[142.20835,26.56362],[142.20866,26.56371],[142.20899,26.56335],[142.20924,26.56394],[142.21152,26.56381],[142.21189,26.56439],[142.2125,26.56448],[142.21426,26.56421]]],[[[142.22913,26.56454],[142.22922,26.56415],[142.22865,26.56381],[142.22688,26.56378],[142.22652,26.56492],[142.2272,26.56558],[142.22613,26.56573],[142.22583,26.56654],[142.22666,26.56757],[142.22755,26.56728],[142.22734,26.56822],[142.22842,26.56863],[142.22842,26.56921],[142.22673,26.57028],[142.22654,26.57096],[142.22726,26.57219],[142.22775,26.57248],[142.22815,26.57358],[142.22875,26.57403],[142.22848,26.57433],[142.22919,26.57416],[142.22952,26.57515],[142.23037,26.57497],[142.23029,26.57571],[142.23115,26.57552],[142.23202,26.57381],[142.23247,26.57423],[142.23326,26.57337],[142.23317,26.57289],[142.23353,26.57275],[142.23349,26.57241],[142.23445,26.57193],[142.23524,26.57081],[142.23584,26.57094],[142.23603,26.5706],[142.23669,26.57041],[142.23714,26.57073],[142.2379,26.57024],[142.23828,26.57075],[142.23898,26.57002],[142.23905,26.56921],[142.23979,26.56972],[142.23992,26.56957],[142.23932,26.56891],[142.23991,26.56921],[142.24042,26.56859],[142.23987,26.56841],[142.24008,26.56796],[142.23985,26.5673],[142.23944,26.56792],[142.23818,26.56827],[142.23671,26.56746],[142.23586,26.56804],[142.23557,26.5675],[142.23384,26.56661],[142.23328,26.56659],[142.23297,26.56622],[142.2327,26.56654],[142.23158,26.56657],[142.23064,26.56602],[142.23084,26.56552],[142.23028,26.56556],[142.22972,26.56496],[142.22922,26.56505],[142.22941,26.56475],[142.22913,26.56454]]],[[[142.21347,27.4952],[142.21421,27.49505],[142.21422,27.49481],[142.21342,27.4945],[142.21307,27.49405],[142.21432,27.49318],[142.21449,27.49234],[142.21552,27.49203],[142.21627,27.49136],[142.21487,27.49124],[142.21469,27.49086],[142.2151,27.48963],[142.21475,27.48934],[142.21406,27.48954],[142.2134,27.48934],[142.21294,27.48982],[142.21232,27.48974],[142.2117,27.49008],[142.21182,27.49041],[142.21112,27.49217],[142.21129,27.49271],[142.21186,27.49294],[142.21198,27.49363],[142.21133,27.49488],[142.21037,27.49544],[142.20906,27.49505],[142.20837,27.49574],[142.20733,27.49562],[142.20668,27.49646],[142.20609,27.49619],[142.20539,27.4964],[142.20448,27.49726],[142.20499,27.49782],[142.20585,27.49796],[142.20586,27.49842],[142.20504,27.49858],[142.2041,27.49834],[142.20396,27.49903],[142.20426,27.49949],[142.20491,27.49968],[142.20532,27.50045],[142.20626,27.50044],[142.20663,27.49973],[142.20703,27.50046],[142.20776,27.50055],[142.20828,27.49955],[142.20931,27.49977],[142.21039,27.50093],[142.2109,27.50214],[142.21141,27.50224],[142.21215,27.50107],[142.2126,27.50118],[142.21273,27.50097],[142.21254,27.50052],[142.21209,27.50038],[142.21265,27.50011],[142.21194,27.4999],[142.21183,27.49956],[142.21289,27.49959],[142.21312,27.49871],[142.21293,27.49822],[142.21215,27.49765],[142.21207,27.49627],[142.21345,27.4962],[142.21347,27.4952]]],[[[142.16909,27.11493],[142.16895,27.11462],[142.16837,27.11458],[142.16733,27.11515],[142.16649,27.11457],[142.1665,27.11377],[142.16617,27.11369],[142.16579,27.11295],[142.16288,27.11318],[142.16225,27.11311],[142.16218,27.11266],[142.16184,27.11259],[142.16189,27.11322],[142.16158,27.11321],[142.162,27.11383],[142.16171,27.11414],[142.16145,27.1139],[142.16186,27.11507],[142.16385,27.11517],[142.16474,27.11565],[142.16531,27.11553],[142.1651,27.11613],[142.16547,27.11689],[142.16577,27.11697],[142.16568,27.11736],[142.16478,27.11768],[142.16563,27.11775],[142.16486,27.11887],[142.16483,27.11943],[142.16447,27.11936],[142.16383,27.12008],[142.16324,27.12147],[142.16441,27.12118],[142.16516,27.12137],[142.16646,27.12028],[142.16705,27.12039],[142.1677,27.12129],[142.16833,27.1216],[142.16928,27.12107],[142.16919,27.1207],[142.16948,27.12057],[142.16986,27.11937],[142.17036,27.11915],[142.17086,27.11728],[142.17167,27.1165],[142.17218,27.11674],[142.17224,27.11649],[142.17212,27.11609],[142.17155,27.11641],[142.17123,27.11603],[142.17075,27.11598],[142.17044,27.11494],[142.17041,27.11535],[142.17007,27.1152],[142.16996,27.11568],[142.1695,27.11476],[142.16909,27.11493]]]]}},{"type":"Feature","properties":{"kind":"isllab","n":"小笠原諸島","own":"東京都小笠原村","k":"ogasawara"},"geometry":{"type":"Point","coordinates":[142.1,27.1]}},{"type":"Feature","properties":{"kind":"isl","n":"硫黄列島","own":"東京都小笠原村（硫黄島）","k":"iwo"},"geometry":{"type":"MultiPolygon","coordinates":[[[[141.28964,24.79482],[141.29328,24.79678],[141.29601,24.79801],[141.29677,24.79851],[141.29743,24.79926],[141.29791,24.79952],[141.29856,24.79972],[141.29934,24.80021],[141.30186,24.80218],[141.30231,24.80291],[141.30339,24.80374],[141.30423,24.8049],[141.30429,24.80551],[141.30414,24.8063],[141.30452,24.80689],[141.30558,24.80758],[141.307,24.8082],[141.30748,24.8085],[141.30822,24.80875],[141.30948,24.80958],[141.31008,24.81019],[141.3115,24.81095],[141.31204,24.81144],[141.31339,24.81188],[141.31676,24.81188],[141.31734,24.81199],[141.31815,24.81238],[141.31912,24.81329],[141.32126,24.81403],[141.32328,24.81401],[141.32655,24.81418],[141.32789,24.81402],[141.32963,24.8136],[141.33012,24.81362],[141.33056,24.81317],[141.33198,24.81235],[141.33514,24.81025],[141.33736,24.80848],[141.33864,24.80673],[141.33978,24.80545],[141.3403,24.80496],[141.34091,24.80478],[141.34126,24.80399],[141.34097,24.8038],[141.34106,24.80339],[141.34359,24.80019],[141.34403,24.79931],[141.34451,24.79867],[141.34694,24.79633],[141.34704,24.79593],[141.34688,24.79475],[141.34701,24.79365],[141.34735,24.79245],[141.34974,24.78813],[141.35007,24.78713],[141.35025,24.78567],[141.35018,24.78407],[141.35027,24.78328],[141.34985,24.77981],[141.34916,24.77799],[141.34763,24.77598],[141.34693,24.77564],[141.34651,24.77529],[141.34611,24.7739],[141.34607,24.77317],[141.34566,24.77282],[141.34481,24.7725],[141.34353,24.77166],[141.34301,24.77154],[141.34235,24.77154],[141.3422,24.77139],[141.34163,24.77124],[141.34147,24.77109],[141.34059,24.77097],[141.33781,24.76955],[141.33706,24.76952],[141.33641,24.76966],[141.33572,24.7696],[141.33411,24.76888],[141.33234,24.76854],[141.32766,24.76568],[141.32361,24.76376],[141.32028,24.76295],[141.31788,24.76199],[141.31265,24.75964],[141.30872,24.75848],[141.30528,24.75696],[141.30498,24.75655],[141.30465,24.75636],[141.30469,24.75622],[141.30459,24.75616],[141.30436,24.75611],[141.30427,24.75626],[141.30435,24.75636],[141.30423,24.75644],[141.30364,24.75648],[141.29879,24.75426],[141.298,24.75405],[141.297,24.75361],[141.29394,24.75141],[141.29367,24.75084],[141.29347,24.74973],[141.29304,24.74909],[141.29225,24.74845],[141.29068,24.74783],[141.29002,24.74745],[141.28822,24.74598],[141.28627,24.7456],[141.28586,24.74565],[141.28565,24.74555],[141.2857,24.74577],[141.28561,24.74603],[141.28584,24.74787],[141.28567,24.74857],[141.28531,24.74917],[141.28526,24.74957],[141.28479,24.7505],[141.28488,24.75167],[141.28476,24.75247],[141.28481,24.75333],[141.28504,24.75412],[141.28604,24.75652],[141.28665,24.75769],[141.28759,24.75887],[141.28887,24.76111],[141.28905,24.76198],[141.2887,24.76348],[141.2887,24.7639],[141.28918,24.7654],[141.28929,24.7661],[141.28977,24.7674],[141.29109,24.77013],[141.29142,24.77153],[141.29176,24.77236],[141.29201,24.77339],[141.29203,24.77399],[141.29187,24.77429],[141.29163,24.77428],[141.2913,24.7745],[141.29133,24.77501],[141.29165,24.77634],[141.29156,24.77679],[141.29178,24.77742],[141.29174,24.77788],[141.29055,24.78356],[141.28927,24.78481],[141.28899,24.78524],[141.2886,24.7856],[141.28804,24.78571],[141.28793,24.78554],[141.28771,24.78553],[141.28714,24.78517],[141.28642,24.78512],[141.28585,24.78533],[141.28505,24.78611],[141.28508,24.78655],[141.28564,24.78789],[141.28562,24.78881],[141.28611,24.78963],[141.28633,24.79068],[141.28652,24.79095],[141.28702,24.79137],[141.28732,24.79219],[141.28813,24.79277],[141.28863,24.79296],[141.28918,24.79362],[141.28937,24.7945],[141.28964,24.79482]]],[[[141.27413,25.42337],[141.27425,25.42341],[141.27427,25.42357],[141.274,25.42447],[141.27323,25.42612],[141.27229,25.42905],[141.27213,25.43083],[141.27213,25.43164],[141.27226,25.43233],[141.2722,25.43266],[141.27242,25.43319],[141.27248,25.43376],[141.27261,25.43397],[141.27275,25.43656],[141.27265,25.43759],[141.27287,25.4387],[141.27281,25.43941],[141.27314,25.44056],[141.27351,25.44131],[141.27436,25.44237],[141.27636,25.4444],[141.27716,25.44486],[141.27749,25.44518],[141.27831,25.44649],[141.28013,25.44796],[141.28244,25.4488],[141.28361,25.44893],[141.28504,25.44851],[141.28544,25.44825],[141.28691,25.44784],[141.28751,25.44752],[141.2881,25.44737],[141.28836,25.44705],[141.2885,25.447],[141.28863,25.44619],[141.28968,25.44498],[141.29012,25.44407],[141.29022,25.44324],[141.29006,25.442],[141.29051,25.44075],[141.29087,25.44025],[141.29119,25.43998],[141.29213,25.43947],[141.29226,25.43948],[141.29251,25.43927],[141.29297,25.43814],[141.29315,25.43634],[141.29306,25.43626],[141.29284,25.43488],[141.29233,25.43386],[141.29224,25.43325],[141.29247,25.43275],[141.29253,25.4323],[141.29241,25.43182],[141.29283,25.43054],[141.29288,25.42981],[141.29334,25.42863],[141.29353,25.42674],[141.29345,25.4261],[141.29328,25.42571],[141.29119,25.42345],[141.29045,25.42239],[141.28983,25.42193],[141.2891,25.42169],[141.28871,25.42141],[141.28831,25.42131],[141.28762,25.42078],[141.28598,25.42033],[141.28507,25.42021],[141.28447,25.41995],[141.28364,25.41935],[141.28184,25.41893],[141.27998,25.41892],[141.27841,25.41878],[141.27755,25.41903],[141.27689,25.41911],[141.27614,25.41944],[141.27519,25.4203],[141.27523,25.42048],[141.27503,25.42109],[141.27501,25.42151],[141.27478,25.42187],[141.2746,25.42272],[141.27446,25.42308],[141.27431,25.42324],[141.27412,25.42325],[141.27413,25.42337]]],[[[141.45431,24.23887],[141.45438,24.23956],[141.45466,24.2403],[141.45504,24.24185],[141.45544,24.24238],[141.45618,24.243],[141.45649,24.24315],[141.45668,24.2434],[141.4575,24.24399],[141.45778,24.24407],[141.45836,24.24464],[141.45875,24.24484],[141.45914,24.24494],[141.45989,24.2449],[141.46065,24.24503],[141.46178,24.24501],[141.462,24.24509],[141.4626,24.24476],[141.46305,24.2447],[141.46346,24.24444],[141.46408,24.24422],[141.46513,24.24404],[141.46564,24.24383],[141.46581,24.24365],[141.4664,24.24354],[141.46663,24.24334],[141.46743,24.24308],[141.46786,24.24283],[141.46799,24.24285],[141.46846,24.24257],[141.46886,24.24276],[141.46901,24.24256],[141.46963,24.24241],[141.46982,24.24226],[141.47017,24.24218],[141.47036,24.24199],[141.47096,24.24183],[141.47155,24.24181],[141.47173,24.24203],[141.47186,24.24203],[141.47206,24.24185],[141.47224,24.24189],[141.47234,24.24152],[141.47273,24.24123],[141.47289,24.2404],[141.47292,24.23955],[141.47304,24.23932],[141.47281,24.23897],[141.47277,24.23781],[141.47249,24.23704],[141.47234,24.236],[141.47242,24.2356],[141.47228,24.23471],[141.47214,24.23453],[141.47206,24.23335],[141.47182,24.23236],[141.47129,24.23147],[141.47131,24.23137],[141.47034,24.23035],[141.46977,24.22959],[141.46946,24.2289],[141.4695,24.22877],[141.4694,24.2287],[141.46945,24.22848],[141.46933,24.2278],[141.46881,24.22716],[141.46869,24.2272],[141.46789,24.227],[141.46744,24.22675],[141.46471,24.22602],[141.46299,24.22583],[141.46165,24.22544],[141.46114,24.22545],[141.45925,24.22473],[141.45871,24.22468],[141.45812,24.22477],[141.45673,24.22524],[141.45641,24.22521],[141.45621,24.22529],[141.45611,24.22518],[141.4559,24.22517],[141.45524,24.22546],[141.45501,24.22543],[141.455,24.22558],[141.45474,24.22569],[141.45436,24.22625],[141.45418,24.22638],[141.45394,24.22687],[141.45371,24.2269],[141.45378,24.22804],[141.45325,24.22933],[141.45336,24.22971],[141.45333,24.23068],[141.4535,24.23121],[141.45341,24.2347],[141.45361,24.23639],[141.45374,24.23682],[141.45362,24.23703],[141.45363,24.23721],[141.45385,24.23743],[141.45421,24.23852],[141.45416,24.23878],[141.45431,24.23887]]],[[[141.2862,24.80647],[141.28704,24.80673],[141.28751,24.80724],[141.28784,24.80695],[141.28783,24.8066],[141.28811,24.80614],[141.28791,24.80585],[141.2878,24.80493],[141.28744,24.80452],[141.28751,24.80438],[141.28763,24.80436],[141.28754,24.80384],[141.28765,24.80343],[141.28753,24.80324],[141.28715,24.80315],[141.28712,24.80272],[141.28721,24.80243],[141.28671,24.8019],[141.28665,24.80167],[141.28642,24.80153],[141.28642,24.80071],[141.2865,24.80052],[141.28634,24.79971],[141.28614,24.79929],[141.28623,24.79815],[141.28612,24.7978],[141.28597,24.79774],[141.2857,24.79804],[141.28503,24.7982],[141.28468,24.7987],[141.28446,24.79944],[141.28454,24.80015],[141.28483,24.80076],[141.28493,24.80154],[141.28521,24.80225],[141.2852,24.80302],[141.28544,24.8046],[141.28583,24.80562],[141.28586,24.80592],[141.2862,24.80647]]],[[[141.37866,24.78093],[141.37908,24.78031],[141.37847,24.78017],[141.37839,24.78048],[141.37849,24.78083],[141.37866,24.78093]]]]}},{"type":"Feature","properties":{"kind":"isllab","n":"硫黄列島","own":"東京都小笠原村（硫黄島）","k":"iwo"},"geometry":{"type":"Point","coordinates":[141.3,24.75]}},{"type":"Feature","properties":{"kind":"isl","n":"南鳥島","own":"東京都小笠原村・日本最東端","k":"minamitori"},"geometry":{"type":"MultiPolygon","coordinates":[[[[153.98497,24.29081],[153.98549,24.2878],[153.98647,24.28433],[153.98656,24.28344],[153.98654,24.2825],[153.98636,24.28196],[153.98608,24.28158],[153.98561,24.28126],[153.98509,24.28103],[153.98456,24.28088],[153.98399,24.2809],[153.98247,24.28113],[153.98079,24.28186],[153.98032,24.28218],[153.97961,24.28248],[153.97924,24.28257],[153.97877,24.28257],[153.97835,24.28271],[153.97741,24.28333],[153.97687,24.28348],[153.97613,24.28341],[153.97542,24.28376],[153.97373,24.28409],[153.97233,24.28417],[153.9717,24.28432],[153.97117,24.28462],[153.97109,24.28476],[153.97111,24.2849],[153.97167,24.28567],[153.97249,24.28655],[153.97307,24.28706],[153.97565,24.28906],[153.97657,24.28991],[153.97737,24.29035],[153.97898,24.29219],[153.97977,24.29282],[153.98115,24.29428],[153.98249,24.29643],[153.98284,24.29688],[153.98325,24.29717],[153.98398,24.2975],[153.98442,24.29751],[153.9849,24.29729],[153.9851,24.29674],[153.98472,24.29483],[153.98469,24.294],[153.98487,24.29274],[153.98497,24.29081]]]]}},{"type":"Feature","properties":{"kind":"isllab","n":"南鳥島","own":"東京都小笠原村・日本最東端","k":"minamitori"},"geometry":{"type":"Point","coordinates":[153.98,24.29]}},{"type":"Feature","properties":{"kind":"isl","n":"沖ノ鳥島","own":"東京都小笠原村・日本最南端","k":"okinotori"},"geometry":{"type":"MultiPolygon","coordinates":[[[[136.08134,20.42546],[136.08137,20.42543],[136.08121,20.42531],[136.08119,20.42534],[136.08114,20.42533],[136.08105,20.42533],[136.08096,20.42535],[136.08089,20.4254],[136.08083,20.42547],[136.08081,20.42556],[136.08081,20.42564],[136.08084,20.42572],[136.0809,20.42579],[136.08098,20.42584],[136.08107,20.42586],[136.08117,20.42585],[136.08126,20.42581],[136.08133,20.42575],[136.08137,20.42566],[136.08138,20.42557],[136.08135,20.42548],[136.08134,20.42546]]],[[[136.06981,20.42496],[136.06981,20.42495],[136.06962,20.42494],[136.06962,20.42496],[136.06953,20.42501],[136.06947,20.42508],[136.06944,20.42515],[136.06943,20.42524],[136.06945,20.42532],[136.0695,20.42539],[136.06956,20.42545],[136.06965,20.42548],[136.06974,20.42549],[136.06983,20.42547],[136.06992,20.42542],[136.06997,20.42534],[136.07,20.42525],[136.07,20.42516],[136.06996,20.42507],[136.06989,20.425],[136.06981,20.42496]]],[[[136.07395,20.42274],[136.07397,20.42266],[136.07378,20.42264],[136.07377,20.42272],[136.07376,20.42272],[136.07367,20.42276],[136.07361,20.42282],[136.07357,20.42289],[136.07355,20.42297],[136.07356,20.42305],[136.0736,20.42313],[136.07367,20.42319],[136.07375,20.42323],[136.07383,20.42324],[136.07393,20.42322],[136.07401,20.42318],[136.07407,20.42311],[136.07411,20.42303],[136.07411,20.42294],[136.07408,20.42285],[136.07402,20.42278],[136.07395,20.42274]]]]}},{"type":"Feature","properties":{"kind":"isllab","n":"沖ノ鳥島","own":"東京都小笠原村・日本最南端","k":"okinotori"},"geometry":{"type":"Point","coordinates":[136.08,20.42]}},{"type":"Feature","properties":{"kind":"isl","n":"大東諸島","own":"沖縄県北大東村・南大東村","k":"daito"},"geometry":{"type":"MultiPolygon","coordinates":[[[[131.26944,25.84429],[131.2674,25.83863],[131.26723,25.83732],[131.26701,25.83697],[131.26685,25.8361],[131.2668,25.83426],[131.26699,25.83377],[131.267,25.83334],[131.26728,25.8329],[131.26735,25.83248],[131.26749,25.83234],[131.26745,25.83214],[131.26756,25.83197],[131.26752,25.83042],[131.26739,25.83023],[131.26744,25.83007],[131.26729,25.82988],[131.2673,25.82971],[131.26715,25.82957],[131.26708,25.82912],[131.26689,25.82891],[131.26691,25.82874],[131.26652,25.82769],[131.26592,25.82651],[131.26563,25.8261],[131.2646,25.82519],[131.26427,25.82445],[131.26373,25.82363],[131.26194,25.82183],[131.26131,25.82138],[131.26105,25.821],[131.26041,25.8206],[131.26017,25.82029],[131.25951,25.81985],[131.25744,25.81776],[131.25695,25.8174],[131.25629,25.81716],[131.25552,25.81671],[131.25484,25.81652],[131.25394,25.81649],[131.25214,25.81622],[131.25124,25.81603],[131.25065,25.81579],[131.2499,25.81569],[131.24918,25.81546],[131.24857,25.81541],[131.24686,25.81491],[131.24678,25.81481],[131.24663,25.81486],[131.24657,25.81478],[131.24615,25.81474],[131.24571,25.81454],[131.24564,25.81442],[131.2455,25.81443],[131.24413,25.81384],[131.24164,25.81345],[131.24042,25.81315],[131.23947,25.81307],[131.23737,25.8133],[131.23639,25.813],[131.23513,25.81295],[131.23515,25.81288],[131.23444,25.81257],[131.23436,25.81274],[131.23353,25.81261],[131.2333,25.81282],[131.23332,25.81308],[131.23345,25.81316],[131.23301,25.81364],[131.2326,25.81335],[131.23278,25.81309],[131.23185,25.81282],[131.23155,25.81282],[131.22848,25.81373],[131.22794,25.81409],[131.2249,25.81517],[131.22389,25.81584],[131.22323,25.81605],[131.22245,25.8167],[131.22172,25.81704],[131.22146,25.81729],[131.22073,25.81753],[131.22004,25.81812],[131.21915,25.81857],[131.2188,25.81885],[131.21853,25.81931],[131.21792,25.81953],[131.21781,25.8198],[131.21739,25.8199],[131.21702,25.82024],[131.21623,25.82058],[131.21522,25.82129],[131.21513,25.82146],[131.21485,25.82159],[131.21474,25.82178],[131.21478,25.82188],[131.2146,25.82207],[131.21396,25.82231],[131.21389,25.82255],[131.21369,25.82259],[131.21347,25.82289],[131.21336,25.82337],[131.21346,25.82353],[131.21341,25.82384],[131.2135,25.82419],[131.21383,25.82474],[131.21425,25.82503],[131.21442,25.82528],[131.21578,25.82783],[131.2159,25.8279],[131.21589,25.82805],[131.21627,25.82877],[131.21646,25.82887],[131.21664,25.82932],[131.21671,25.83003],[131.21704,25.83033],[131.21702,25.8308],[131.21729,25.83111],[131.21721,25.83152],[131.2174,25.83196],[131.21733,25.83213],[131.21742,25.83244],[131.21733,25.83281],[131.21759,25.83344],[131.2175,25.83352],[131.21758,25.83367],[131.2175,25.83399],[131.21768,25.83492],[131.21744,25.8357],[131.21754,25.83588],[131.21749,25.83684],[131.21756,25.83713],[131.21744,25.83741],[131.21744,25.83803],[131.21728,25.83838],[131.21734,25.83918],[131.2172,25.83955],[131.21731,25.83967],[131.21733,25.84007],[131.2171,25.8403],[131.21697,25.84061],[131.21704,25.84091],[131.2169,25.84158],[131.21703,25.84174],[131.21701,25.8429],[131.21708,25.84295],[131.2169,25.84305],[131.21695,25.84314],[131.21686,25.84324],[131.21706,25.84361],[131.21699,25.84368],[131.21713,25.84432],[131.21707,25.84444],[131.21723,25.84455],[131.21728,25.84474],[131.2172,25.84497],[131.217,25.84502],[131.21692,25.84516],[131.21687,25.84548],[131.21704,25.84576],[131.21718,25.8458],[131.21711,25.84596],[131.21722,25.84604],[131.21711,25.84617],[131.21715,25.8465],[131.21726,25.84659],[131.21718,25.84676],[131.21742,25.84717],[131.21732,25.8473],[131.21742,25.84745],[131.21732,25.84755],[131.21737,25.8477],[131.21727,25.84796],[131.2174,25.84811],[131.2174,25.84828],[131.21759,25.84848],[131.21752,25.84868],[131.21762,25.84881],[131.21751,25.84896],[131.21766,25.8491],[131.2176,25.84926],[131.21775,25.84933],[131.21766,25.84956],[131.21787,25.84992],[131.21792,25.85029],[131.21807,25.85042],[131.21806,25.85062],[131.21818,25.85069],[131.2181,25.85085],[131.21827,25.85123],[131.21824,25.85146],[131.21846,25.85179],[131.21855,25.85224],[131.21868,25.85227],[131.21893,25.853],[131.21914,25.85308],[131.21905,25.85333],[131.21919,25.8534],[131.21917,25.85354],[131.21929,25.85367],[131.21932,25.85387],[131.21952,25.85397],[131.21956,25.85438],[131.21974,25.85446],[131.21974,25.85467],[131.21986,25.85474],[131.21985,25.85492],[131.21998,25.855],[131.21992,25.85515],[131.22013,25.8553],[131.22017,25.85546],[131.2201,25.85561],[131.22024,25.85586],[131.22036,25.8559],[131.22037,25.85621],[131.22051,25.85627],[131.22081,25.85718],[131.22072,25.85743],[131.22082,25.85751],[131.22076,25.85767],[131.22089,25.85783],[131.22083,25.858],[131.22093,25.85818],[131.22088,25.85837],[131.22103,25.8587],[131.22094,25.85888],[131.22105,25.85913],[131.22099,25.8593],[131.22112,25.85948],[131.22099,25.85963],[131.22105,25.85977],[131.22087,25.85991],[131.22092,25.86011],[131.22078,25.86022],[131.22083,25.86043],[131.22067,25.86053],[131.22063,25.86105],[131.22051,25.86124],[131.22058,25.86143],[131.2204,25.86199],[131.22035,25.86272],[131.22016,25.86348],[131.21981,25.86432],[131.22005,25.86583],[131.22072,25.86668],[131.22256,25.86801],[131.22318,25.86862],[131.22425,25.86914],[131.22529,25.87004],[131.2254,25.87006],[131.22547,25.87022],[131.22577,25.8703],[131.22603,25.87025],[131.22622,25.87034],[131.22635,25.87023],[131.22658,25.87024],[131.22669,25.87002],[131.22676,25.86917],[131.22665,25.86915],[131.22655,25.86969],[131.22624,25.86962],[131.22633,25.86912],[131.22615,25.8691],[131.22622,25.86885],[131.2267,25.86842],[131.22721,25.86836],[131.22802,25.86857],[131.22795,25.8688],[131.22828,25.86888],[131.22831,25.86878],[131.22918,25.86898],[131.22912,25.86916],[131.22924,25.86899],[131.23054,25.86931],[131.23052,25.86938],[131.23021,25.8693],[131.23013,25.86958],[131.22977,25.8695],[131.22994,25.86961],[131.22984,25.86998],[131.22904,25.86979],[131.22915,25.86942],[131.22948,25.86943],[131.22908,25.86933],[131.22895,25.86977],[131.22808,25.86956],[131.2282,25.86913],[131.22854,25.86921],[131.22857,25.86913],[131.22784,25.86895],[131.2276,25.86976],[131.22707,25.86964],[131.227,25.87002],[131.22707,25.87007],[131.22733,25.87008],[131.22748,25.87022],[131.22765,25.87018],[131.22781,25.87035],[131.22835,25.87032],[131.22873,25.87047],[131.22899,25.87041],[131.22921,25.87068],[131.22988,25.87092],[131.23001,25.87088],[131.23012,25.87099],[131.23075,25.87096],[131.23096,25.87108],[131.23116,25.87101],[131.23131,25.87113],[131.23147,25.87109],[131.232,25.87132],[131.23211,25.87126],[131.23224,25.87136],[131.23241,25.87134],[131.2326,25.87144],[131.23275,25.87138],[131.23323,25.87154],[131.23344,25.87149],[131.23353,25.8716],[131.23376,25.87159],[131.23396,25.87177],[131.23437,25.87175],[131.23452,25.87191],[131.235,25.87195],[131.23515,25.87206],[131.23534,25.872],[131.23555,25.87213],[131.23572,25.87207],[131.23593,25.87215],[131.23625,25.87195],[131.23632,25.87209],[131.23758,25.87203],[131.2378,25.87191],[131.23792,25.87199],[131.23813,25.87189],[131.23834,25.87201],[131.2385,25.87189],[131.23871,25.87192],[131.23882,25.87179],[131.23892,25.8719],[131.23908,25.87186],[131.23923,25.87207],[131.2395,25.8722],[131.23966,25.87216],[131.23973,25.87228],[131.24005,25.87227],[131.24029,25.87238],[131.24039,25.87232],[131.24068,25.87243],[131.24114,25.8723],[131.2413,25.87238],[131.24154,25.87229],[131.24174,25.87235],[131.24192,25.87224],[131.24219,25.87231],[131.2424,25.87217],[131.24313,25.8722],[131.24349,25.87205],[131.24376,25.87215],[131.24406,25.87206],[131.24429,25.87215],[131.24447,25.87204],[131.24473,25.87215],[131.24488,25.87202],[131.24556,25.87211],[131.24575,25.872],[131.24585,25.8721],[131.24611,25.87201],[131.24633,25.87211],[131.24652,25.87202],[131.2469,25.87212],[131.24731,25.87196],[131.24751,25.87205],[131.24774,25.87193],[131.24794,25.87204],[131.24812,25.87192],[131.24838,25.87203],[131.24887,25.87195],[131.24906,25.87183],[131.24925,25.87194],[131.24989,25.87195],[131.25001,25.87187],[131.25022,25.87202],[131.25084,25.87191],[131.25109,25.87203],[131.2513,25.87191],[131.25173,25.87204],[131.25213,25.87179],[131.25245,25.87188],[131.25256,25.87178],[131.25287,25.87185],[131.25304,25.87174],[131.25372,25.87167],[131.25382,25.87156],[131.2541,25.87164],[131.25429,25.87152],[131.25445,25.87159],[131.25469,25.87147],[131.25492,25.87151],[131.25546,25.87133],[131.25555,25.87117],[131.25618,25.87119],[131.25701,25.87078],[131.25774,25.87063],[131.25786,25.87051],[131.25811,25.87051],[131.25823,25.87033],[131.25841,25.87032],[131.25855,25.87017],[131.25905,25.8701],[131.25936,25.8699],[131.2596,25.86992],[131.26018,25.86955],[131.26038,25.86953],[131.26051,25.86935],[131.26102,25.86922],[131.26121,25.86908],[131.2614,25.86913],[131.26163,25.86894],[131.26183,25.86892],[131.26231,25.86852],[131.26248,25.86864],[131.26278,25.86861],[131.26287,25.86841],[131.26311,25.86836],[131.26368,25.86795],[131.26377,25.86779],[131.2643,25.86746],[131.26434,25.8673],[131.26454,25.86733],[131.2655,25.86666],[131.26576,25.86622],[131.26601,25.86601],[131.26612,25.86559],[131.26628,25.8655],[131.26645,25.86507],[131.26663,25.86495],[131.26676,25.86453],[131.26712,25.86433],[131.26734,25.86391],[131.26752,25.86387],[131.26772,25.86362],[131.26775,25.86346],[131.26811,25.86329],[131.26817,25.86312],[131.2683,25.86305],[131.2683,25.86289],[131.2685,25.86281],[131.26893,25.86208],[131.26947,25.86144],[131.26964,25.861],[131.27,25.86056],[131.26997,25.86041],[131.27012,25.86035],[131.27018,25.8601],[131.27032,25.86001],[131.27033,25.85983],[131.27052,25.85976],[131.27054,25.85956],[131.27089,25.85922],[131.2709,25.85905],[131.27105,25.85898],[131.27113,25.85879],[131.27131,25.85869],[131.27131,25.85855],[131.27145,25.85848],[131.27148,25.85826],[131.2719,25.8576],[131.27188,25.85741],[131.27219,25.85701],[131.27231,25.85631],[131.27251,25.85605],[131.27248,25.85586],[131.27274,25.8555],[131.27277,25.8553],[131.27292,25.8552],[131.2729,25.85503],[131.27303,25.85499],[131.27322,25.85467],[131.27322,25.85414],[131.27342,25.85364],[131.27332,25.8531],[131.27339,25.85293],[131.27309,25.85198],[131.27284,25.85158],[131.27281,25.85113],[131.27269,25.85105],[131.27238,25.85039],[131.27221,25.85026],[131.27215,25.85],[131.27204,25.84995],[131.27195,25.84956],[131.27176,25.84944],[131.27176,25.84897],[131.27159,25.84882],[131.27138,25.84821],[131.27117,25.84795],[131.27102,25.84791],[131.2706,25.84726],[131.27061,25.84705],[131.27028,25.84638],[131.26999,25.84542],[131.26944,25.84429]]],[[[131.28405,25.9581],[131.28447,25.95943],[131.28457,25.95955],[131.28452,25.95963],[131.28465,25.95983],[131.28461,25.96007],[131.28478,25.96031],[131.28493,25.96035],[131.28512,25.96078],[131.28558,25.961],[131.28581,25.96101],[131.28624,25.9609],[131.28627,25.96081],[131.28656,25.96084],[131.28727,25.96057],[131.28773,25.96062],[131.28799,25.96043],[131.28843,25.96045],[131.29161,25.9593],[131.29291,25.95869],[131.29514,25.95813],[131.29928,25.95728],[131.30056,25.95686],[131.30167,25.95667],[131.30172,25.95658],[131.30218,25.9565],[131.30253,25.95631],[131.3031,25.95631],[131.30416,25.95597],[131.30427,25.95604],[131.30449,25.95591],[131.30515,25.95589],[131.30622,25.95558],[131.30774,25.95565],[131.3092,25.95554],[131.30936,25.95562],[131.30985,25.95554],[131.31003,25.95562],[131.31025,25.95552],[131.31051,25.95556],[131.3106,25.95547],[131.3119,25.95559],[131.31199,25.95552],[131.31246,25.95566],[131.31391,25.95583],[131.31467,25.95577],[131.31729,25.95624],[131.31866,25.95623],[131.31932,25.95638],[131.31999,25.95624],[131.32024,25.95629],[131.32035,25.95619],[131.32055,25.95627],[131.32155,25.9561],[131.32192,25.95616],[131.32216,25.95604],[131.32243,25.95612],[131.3229,25.95595],[131.32317,25.95596],[131.32324,25.95585],[131.3235,25.95585],[131.32381,25.9557],[131.32406,25.95575],[131.32438,25.95547],[131.32463,25.95547],[131.3247,25.95533],[131.32486,25.95536],[131.32512,25.9552],[131.32573,25.95511],[131.32613,25.95493],[131.32617,25.95483],[131.32638,25.95485],[131.32685,25.95457],[131.32705,25.95461],[131.32791,25.95418],[131.32808,25.95421],[131.32826,25.95407],[131.32961,25.95374],[131.33073,25.95325],[131.33178,25.95235],[131.33204,25.95174],[131.33211,25.95109],[131.3315,25.94974],[131.33009,25.9481],[131.33016,25.94793],[131.33005,25.94781],[131.33008,25.94735],[131.32994,25.94723],[131.32979,25.94681],[131.32962,25.9467],[131.32965,25.94634],[131.32944,25.94606],[131.32919,25.94536],[131.32891,25.945],[131.32896,25.94487],[131.32864,25.94442],[131.32862,25.94421],[131.32853,25.94416],[131.32809,25.94308],[131.32805,25.94269],[131.32787,25.94252],[131.32784,25.94231],[131.32771,25.94227],[131.32739,25.9418],[131.32728,25.94179],[131.32718,25.94149],[131.32705,25.94146],[131.32596,25.93962],[131.32545,25.93917],[131.32515,25.93815],[131.32501,25.93808],[131.32499,25.93786],[131.32487,25.93782],[131.32481,25.93757],[131.32464,25.93753],[131.32452,25.93731],[131.32413,25.93649],[131.32408,25.93598],[131.32381,25.93533],[131.32373,25.93391],[131.32314,25.93191],[131.32289,25.93149],[131.32208,25.93063],[131.32171,25.93052],[131.32159,25.93039],[131.32146,25.93041],[131.32138,25.93025],[131.32115,25.93024],[131.32104,25.9301],[131.32053,25.92994],[131.32039,25.92979],[131.32021,25.92977],[131.32012,25.92958],[131.31991,25.92957],[131.31979,25.92942],[131.31964,25.92947],[131.31957,25.92934],[131.31931,25.92932],[131.31907,25.92905],[131.31865,25.92911],[131.31855,25.92897],[131.31833,25.92902],[131.3182,25.92891],[131.31799,25.92897],[131.31721,25.92881],[131.31664,25.92882],[131.31554,25.92843],[131.31437,25.92825],[131.3129,25.92821],[131.31174,25.92805],[131.30953,25.92808],[131.30935,25.92817],[131.30866,25.92807],[131.30835,25.92807],[131.30819,25.92817],[131.30805,25.9281],[131.30785,25.92819],[131.30772,25.92812],[131.30746,25.92822],[131.30724,25.92815],[131.30684,25.92821],[131.30618,25.92834],[131.30582,25.92854],[131.30567,25.92849],[131.30546,25.92864],[131.30535,25.92841],[131.30258,25.92923],[131.30249,25.92935],[131.30148,25.9297],[131.30105,25.92996],[131.30066,25.92992],[131.30057,25.93007],[131.30037,25.93003],[131.29977,25.93025],[131.29943,25.93021],[131.29937,25.93032],[131.299,25.93045],[131.29898,25.93057],[131.29858,25.93083],[131.29855,25.93102],[131.2983,25.93104],[131.29819,25.93119],[131.29795,25.93124],[131.29789,25.93138],[131.29765,25.93152],[131.29766,25.93165],[131.29682,25.93185],[131.29661,25.93206],[131.29639,25.93208],[131.29629,25.93226],[131.29606,25.93226],[131.29591,25.93248],[131.29576,25.93246],[131.29561,25.93268],[131.29548,25.93267],[131.2953,25.93294],[131.29513,25.93299],[131.29502,25.93332],[131.29519,25.93353],[131.29548,25.93333],[131.2959,25.93377],[131.29634,25.93346],[131.29607,25.93359],[131.29575,25.93325],[131.29622,25.93292],[131.29658,25.93329],[131.29674,25.93318],[131.29663,25.93318],[131.29633,25.93284],[131.29694,25.9324],[131.29723,25.93274],[131.29686,25.93302],[131.29716,25.93286],[131.29739,25.93306],[131.29622,25.93392],[131.29615,25.93383],[131.29545,25.93428],[131.29503,25.93428],[131.29448,25.93403],[131.29495,25.93369],[131.2948,25.93351],[131.2945,25.93349],[131.29447,25.93361],[131.29423,25.93369],[131.2937,25.93438],[131.29343,25.93464],[131.2933,25.93463],[131.29311,25.93491],[131.2929,25.93504],[131.29288,25.93521],[131.29265,25.93535],[131.29265,25.93549],[131.2925,25.9356],[131.29249,25.93577],[131.29201,25.93619],[131.29199,25.93636],[131.29181,25.93638],[131.29152,25.93718],[131.29127,25.93736],[131.29112,25.93813],[131.29094,25.93818],[131.29083,25.93842],[131.29059,25.93849],[131.29031,25.93883],[131.2903,25.93895],[131.29009,25.93895],[131.28959,25.93958],[131.28928,25.93968],[131.28916,25.93986],[131.28916,25.94012],[131.28898,25.94027],[131.28902,25.94044],[131.28891,25.94048],[131.28878,25.94075],[131.28827,25.94104],[131.28774,25.94185],[131.28712,25.94324],[131.28648,25.94429],[131.28557,25.94663],[131.28501,25.94867],[131.28453,25.95151],[131.28465,25.95173],[131.28456,25.95244],[131.28431,25.95286],[131.28448,25.95342],[131.28428,25.95345],[131.28418,25.95386],[131.28411,25.95386],[131.28422,25.95491],[131.28413,25.95496],[131.28399,25.95544],[131.28392,25.9566],[131.28405,25.9581]]],[[[131.19239,24.47107],[131.19337,24.47074],[131.19355,24.47076],[131.19428,24.47036],[131.19456,24.47013],[131.19453,24.46998],[131.1947,24.4697],[131.19505,24.46931],[131.19501,24.46897],[131.19513,24.46884],[131.19504,24.46868],[131.19514,24.46855],[131.19508,24.46823],[131.19485,24.46776],[131.1944,24.46717],[131.19443,24.46677],[131.19427,24.46676],[131.19432,24.46657],[131.19404,24.4664],[131.19408,24.46626],[131.19379,24.46594],[131.1938,24.46577],[131.19366,24.46574],[131.19352,24.46536],[131.19334,24.46526],[131.19335,24.46513],[131.19316,24.46488],[131.193,24.4649],[131.19297,24.46456],[131.19279,24.46441],[131.19266,24.46444],[131.19267,24.464],[131.19246,24.46388],[131.19242,24.4635],[131.19226,24.46349],[131.19212,24.46362],[131.19207,24.46353],[131.1922,24.46335],[131.19214,24.46317],[131.19168,24.46327],[131.1915,24.46289],[131.19153,24.46275],[131.19143,24.46271],[131.19122,24.46284],[131.19117,24.46257],[131.19098,24.46238],[131.19084,24.46247],[131.19076,24.4624],[131.19081,24.46222],[131.19027,24.46211],[131.19026,24.46199],[131.19001,24.46178],[131.18953,24.46174],[131.18946,24.46161],[131.18913,24.46143],[131.18866,24.4615],[131.18806,24.46131],[131.18743,24.46144],[131.18713,24.46164],[131.18696,24.46161],[131.18667,24.46192],[131.18653,24.46183],[131.18636,24.46187],[131.18568,24.46251],[131.18507,24.46273],[131.18508,24.46296],[131.18438,24.4637],[131.18425,24.46418],[131.18389,24.4644],[131.18415,24.46472],[131.18374,24.4653],[131.18369,24.46575],[131.18351,24.46582],[131.18349,24.46597],[131.18332,24.46608],[131.18331,24.46632],[131.18342,24.46645],[131.18306,24.46661],[131.18239,24.46814],[131.18226,24.4682],[131.18206,24.46856],[131.18191,24.46852],[131.18181,24.46862],[131.18193,24.46878],[131.18195,24.46902],[131.18165,24.46931],[131.18161,24.46974],[131.18128,24.47002],[131.1812,24.47076],[131.18099,24.47077],[131.18084,24.47095],[131.18076,24.47172],[131.18083,24.47181],[131.18062,24.47218],[131.18074,24.47227],[131.18107,24.47211],[131.1818,24.47232],[131.18284,24.47207],[131.18316,24.47213],[131.18354,24.47203],[131.18421,24.47202],[131.18485,24.47178],[131.18571,24.47167],[131.18669,24.47132],[131.18718,24.47132],[131.18783,24.47117],[131.18795,24.47127],[131.18862,24.47124],[131.18934,24.4711],[131.18967,24.4712],[131.19137,24.47125],[131.19153,24.47124],[131.19155,24.47114],[131.19239,24.47107]]],[[[131.1894,24.4613],[131.18892,24.46125],[131.18871,24.46127],[131.18949,24.46143],[131.1894,24.4613]]]]}},{"type":"Feature","properties":{"kind":"isllab","n":"大東諸島","own":"沖縄県北大東村・南大東村","k":"daito"},"geometry":{"type":"Point","coordinates":[131.2,25.9]}},{"type":"Feature","properties":{"kind":"isl","n":"尖閣諸島（钓鱼岛）","own":"沖縄県石垣市・中国主张","k":"senkaku_uotsuri"},"geometry":{"type":"MultiPolygon","coordinates":[[[[123.46165,25.7345],[123.46139,25.73449],[123.46131,25.73455],[123.46137,25.73485],[123.4617,25.73482],[123.46178,25.73465],[123.46165,25.7345]]],[[[123.50579,25.73573],[123.50587,25.73588],[123.50596,25.73584],[123.50599,25.73571],[123.50625,25.73559],[123.50623,25.73548],[123.50596,25.73551],[123.50579,25.73573]]],[[[123.49057,25.74047],[123.49044,25.7403],[123.49036,25.74029],[123.49027,25.74038],[123.49028,25.74046],[123.4904,25.74054],[123.49057,25.74057],[123.49057,25.74047]]],[[[123.48782,25.74029],[123.48791,25.74045],[123.48806,25.74044],[123.48815,25.74037],[123.4881,25.74026],[123.48796,25.74022],[123.48782,25.74029]]],[[[123.49037,25.74065],[123.49036,25.74081],[123.49072,25.74087],[123.49057,25.74066],[123.49037,25.74065]]],[[[123.47611,25.7401],[123.47629,25.74033],[123.47647,25.7403],[123.47635,25.74014],[123.47617,25.74008],[123.47611,25.7401]]],[[[123.48757,25.74976],[123.48744,25.7499],[123.48745,25.74998],[123.48774,25.74982],[123.48769,25.74975],[123.48757,25.74976]]],[[[123.48879,25.74021],[123.48856,25.74027],[123.48868,25.74042],[123.48883,25.7403],[123.48879,25.74021]]]]}},{"type":"Feature","properties":{"kind":"isllab","n":"尖閣諸島（钓鱼岛）","own":"沖縄県石垣市・中国主张","k":"senkaku_uotsuri"},"geometry":{"type":"Point","coordinates":[123.47,25.75]}},{"type":"Feature","properties":{"kind":"isl","n":"竹島（独岛）","own":"島根県隠岐の島町・韓国実効支配","k":"takeshima"},"geometry":{"type":"MultiPolygon","coordinates":[[[[131.86558,37.24394],[131.86612,37.24339],[131.86598,37.24325],[131.86625,37.24325],[131.86626,37.24311],[131.86611,37.24294],[131.86623,37.24286],[131.8662,37.24272],[131.8659,37.24248],[131.86619,37.24232],[131.8662,37.24223],[131.86649,37.24216],[131.86651,37.24211],[131.86633,37.24199],[131.86641,37.24192],[131.86629,37.24174],[131.86663,37.24189],[131.86685,37.24187],[131.86683,37.24177],[131.86652,37.2416],[131.86653,37.24153],[131.86664,37.24147],[131.86678,37.24115],[131.86687,37.2411],[131.86689,37.24124],[131.86706,37.24128],[131.86707,37.24123],[131.86697,37.24117],[131.86699,37.2411],[131.86712,37.24107],[131.86699,37.24096],[131.86652,37.24101],[131.86646,37.24078],[131.86639,37.24099],[131.86615,37.24096],[131.86576,37.24065],[131.8659,37.24045],[131.8655,37.24004],[131.8652,37.24009],[131.86497,37.23998],[131.86485,37.24001],[131.86489,37.24024],[131.86509,37.24043],[131.86503,37.24046],[131.86474,37.24029],[131.8642,37.24013],[131.86366,37.24027],[131.86361,37.24041],[131.86371,37.24046],[131.86354,37.24054],[131.86345,37.24031],[131.86338,37.24029],[131.86326,37.24048],[131.86288,37.2408],[131.86312,37.2407],[131.86311,37.24092],[131.86335,37.24115],[131.86345,37.24139],[131.86333,37.24157],[131.86333,37.24174],[131.86324,37.24178],[131.86332,37.24182],[131.86333,37.24192],[131.8631,37.24192],[131.86313,37.24204],[131.86308,37.24197],[131.86294,37.24205],[131.86278,37.24225],[131.86279,37.24233],[131.86308,37.24216],[131.86311,37.2422],[131.863,37.24246],[131.86252,37.24265],[131.86248,37.24282],[131.86281,37.24295],[131.86321,37.24293],[131.86343,37.24262],[131.86336,37.24242],[131.86365,37.24248],[131.86377,37.24258],[131.86367,37.24275],[131.86378,37.24291],[131.86402,37.24285],[131.86415,37.24272],[131.86416,37.24257],[131.86432,37.24254],[131.86463,37.24262],[131.86499,37.24285],[131.8651,37.24316],[131.86498,37.24322],[131.86497,37.24336],[131.86527,37.24359],[131.86507,37.24368],[131.86494,37.24366],[131.86495,37.24382],[131.86511,37.24382],[131.8651,37.24392],[131.86494,37.24407],[131.865,37.24416],[131.86508,37.24421],[131.86558,37.24394]]],[[[131.86751,37.23927],[131.86782,37.23913],[131.86799,37.23914],[131.86786,37.2392],[131.8678,37.23931],[131.86793,37.23927],[131.86803,37.23934],[131.86825,37.23968],[131.86835,37.24],[131.86827,37.24021],[131.86829,37.24032],[131.86841,37.24039],[131.86841,37.24068],[131.8685,37.24068],[131.86879,37.24101],[131.869,37.24107],[131.86917,37.24128],[131.86927,37.24127],[131.86931,37.24136],[131.86952,37.24139],[131.86957,37.24147],[131.86997,37.24165],[131.87013,37.24192],[131.87033,37.24202],[131.87045,37.24167],[131.87043,37.24138],[131.8699,37.24046],[131.86991,37.24032],[131.87023,37.24044],[131.87062,37.24084],[131.87108,37.24102],[131.87134,37.24088],[131.87133,37.24078],[131.87122,37.24067],[131.87106,37.24064],[131.87099,37.24068],[131.87085,37.24051],[131.87086,37.24042],[131.87114,37.24018],[131.87111,37.24012],[131.8713,37.24],[131.87194,37.24004],[131.87218,37.23988],[131.87213,37.23976],[131.87187,37.23969],[131.87172,37.23956],[131.8714,37.23954],[131.87102,37.23968],[131.87093,37.23962],[131.87074,37.23965],[131.8707,37.23957],[131.87075,37.2394],[131.87056,37.23925],[131.87047,37.23947],[131.87033,37.23931],[131.87023,37.23925],[131.8702,37.2393],[131.87026,37.23896],[131.87014,37.23881],[131.87003,37.23882],[131.87,37.2389],[131.86979,37.23898],[131.86965,37.23891],[131.86964,37.2388],[131.86994,37.23866],[131.87028,37.23834],[131.87029,37.23825],[131.87019,37.23815],[131.87001,37.2382],[131.86963,37.23814],[131.86952,37.23822],[131.86939,37.23844],[131.86924,37.23842],[131.86868,37.23874],[131.86836,37.23908],[131.86833,37.239],[131.86856,37.23862],[131.86812,37.23899],[131.86791,37.23907],[131.86769,37.23901],[131.86799,37.23887],[131.86815,37.2387],[131.86824,37.23851],[131.86817,37.23848],[131.86821,37.23837],[131.86807,37.23842],[131.86761,37.23887],[131.86754,37.23891],[131.86768,37.23867],[131.8677,37.23871],[131.86779,37.23864],[131.86797,37.23844],[131.86778,37.2385],[131.86751,37.23879],[131.86739,37.23879],[131.8674,37.23891],[131.86722,37.23889],[131.86726,37.23897],[131.86717,37.23901],[131.86759,37.23966],[131.86773,37.2396],[131.86751,37.23927]]],[[[131.86183,37.24216],[131.86183,37.2422],[131.8619,37.24213],[131.86183,37.24221],[131.86188,37.2423],[131.86219,37.24226],[131.86228,37.24217],[131.86234,37.24188],[131.86249,37.24181],[131.86269,37.24186],[131.86298,37.24163],[131.86291,37.24156],[131.86247,37.24152],[131.86245,37.24141],[131.86226,37.24163],[131.86236,37.24165],[131.86218,37.24169],[131.86206,37.24189],[131.86199,37.24196],[131.86212,37.24177],[131.86187,37.24193],[131.86174,37.24211],[131.86176,37.24222],[131.86183,37.24216]]],[[[131.86341,37.24772],[131.86367,37.24772],[131.86362,37.24777],[131.8637,37.24779],[131.86378,37.24771],[131.86374,37.2477],[131.86399,37.24758],[131.86395,37.2475],[131.86409,37.24747],[131.86401,37.24728],[131.86401,37.2471],[131.86378,37.24684],[131.86368,37.24686],[131.86342,37.2471],[131.86342,37.2473],[131.86362,37.24724],[131.86371,37.2473],[131.86352,37.24747],[131.86372,37.2475],[131.86341,37.24772]]],[[[131.86153,37.24195],[131.86192,37.24135],[131.86188,37.24121],[131.86167,37.24103],[131.8616,37.24104],[131.86167,37.24124],[131.86155,37.24133],[131.86158,37.24144],[131.86144,37.24153],[131.86152,37.24168],[131.86139,37.24184],[131.86153,37.24195]]],[[[131.86768,37.24248],[131.86753,37.24233],[131.86725,37.24224],[131.86705,37.24239],[131.86718,37.24258],[131.86749,37.24268],[131.86783,37.24252],[131.86783,37.24247],[131.86768,37.24248]]],[[[131.86311,37.24365],[131.86327,37.24355],[131.86335,37.2434],[131.86338,37.24311],[131.86331,37.24308],[131.86315,37.24313],[131.86296,37.24335],[131.86292,37.24363],[131.86311,37.24365]]],[[[131.8643,37.24707],[131.86441,37.24718],[131.86449,37.24719],[131.86456,37.24704],[131.86444,37.2467],[131.8643,37.24656],[131.86421,37.24661],[131.86417,37.24673],[131.86436,37.24693],[131.8643,37.24707]]]]}},{"type":"Feature","properties":{"kind":"isllab","n":"竹島（独岛）","own":"島根県隠岐の島町・韓国実効支配","k":"takeshima"},"geometry":{"type":"Point","coordinates":[131.87,37.24]}}]}