{"type":"FeatureCollection","features":[{"type":"Feature","properties":{"depth":9000},"geometry":{"type":"MultiPolygon","coordinates":[[[[-177.32,-32.07],[-177.2,-31.73],[-177.35,-31.92],[-177.38,-32.03],[-177.32,-32.07]]],[[[-176.32,-29.87],[-176.21,-29.57],[-176.27,-29.59],[-176.4,-29.9],[-176.32,-29.87]]],[[[-175.1,-24.06],[-174.94,-23.76],[-174.84,-23.71],[-174.86,-23.57],[-174.6,-23.3],[-174.12,-22.32],[-174.21,-22.35],[-174.41,-22.7],[-174.65,-22.92],[-174.82,-23.18],[-175.06,-23.66],[-175.1,-24.06]]],[[[127.37,7.02],[127.39,7.44],[127.33,7.54],[127.31,7.16],[127.32,7.04],[127.37,7.02]]],[[[126.98,9.54],[126.97,9.67],[126.89,9.78],[126.86,9.61],[126.98,9.54]]],[[[126.86,9.82],[126.84,10.18],[126.68,10.3],[126.7,10.14],[126.86,9.82]]],[[[126.67,10.49],[126.61,10.77],[126.5,10.85],[126.61,10.48],[126.67,10.49]]],[[[141.64,11.1],[141.76,11.19],[141.77,11.26],[141.43,11.09],[141.64,11.1]]],[[[142.51,11.28],[142.7,11.28],[143.11,11.45],[142.27,11.47],[141.92,11.34],[141.88,11.26],[142.04,11.18],[142.51,11.28]]],[[[144.74,12.13],[144.38,12.1],[144.32,11.93],[144.86,12.0],[144.89,12.14],[144.74,12.13]]],[[[146.16,12.79],[146.3,12.97],[146.32,13.21],[145.9,12.79],[146.16,12.79]]],[[[146.61,13.25],[146.7,13.39],[146.51,13.33],[146.53,13.26],[146.61,13.25]]],[[[143.14,28.56],[143.16,28.67],[143.06,28.94],[142.96,29.04],[142.87,29.3],[142.8,29.3],[142.78,29.18],[143.04,28.61],[143.14,28.56]]],[[[142.76,29.4],[142.79,29.59],[142.69,29.85],[142.61,29.88],[142.67,29.46],[142.76,29.4]]],[[[142.66,30.0],[142.67,30.08],[142.44,30.47],[142.56,30.05],[142.66,30.0]]],[[[142.46,30.53],[142.49,30.79],[142.35,30.85],[142.37,31.02],[142.29,31.09],[142.2,30.89],[142.39,30.53],[142.46,30.53]]],[[[142.27,31.24],[142.34,31.32],[142.25,31.5],[142.25,31.72],[142.17,31.64],[142.15,31.46],[142.2,31.25],[142.27,31.24]]],[[[142.2,31.8],[142.2,32.09],[142.27,32.23],[142.21,32.32],[142.12,32.26],[142.09,31.91],[142.14,31.8],[142.2,31.8]]],[[[142.18,32.42],[142.17,32.55],[142.09,32.63],[142.07,32.45],[142.18,32.42]]],[[[142.17,33.12],[142.08,33.58],[142.18,33.77],[141.99,33.82],[141.92,33.64],[142.14,32.99],[142.17,33.12]]],[[[141.92,33.84],[142.08,34.05],[142.1,34.38],[142.03,34.52],[141.95,34.46],[141.86,34.2],[141.92,33.84]]]]}}]}