{"type":"FeatureCollection","features":[{"type":"Feature","properties":{"depth":7000},"geometry":{"type":"MultiPolygon","coordinates":[[[[-27.89,-54.85],[-28.64,-54.81],[-28.44,-54.92],[-28.22,-54.89],[-28.03,-55.01],[-27.7,-55.06],[-27.58,-55.18],[-27.53,-55.35],[-27.08,-55.45],[-27.1,-55.36],[-27.05,-55.29],[-26.61,-55.31],[-26.5,-55.39],[-26.44,-55.69],[-26.25,-55.83],[-26.17,-55.83],[-26.13,-55.71],[-25.81,-55.68],[-25.66,-55.8],[-25.46,-55.8],[-25.3,-55.92],[-25.18,-55.92],[-25.18,-56.17],[-25.01,-56.26],[-24.96,-56.38],[-24.82,-56.38],[-24.76,-56.43],[-24.64,-56.79],[-24.48,-56.9],[-24.36,-56.86],[-24.31,-56.93],[-24.36,-57.14],[-24.07,-56.93],[-24.36,-56.82],[-24.43,-56.69],[-24.42,-56.5],[-24.82,-56.06],[-25.2,-55.78],[-25.72,-55.63],[-25.74,-55.53],[-25.66,-55.47],[-25.85,-55.34],[-26.02,-55.32],[-26.1,-55.15],[-26.39,-55.06],[-26.56,-55.1],[-26.83,-54.92],[-27.25,-54.91],[-27.5,-55.01],[-27.89,-54.85]]],[[[-176.35,-30.67],[-176.35,-30.48],[-176.28,-30.41],[-176.44,-30.4],[-176.47,-30.27],[-176.35,-30.11],[-176.14,-30.01],[-176.02,-29.83],[-176.12,-29.54],[-175.78,-28.92],[-175.71,-28.43],[-175.56,-28.32],[-175.61,-28.17],[-175.42,-27.81],[-175.51,-27.5],[-175.32,-26.66],[-175.37,-25.99],[-175.45,-26.45],[-175.74,-27.13],[-176.23,-29.33],[-177.0,-30.96],[-177.2,-31.23],[-177.26,-31.68],[-177.43,-31.85],[-177.62,-32.26],[-177.77,-32.81],[-177.96,-33.07],[-177.96,-33.22],[-178.27,-33.82],[-178.32,-33.98],[-178.22,-34.15],[-178.37,-34.34],[-178.34,-34.49],[-178.42,-34.58],[-178.33,-34.8],[-178.13,-34.66],[-178.1,-34.39],[-177.62,-33.5],[-177.65,-33.38],[-177.5,-33.05],[-177.5,-32.9],[-177.31,-32.71],[-177.19,-32.47],[-177.22,-32.3],[-177.05,-31.97],[-177.1,-31.66],[-176.9,-31.61],[-176.86,-31.34],[-176.62,-31.03],[-176.62,-30.86],[-176.52,-30.7],[-176.35,-30.67]]],[[[154.21,-6.71],[154.23,-6.55],[154.07,-6.43],[153.97,-6.19],[153.82,-6.05],[153.58,-6.02],[153.67,-6.28],[153.86,-6.41],[153.89,-6.54],[154.21,-6.71]]],[[[137.87,8.25],[137.34,7.59],[137.6,7.76],[137.82,8.03],[137.87,8.25]]],[[[127.52,7.9],[127.44,7.98],[127.45,8.38],[127.29,8.71],[127.32,9.0],[127.1,9.91],[126.89,10.37],[126.83,10.8],[126.64,10.91],[126.72,11.12],[126.47,11.43],[126.41,11.81],[125.95,12.6],[125.69,12.84],[126.2,11.9],[126.22,11.47],[126.36,10.8],[126.52,10.53],[126.54,10.28],[126.79,9.67],[126.86,9.26],[127.08,8.83],[127.06,8.69],[127.2,8.45],[127.39,8.38],[127.39,8.3],[127.21,8.11],[127.22,7.22],[127.08,6.64],[127.27,6.29],[127.25,6.14],[127.32,6.0],[127.41,5.95],[127.55,5.65],[127.49,5.33],[127.65,5.35],[128.1,4.78],[128.38,4.54],[128.26,4.93],[127.99,5.28],[127.85,5.33],[127.85,5.5],[127.61,6.01],[127.49,6.94],[127.54,7.42],[127.44,7.67],[127.52,7.9]]],[[[128.09,24.91],[128.52,25.29],[128.1,25.02],[128.09,24.91]]],[[[142.88,36.07],[142.89,36.2],[143.11,36.26],[143.28,36.6],[143.5,36.77],[143.5,36.89],[143.88,37.46],[143.9,37.68],[144.05,37.87],[144.07,38.18],[144.17,38.3],[144.29,38.95],[144.29,39.41],[144.46,39.84],[144.48,40.25],[144.67,40.8],[144.41,40.54],[144.31,40.18],[144.19,38.95],[144.05,38.66],[144.07,38.52],[143.95,38.16],[143.96,37.86],[143.59,37.34],[143.57,37.2],[143.42,37.13],[143.35,36.89],[142.93,36.45],[142.84,36.25],[142.73,36.19],[142.72,36.04],[142.92,35.99],[142.88,36.07]]],[[[145.26,41.27],[145.33,41.36],[145.1,41.23],[144.83,41.21],[144.87,41.16],[145.26,41.27]]],[[[-174.7,43.49],[-174.8,43.47],[-174.53,43.4],[-174.36,43.28],[-174.41,43.36],[-174.7,43.49]]],[[[-174.47,50.63],[-174.46,50.69],[-174.55,50.71],[-174.84,50.62],[-175.51,50.6],[-175.69,50.52],[-174.98,50.52],[-174.79,50.62],[-174.47,50.63]]],[[[-23.95,-57.71],[-23.81,-57.58],[-24.17,-57.22],[-24.21,-57.3],[-24.07,-57.48],[-24.1,-57.7],[-23.95,-57.71]]],[[[-29.22,-54.91],[-29.43,-54.84],[-29.69,-54.9],[-29.4,-54.98],[-29.2,-55.15],[-29.13,-55.14],[-28.99,-54.96],[-28.76,-55.08],[-28.62,-55.06],[-28.68,-54.93],[-28.8,-54.84],[-28.87,-54.93],[-29.22,-54.91]]],[[[-178.39,-35.04],[-178.62,-35.05],[-178.75,-35.28],[-178.9,-35.7],[-178.81,-35.79],[-178.66,-35.81],[-178.51,-35.51],[-178.39,-35.04]]],[[[-71.43,-24.62],[-71.3,-23.75],[-71.28,-22.97],[-71.14,-22.42],[-71.18,-22.22],[-71.14,-21.41],[-71.3,-22.37],[-71.26,-22.75],[-71.41,-23.33],[-71.37,-23.83],[-71.46,-24.13],[-71.43,-24.62]]],[[[-173.11,-20.75],[-172.58,-19.1],[-172.61,-18.85],[-172.73,-18.72],[-172.97,-19.06],[-172.97,-19.27],[-173.16,-19.73],[-173.26,-20.21],[-173.47,-20.62],[-173.47,-20.78],[-173.76,-21.12],[-173.76,-21.29],[-173.9,-21.46],[-174.0,-21.86],[-175.22,-23.67],[-175.3,-24.28],[-175.18,-25.33],[-175.09,-25.19],[-175.1,-24.86],[-174.94,-24.62],[-174.7,-23.71],[-174.53,-23.5],[-174.46,-23.24],[-174.14,-22.75],[-173.95,-22.3],[-173.86,-22.22],[-173.81,-22.03],[-173.29,-21.16],[-173.26,-20.78],[-173.11,-20.75]]],[[[-172.6,-18.55],[-172.34,-18.07],[-172.03,-16.34],[-172.13,-16.1],[-172.08,-15.91],[-172.15,-15.66],[-172.38,-15.3],[-172.39,-15.46],[-172.24,-15.83],[-172.21,-16.24],[-172.34,-16.75],[-172.3,-17.0],[-172.39,-17.18],[-172.49,-17.81],[-172.58,-17.98],[-172.56,-18.14],[-172.65,-18.5],[-172.6,-18.55]]],[[[-172.75,-15.12],[-172.58,-15.01],[-172.8,-14.87],[-172.85,-15.11],[-172.75,-15.12]]],[[[166.04,-12.57],[165.77,-11.71],[165.64,-11.63],[165.61,-11.74],[165.89,-12.5],[165.96,-12.6],[166.04,-12.57]]],[[[163.12,-11.27],[163.19,-11.22],[163.02,-11.2],[162.52,-11.35],[163.12,-11.27]]],[[[154.63,-7.13],[154.63,-7.01],[154.37,-6.77],[154.31,-6.91],[154.49,-6.96],[154.63,-7.13]]],[[[152.9,-5.75],[152.52,-5.76],[152.11,-5.93],[151.7,-6.22],[151.58,-6.24],[151.46,-6.38],[152.9,-5.75]]],[[[131.11,-6.13],[131.26,-5.86],[131.14,-5.69],[131.16,-5.38],[130.98,-5.03],[130.91,-5.09],[130.91,-5.96],[131.11,-6.13]]],[[[135.03,7.64],[135.06,7.82],[134.98,7.87],[134.94,7.76],[135.03,7.64]]],[[[137.91,8.3],[138.11,8.61],[138.1,8.71],[138.0,8.69],[137.89,8.56],[137.91,8.3]]],[[[138.74,10.33],[138.75,10.65],[138.62,10.56],[138.74,10.33]]],[[[125.66,12.96],[125.7,13.12],[125.59,13.3],[125.66,12.96]]],[[[147.57,14.71],[147.64,14.87],[147.62,15.27],[147.34,14.93],[147.39,14.76],[147.35,14.68],[146.99,14.49],[146.94,14.37],[147.07,14.29],[146.99,14.11],[146.88,14.06],[146.76,13.87],[146.47,13.75],[146.35,13.56],[146.11,13.42],[146.14,13.2],[145.94,13.18],[145.62,12.8],[145.44,12.72],[145.33,12.5],[145.23,12.49],[144.96,12.65],[144.86,12.55],[144.87,12.42],[144.57,12.21],[144.24,12.19],[143.75,11.77],[143.17,11.57],[142.75,11.55],[142.56,11.62],[142.34,11.54],[142.22,11.59],[142.11,11.52],[141.84,11.53],[141.74,11.45],[141.58,11.42],[141.0,10.9],[141.43,10.92],[142.15,11.09],[142.9,11.11],[143.14,11.21],[143.76,11.3],[144.57,11.89],[144.82,11.82],[145.11,11.92],[145.66,12.22],[145.78,12.43],[146.11,12.48],[146.35,12.63],[146.42,13.11],[146.83,13.13],[146.9,13.57],[147.12,13.87],[147.44,14.01],[147.57,14.71]],[[145.87,12.49],[145.79,12.64],[145.88,12.72],[146.0,12.57],[145.97,12.5],[145.87,12.49]],[[145.09,12.51],[145.07,12.39],[145.0,12.37],[144.96,12.47],[145.09,12.51]]],[[[147.67,15.44],[147.82,15.58],[147.76,15.73],[147.7,15.69],[147.67,15.44]]],[[[147.9,16.44],[147.99,16.56],[148.15,17.26],[148.06,17.41],[148.13,17.66],[148.04,17.93],[147.72,17.83],[147.82,17.38],[147.74,16.82],[147.81,16.47],[147.9,16.44]]],[[[147.82,18.11],[147.98,18.16],[147.97,18.21],[147.82,18.26],[147.82,18.11]]],[[[-79.32,19.25],[-79.92,19.22],[-80.19,19.09],[-79.61,19.15],[-79.32,19.25]]],[[[-65.16,20.04],[-65.33,20.16],[-65.86,20.14],[-66.37,19.92],[-66.67,19.95],[-66.94,19.87],[-68.05,19.79],[-68.16,19.7],[-68.31,19.69],[-68.42,19.56],[-67.94,19.56],[-67.8,19.46],[-67.54,19.48],[-67.32,19.2],[-67.31,19.46],[-67.22,19.5],[-67.1,19.42],[-66.96,19.48],[-66.74,19.35],[-66.72,19.2],[-66.53,19.1],[-66.21,19.2],[-65.38,19.26],[-65.85,19.52],[-65.82,19.66],[-65.69,19.75],[-65.04,19.62],[-64.99,19.46],[-64.79,19.57],[-64.78,19.68],[-64.54,19.68],[-64.47,19.75],[-64.06,19.83],[-63.74,19.7],[-63.1,19.7],[-62.81,19.54],[-62.61,19.52],[-62.41,19.38],[-62.24,19.39],[-62.3,19.52],[-62.47,19.63],[-62.53,19.54],[-62.62,19.54],[-62.64,19.66],[-62.93,19.68],[-63.29,19.87],[-63.6,19.82],[-63.77,19.9],[-64.33,19.88],[-64.51,19.97],[-65.16,20.04]]],[[[145.38,22.99],[145.13,22.96],[145.13,22.89],[145.37,22.68],[145.55,22.62],[145.77,22.15],[145.92,22.11],[146.01,22.49],[145.85,22.73],[145.59,22.76],[145.38,22.99]]],[[[127.08,24.19],[127.21,24.35],[127.06,24.3],[127.02,24.19],[127.08,24.19]]],[[[127.35,24.46],[127.64,24.72],[127.37,24.55],[127.35,24.46]]],[[[144.24,23.71],[144.12,23.98],[143.67,24.34],[143.62,24.53],[143.37,24.81],[143.35,24.74],[143.56,24.29],[143.96,23.85],[144.24,23.71]]],[[[141.6,34.27],[141.53,34.42],[141.31,34.49],[141.35,34.37],[141.6,34.27]]],[[[141.47,34.11],[141.58,33.86],[141.58,33.62],[141.77,33.53],[141.82,33.41],[141.79,32.87],[141.93,32.76],[141.91,32.57],[141.74,32.35],[141.92,32.28],[142.08,31.68],[142.03,31.15],[142.08,30.77],[142.4,30.29],[142.49,29.6],[142.44,29.5],[142.59,29.4],[142.97,28.48],[143.16,28.25],[143.22,27.84],[143.18,27.14],[143.38,26.75],[143.55,27.04],[143.53,27.11],[143.42,27.13],[143.42,27.2],[143.71,27.43],[143.69,28.13],[143.54,28.34],[143.47,28.73],[143.35,28.85],[142.97,29.76],[142.94,30.14],[142.75,30.48],[142.75,30.6],[142.63,30.73],[142.68,31.22],[142.49,31.87],[142.56,32.02],[142.51,32.09],[142.58,32.54],[142.54,32.62],[142.2,32.65],[142.14,32.72],[142.23,32.93],[142.5,32.92],[142.52,32.97],[142.34,33.98],[142.22,34.08],[142.32,34.2],[142.34,34.42],[142.23,34.55],[142.37,34.75],[142.39,35.26],[142.49,35.34],[142.35,35.42],[142.42,35.58],[142.15,35.28],[141.89,34.46],[141.7,34.2],[141.74,34.06],[141.64,34.0],[141.47,34.11]]],[[[-162.13,37.42],[-162.84,37.38],[-162.76,37.33],[-162.13,37.42]]],[[[-177.09,38.55],[-177.41,38.98],[-177.65,39.1],[-177.64,39.02],[-177.09,38.55]]],[[[-178.79,39.74],[-178.73,39.8],[-179.05,39.95],[-178.92,39.77],[-178.79,39.74]]],[[[147.29,42.29],[147.55,42.33],[147.6,42.45],[147.12,42.23],[147.29,42.29]]],[[[174.1,45.31],[173.74,45.59],[174.02,45.34],[174.14,45.05],[174.29,44.98],[174.24,45.31],[174.1,45.31]]],[[[154.2,46.06],[154.74,46.7],[155.36,47.04],[155.41,47.34],[155.11,47.14],[155.05,46.98],[154.73,46.76],[154.22,46.54],[153.98,46.27],[153.16,45.95],[153.02,45.67],[152.86,45.65],[152.76,45.53],[152.23,45.24],[151.93,45.21],[151.65,44.94],[151.51,44.9],[151.39,44.74],[151.08,44.71],[150.72,44.54],[150.55,44.54],[149.6,43.92],[148.89,43.58],[148.15,43.08],[147.94,42.84],[147.77,42.77],[147.66,42.6],[147.77,42.53],[147.92,42.54],[148.08,42.72],[148.25,42.67],[148.66,42.94],[149.28,43.2],[150.0,43.68],[151.15,44.14],[151.53,44.36],[151.7,44.36],[152.53,44.78],[152.98,45.11],[153.36,45.24],[153.44,45.44],[153.94,45.77],[154.02,46.0],[154.2,46.06]]],[[[155.81,47.52],[155.94,47.72],[156.51,48.16],[157.18,48.48],[157.75,49.08],[158.4,49.45],[158.56,49.64],[158.16,49.49],[158.06,49.34],[157.7,49.12],[157.08,48.91],[157.03,48.7],[156.86,48.64],[156.6,48.34],[155.59,47.5],[155.81,47.52]]],[[[159.04,49.91],[159.3,50.04],[159.3,50.12],[158.94,49.96],[159.04,49.91]]],[[[178.91,50.5],[178.85,50.48],[178.86,50.39],[179.09,50.33],[179.63,50.27],[180.0,50.3],[179.94,50.38],[178.91,50.5]]],[[[-175.99,50.48],[-176.62,50.52],[-177.34,50.4],[-178.11,50.4],[-178.32,50.45],[-178.54,50.37],[-179.45,50.42],[-179.62,50.35],[-180.0,50.35],[-180.0,50.3],[-179.81,50.32],[-179.62,50.23],[-179.3,50.33],[-178.63,50.28],[-178.35,50.34],[-178.01,50.28],[-177.72,50.35],[-177.19,50.35],[-177.05,50.3],[-177.01,50.36],[-176.51,50.45],[-176.01,50.43],[-175.99,50.48]]],[[[178.58,50.43],[178.61,50.48],[178.51,50.57],[178.16,50.47],[178.58,50.43]]],[[[177.96,50.45],[178.1,50.52],[177.87,50.6],[177.73,50.57],[177.96,50.45]]],[[[-173.96,50.67],[-173.64,50.76],[-173.95,50.78],[-174.2,50.72],[-173.96,50.67]]],[[[176.18,50.98],[176.05,51.06],[175.78,51.03],[176.69,50.72],[177.05,50.71],[177.34,50.59],[177.55,50.62],[176.18,50.98]]],[[[173.53,51.49],[173.54,51.41],[173.9,51.37],[174.1,51.27],[174.76,51.21],[173.53,51.49]]],[[[-169.09,51.48],[-169.59,51.44],[-169.8,51.31],[-169.94,51.34],[-171.6,50.98],[-171.72,51.02],[-172.76,50.88],[-173.52,50.86],[-173.33,50.85],[-173.27,50.79],[-173.19,50.84],[-172.51,50.78],[-171.86,50.93],[-171.48,50.93],[-171.1,51.02],[-170.83,51.0],[-170.57,51.1],[-169.92,51.17],[-169.63,51.36],[-169.09,51.48]]],[[[-168.81,51.52],[-167.86,51.74],[-167.49,51.9],[-168.79,51.65],[-168.98,51.5],[-168.81,51.52]]],[[[160.73,51.39],[161.78,52.3],[161.3,52.06],[161.18,51.91],[160.63,51.58],[160.27,51.26],[160.25,51.1],[159.99,50.85],[160.37,51.12],[160.54,51.17],[160.73,51.39]]],[[[162.59,53.43],[162.5,53.38],[162.53,53.26],[162.46,53.14],[162.31,53.04],[162.29,52.87],[162.67,53.09],[162.81,53.25],[162.8,53.35],[162.59,53.43]]]]}}]}