{"type":"FeatureCollection","features":[{"type":"Feature","properties":{"depth":8000},"geometry":{"type":"MultiPolygon","coordinates":[[[[142.2,32.61],[142.12,32.69],[142.11,32.85],[142.35,33.13],[142.32,33.46],[142.25,33.55],[142.27,33.77],[142.13,34.03],[142.25,34.28],[142.14,34.56],[142.2,34.65],[142.14,34.92],[141.75,34.23],[141.78,33.99],[141.67,33.84],[141.89,33.72],[141.86,33.5],[141.96,33.36],[141.94,33.22],[142.03,32.83],[141.96,32.62],[142.08,32.33],[142.03,31.92],[142.1,31.7],[142.13,30.96],[142.43,30.36],[142.56,29.53],[142.7,29.35],[142.75,29.04],[143.21,28.25],[143.28,27.78],[143.29,26.97],[143.37,26.9],[143.38,27.22],[143.55,27.66],[143.33,28.32],[143.38,28.56],[143.18,28.85],[143.21,29.02],[143.11,29.28],[142.92,29.38],[143.01,29.53],[142.87,29.76],[142.78,30.17],[142.63,30.38],[142.46,31.06],[142.35,31.2],[142.46,31.38],[142.39,31.63],[142.44,31.78],[142.3,32.08],[142.37,32.23],[142.37,32.59],[142.2,32.61]]],[[[-178.05,-34.07],[-177.84,-33.37],[-177.93,-33.44],[-178.15,-33.97],[-178.15,-34.03],[-178.05,-34.07]]],[[[-176.69,-30.97],[-176.65,-30.77],[-176.45,-30.51],[-176.52,-30.34],[-176.48,-30.2],[-176.1,-29.81],[-176.15,-29.55],[-175.85,-28.89],[-175.82,-28.37],[-175.69,-28.14],[-175.7,-27.91],[-175.56,-27.7],[-175.52,-26.88],[-175.59,-26.91],[-175.69,-27.2],[-175.89,-28.32],[-176.18,-29.3],[-176.53,-30.11],[-176.76,-30.42],[-176.98,-30.95],[-176.9,-30.99],[-176.91,-31.05],[-177.02,-31.08],[-177.19,-31.32],[-177.21,-31.63],[-177.5,-32.08],[-177.46,-32.26],[-177.56,-32.31],[-177.71,-32.81],[-177.68,-32.9],[-177.41,-32.69],[-177.12,-32.02],[-177.14,-31.63],[-176.95,-31.54],[-176.95,-31.27],[-176.78,-31.18],[-176.69,-30.97]]],[[[-174.68,-23.57],[-174.58,-23.3],[-174.38,-23.06],[-174.26,-22.68],[-174.17,-22.63],[-173.95,-22.25],[-173.88,-21.98],[-173.69,-21.7],[-173.69,-21.58],[-173.57,-21.43],[-173.25,-20.68],[-173.11,-20.52],[-172.85,-19.68],[-172.82,-19.34],[-172.7,-19.1],[-172.71,-18.8],[-172.89,-19.01],[-173.16,-20.05],[-173.42,-20.61],[-173.43,-20.79],[-173.71,-21.14],[-173.72,-21.33],[-173.97,-21.89],[-175.09,-23.6],[-175.21,-24.0],[-175.18,-24.71],[-175.09,-24.71],[-174.99,-24.45],[-174.97,-24.16],[-174.83,-23.91],[-174.82,-23.74],[-174.68,-23.57]]],[[[-172.6,-18.5],[-172.49,-18.35],[-172.42,-18.12],[-172.44,-18.0],[-172.34,-17.84],[-172.28,-17.04],[-172.37,-17.21],[-172.6,-18.5]]],[[[153.82,-6.26],[153.72,-6.22],[153.86,-6.35],[153.95,-6.53],[154.17,-6.62],[153.92,-6.27],[153.82,-6.26]]],[[[127.72,5.5],[127.73,5.62],[127.5,6.16],[127.42,7.0],[127.46,7.46],[127.39,7.58],[127.41,7.71],[127.34,7.75],[127.28,7.69],[127.27,6.96],[127.2,6.66],[127.32,6.16],[127.53,5.9],[127.49,5.78],[127.72,5.5]]],[[[127.23,8.83],[127.1,9.6],[126.94,9.91],[126.96,10.01],[126.79,10.44],[126.81,10.56],[126.6,10.88],[126.51,10.92],[126.41,10.81],[126.57,10.6],[126.72,9.88],[127.13,8.84],[127.2,8.78],[127.23,8.83]]],[[[126.5,11.1],[126.5,11.28],[126.37,11.44],[126.32,11.7],[126.26,11.49],[126.31,11.24],[126.4,11.12],[126.5,11.1]]],[[[146.83,13.51],[147.01,13.85],[147.22,13.99],[147.36,14.19],[147.52,14.61],[147.51,14.96],[147.44,14.91],[147.42,14.71],[147.17,14.38],[147.12,14.16],[146.76,13.78],[146.71,13.49],[146.52,13.39],[146.41,13.53],[146.23,13.44],[146.16,13.34],[146.17,13.17],[145.94,13.13],[145.87,12.91],[145.66,12.79],[145.58,12.62],[145.44,12.55],[145.4,12.46],[144.9,12.27],[144.73,12.29],[144.53,12.15],[144.26,12.15],[144.2,11.94],[143.46,11.6],[143.08,11.53],[142.23,11.51],[141.83,11.33],[141.72,11.35],[141.34,11.14],[141.15,10.95],[141.67,11.01],[141.84,11.11],[143.52,11.35],[143.88,11.47],[144.45,11.88],[144.98,11.95],[145.61,12.34],[145.62,12.59],[145.8,12.73],[146.28,12.7],[146.35,12.85],[146.34,13.12],[146.76,13.2],[146.85,13.34],[146.83,13.51]]],[[[147.91,16.93],[147.92,17.73],[147.86,17.86],[147.79,17.76],[147.86,17.5],[147.85,16.97],[147.91,16.93]]],[[[-65.35,19.98],[-65.84,19.97],[-66.1,19.87],[-66.22,19.92],[-66.72,19.9],[-66.96,19.8],[-67.42,19.82],[-67.56,19.73],[-67.9,19.78],[-68.0,19.69],[-68.21,19.64],[-67.78,19.57],[-67.42,19.58],[-67.2,19.68],[-67.03,19.56],[-66.87,19.71],[-66.6,19.68],[-66.5,19.75],[-66.21,19.58],[-66.18,19.8],[-65.71,19.82],[-65.54,19.92],[-65.35,19.91],[-65.35,19.98]]],[[[151.1,44.35],[151.28,44.44],[151.3,44.52],[151.1,44.52],[150.22,44.21],[149.5,43.73],[148.95,43.56],[148.81,43.39],[148.04,42.82],[148.27,42.83],[148.99,43.2],[149.3,43.46],[149.59,43.58],[149.88,43.8],[150.05,43.8],[150.34,43.99],[150.89,44.16],[151.1,44.35]]],[[[153.87,45.99],[154.02,46.06],[154.02,46.12],[153.55,45.92],[153.38,45.94],[153.22,45.79],[153.23,45.67],[153.13,45.57],[152.65,45.39],[151.92,45.01],[151.42,44.65],[151.39,44.54],[151.56,44.49],[152.16,44.69],[152.66,45.05],[153.1,45.22],[153.22,45.41],[153.7,45.74],[153.87,45.99]]],[[[156.94,48.46],[157.24,48.69],[157.3,48.84],[157.15,48.8],[157.1,48.69],[156.89,48.57],[156.88,48.47],[156.94,48.46]]]]}}]}