{"type":"FeatureCollection","features":[{"type":"Feature","properties":{"lat":23.4366,"kind":"tropics"},"geometry":{"type":"LineString","coordinates":[[-180,23.4366],[-178,23.4366],[-176,23.4366],[-174,23.4366],[-172,23.4366],[-170,23.4366],[-168,23.4366],[-166,23.4366],[-164,23.4366],[-162,23.4366],[-160,23.4366],[-158,23.4366],[-156,23.4366],[-154,23.4366],[-152,23.4366],[-150,23.4366],[-148,23.4366],[-146,23.4366],[-144,23.4366],[-142,23.4366],[-140,23.4366],[-138,23.4366],[-136,23.4366],[-134,23.4366],[-132,23.4366],[-130,23.4366],[-128,23.4366],[-126,23.4366],[-124,23.4366],[-122,23.4366],[-120,23.4366],[-118,23.4366],[-116,23.4366],[-114,23.4366],[-112,23.4366],[-110,23.4366],[-108,23.4366],[-106,23.4366],[-104,23.4366],[-102,23.4366],[-100,23.4366],[-98,23.4366],[-96,23.4366],[-94,23.4366],[-92,23.4366],[-90,23.4366],[-88,23.4366],[-86,23.4366],[-84,23.4366],[-82,23.4366],[-80,23.4366],[-78,23.4366],[-76,23.4366],[-74,23.4366],[-72,23.4366],[-70,23.4366],[-68,23.4366],[-66,23.4366],[-64,23.4366],[-62,23.4366],[-60,23.4366],[-58,23.4366],[-56,23.4366],[-54,23.4366],[-52,23.4366],[-50,23.4366],[-48,23.4366],[-46,23.4366],[-44,23.4366],[-42,23.4366],[-40,23.4366],[-38,23.4366],[-36,23.4366],[-34,23.4366],[-32,23.4366],[-30,23.4366],[-28,23.4366],[-26,23.4366],[-24,23.4366],[-22,23.4366],[-20,23.4366],[-18,23.4366],[-16,23.4366],[-14,23.4366],[-12,23.4366],[-10,23.4366],[-8,23.4366],[-6,23.4366],[-4,23.4366],[-2,23.4366],[0,23.4366],[2,23.4366],[4,23.4366],[6,23.4366],[8,23.4366],[10,23.4366],[12,23.4366],[14,23.4366],[16,23.4366],[18,23.4366],[20,23.4366],[22,23.4366],[24,23.4366],[26,23.4366],[28,23.4366],[30,23.4366],[32,23.4366],[34,23.4366],[36,23.4366],[38,23.4366],[40,23.4366],[42,23.4366],[44,23.4366],[46,23.4366],[48,23.4366],[50,23.4366],[52,23.4366],[54,23.4366],[56,23.4366],[58,23.4366],[60,23.4366],[62,23.4366],[64,23.4366],[66,23.4366],[68,23.4366],[70,23.4366],[72,23.4366],[74,23.4366],[76,23.4366],[78,23.4366],[80,23.4366],[82,23.4366],[84,23.4366],[86,23.4366],[88,23.4366],[90,23.4366],[92,23.4366],[94,23.4366],[96,23.4366],[98,23.4366],[100,23.4366],[102,23.4366],[104,23.4366],[106,23.4366],[108,23.4366],[110,23.4366],[112,23.4366],[114,23.4366],[116,23.4366],[118,23.4366],[120,23.4366],[122,23.4366],[124,23.4366],[126,23.4366],[128,23.4366],[130,23.4366],[132,23.4366],[134,23.4366],[136,23.4366],[138,23.4366],[140,23.4366],[142,23.4366],[144,23.4366],[146,23.4366],[148,23.4366],[150,23.4366],[152,23.4366],[154,23.4366],[156,23.4366],[158,23.4366],[160,23.4366],[162,23.4366],[164,23.4366],[166,23.4366],[168,23.4366],[170,23.4366],[172,23.4366],[174,23.4366],[176,23.4366],[178,23.4366],[180,23.4366]]}},{"type":"Feature","properties":{"lat":0.0,"kind":"equator"},"geometry":{"type":"LineString","coordinates":[[-180,0.0],[-178,0.0],[-176,0.0],[-174,0.0],[-172,0.0],[-170,0.0],[-168,0.0],[-166,0.0],[-164,0.0],[-162,0.0],[-160,0.0],[-158,0.0],[-156,0.0],[-154,0.0],[-152,0.0],[-150,0.0],[-148,0.0],[-146,0.0],[-144,0.0],[-142,0.0],[-140,0.0],[-138,0.0],[-136,0.0],[-134,0.0],[-132,0.0],[-130,0.0],[-128,0.0],[-126,0.0],[-124,0.0],[-122,0.0],[-120,0.0],[-118,0.0],[-116,0.0],[-114,0.0],[-112,0.0],[-110,0.0],[-108,0.0],[-106,0.0],[-104,0.0],[-102,0.0],[-100,0.0],[-98,0.0],[-96,0.0],[-94,0.0],[-92,0.0],[-90,0.0],[-88,0.0],[-86,0.0],[-84,0.0],[-82,0.0],[-80,0.0],[-78,0.0],[-76,0.0],[-74,0.0],[-72,0.0],[-70,0.0],[-68,0.0],[-66,0.0],[-64,0.0],[-62,0.0],[-60,0.0],[-58,0.0],[-56,0.0],[-54,0.0],[-52,0.0],[-50,0.0],[-48,0.0],[-46,0.0],[-44,0.0],[-42,0.0],[-40,0.0],[-38,0.0],[-36,0.0],[-34,0.0],[-32,0.0],[-30,0.0],[-28,0.0],[-26,0.0],[-24,0.0],[-22,0.0],[-20,0.0],[-18,0.0],[-16,0.0],[-14,0.0],[-12,0.0],[-10,0.0],[-8,0.0],[-6,0.0],[-4,0.0],[-2,0.0],[0,0.0],[2,0.0],[4,0.0],[6,0.0],[8,0.0],[10,0.0],[12,0.0],[14,0.0],[16,0.0],[18,0.0],[20,0.0],[22,0.0],[24,0.0],[26,0.0],[28,0.0],[30,0.0],[32,0.0],[34,0.0],[36,0.0],[38,0.0],[40,0.0],[42,0.0],[44,0.0],[46,0.0],[48,0.0],[50,0.0],[52,0.0],[54,0.0],[56,0.0],[58,0.0],[60,0.0],[62,0.0],[64,0.0],[66,0.0],[68,0.0],[70,0.0],[72,0.0],[74,0.0],[76,0.0],[78,0.0],[80,0.0],[82,0.0],[84,0.0],[86,0.0],[88,0.0],[90,0.0],[92,0.0],[94,0.0],[96,0.0],[98,0.0],[100,0.0],[102,0.0],[104,0.0],[106,0.0],[108,0.0],[110,0.0],[112,0.0],[114,0.0],[116,0.0],[118,0.0],[120,0.0],[122,0.0],[124,0.0],[126,0.0],[128,0.0],[130,0.0],[132,0.0],[134,0.0],[136,0.0],[138,0.0],[140,0.0],[142,0.0],[144,0.0],[146,0.0],[148,0.0],[150,0.0],[152,0.0],[154,0.0],[156,0.0],[158,0.0],[160,0.0],[162,0.0],[164,0.0],[166,0.0],[168,0.0],[170,0.0],[172,0.0],[174,0.0],[176,0.0],[178,0.0],[180,0.0]]}},{"type":"Feature","properties":{"lat":-23.4366,"kind":"tropics"},"geometry":{"type":"LineString","coordinates":[[-180,-23.4366],[-178,-23.4366],[-176,-23.4366],[-174,-23.4366],[-172,-23.4366],[-170,-23.4366],[-168,-23.4366],[-166,-23.4366],[-164,-23.4366],[-162,-23.4366],[-160,-23.4366],[-158,-23.4366],[-156,-23.4366],[-154,-23.4366],[-152,-23.4366],[-150,-23.4366],[-148,-23.4366],[-146,-23.4366],[-144,-23.4366],[-142,-23.4366],[-140,-23.4366],[-138,-23.4366],[-136,-23.4366],[-134,-23.4366],[-132,-23.4366],[-130,-23.4366],[-128,-23.4366],[-126,-23.4366],[-124,-23.4366],[-122,-23.4366],[-120,-23.4366],[-118,-23.4366],[-116,-23.4366],[-114,-23.4366],[-112,-23.4366],[-110,-23.4366],[-108,-23.4366],[-106,-23.4366],[-104,-23.4366],[-102,-23.4366],[-100,-23.4366],[-98,-23.4366],[-96,-23.4366],[-94,-23.4366],[-92,-23.4366],[-90,-23.4366],[-88,-23.4366],[-86,-23.4366],[-84,-23.4366],[-82,-23.4366],[-80,-23.4366],[-78,-23.4366],[-76,-23.4366],[-74,-23.4366],[-72,-23.4366],[-70,-23.4366],[-68,-23.4366],[-66,-23.4366],[-64,-23.4366],[-62,-23.4366],[-60,-23.4366],[-58,-23.4366],[-56,-23.4366],[-54,-23.4366],[-52,-23.4366],[-50,-23.4366],[-48,-23.4366],[-46,-23.4366],[-44,-23.4366],[-42,-23.4366],[-40,-23.4366],[-38,-23.4366],[-36,-23.4366],[-34,-23.4366],[-32,-23.4366],[-30,-23.4366],[-28,-23.4366],[-26,-23.4366],[-24,-23.4366],[-22,-23.4366],[-20,-23.4366],[-18,-23.4366],[-16,-23.4366],[-14,-23.4366],[-12,-23.4366],[-10,-23.4366],[-8,-23.4366],[-6,-23.4366],[-4,-23.4366],[-2,-23.4366],[0,-23.4366],[2,-23.4366],[4,-23.4366],[6,-23.4366],[8,-23.4366],[10,-23.4366],[12,-23.4366],[14,-23.4366],[16,-23.4366],[18,-23.4366],[20,-23.4366],[22,-23.4366],[24,-23.4366],[26,-23.4366],[28,-23.4366],[30,-23.4366],[32,-23.4366],[34,-23.4366],[36,-23.4366],[38,-23.4366],[40,-23.4366],[42,-23.4366],[44,-23.4366],[46,-23.4366],[48,-23.4366],[50,-23.4366],[52,-23.4366],[54,-23.4366],[56,-23.4366],[58,-23.4366],[60,-23.4366],[62,-23.4366],[64,-23.4366],[66,-23.4366],[68,-23.4366],[70,-23.4366],[72,-23.4366],[74,-23.4366],[76,-23.4366],[78,-23.4366],[80,-23.4366],[82,-23.4366],[84,-23.4366],[86,-23.4366],[88,-23.4366],[90,-23.4366],[92,-23.4366],[94,-23.4366],[96,-23.4366],[98,-23.4366],[100,-23.4366],[102,-23.4366],[104,-23.4366],[106,-23.4366],[108,-23.4366],[110,-23.4366],[112,-23.4366],[114,-23.4366],[116,-23.4366],[118,-23.4366],[120,-23.4366],[122,-23.4366],[124,-23.4366],[126,-23.4366],[128,-23.4366],[130,-23.4366],[132,-23.4366],[134,-23.4366],[136,-23.4366],[138,-23.4366],[140,-23.4366],[142,-23.4366],[144,-23.4366],[146,-23.4366],[148,-23.4366],[150,-23.4366],[152,-23.4366],[154,-23.4366],[156,-23.4366],[158,-23.4366],[160,-23.4366],[162,-23.4366],[164,-23.4366],[166,-23.4366],[168,-23.4366],[170,-23.4366],[172,-23.4366],[174,-23.4366],[176,-23.4366],[178,-23.4366],[180,-23.4366]]}},{"type":"Feature","properties":{"lat":66.5634,"kind":"polar"},"geometry":{"type":"LineString","coordinates":[[-180,66.5634],[-178,66.5634],[-176,66.5634],[-174,66.5634],[-172,66.5634],[-170,66.5634],[-168,66.5634],[-166,66.5634],[-164,66.5634],[-162,66.5634],[-160,66.5634],[-158,66.5634],[-156,66.5634],[-154,66.5634],[-152,66.5634],[-150,66.5634],[-148,66.5634],[-146,66.5634],[-144,66.5634],[-142,66.5634],[-140,66.5634],[-138,66.5634],[-136,66.5634],[-134,66.5634],[-132,66.5634],[-130,66.5634],[-128,66.5634],[-126,66.5634],[-124,66.5634],[-122,66.5634],[-120,66.5634],[-118,66.5634],[-116,66.5634],[-114,66.5634],[-112,66.5634],[-110,66.5634],[-108,66.5634],[-106,66.5634],[-104,66.5634],[-102,66.5634],[-100,66.5634],[-98,66.5634],[-96,66.5634],[-94,66.5634],[-92,66.5634],[-90,66.5634],[-88,66.5634],[-86,66.5634],[-84,66.5634],[-82,66.5634],[-80,66.5634],[-78,66.5634],[-76,66.5634],[-74,66.5634],[-72,66.5634],[-70,66.5634],[-68,66.5634],[-66,66.5634],[-64,66.5634],[-62,66.5634],[-60,66.5634],[-58,66.5634],[-56,66.5634],[-54,66.5634],[-52,66.5634],[-50,66.5634],[-48,66.5634],[-46,66.5634],[-44,66.5634],[-42,66.5634],[-40,66.5634],[-38,66.5634],[-36,66.5634],[-34,66.5634],[-32,66.5634],[-30,66.5634],[-28,66.5634],[-26,66.5634],[-24,66.5634],[-22,66.5634],[-20,66.5634],[-18,66.5634],[-16,66.5634],[-14,66.5634],[-12,66.5634],[-10,66.5634],[-8,66.5634],[-6,66.5634],[-4,66.5634],[-2,66.5634],[0,66.5634],[2,66.5634],[4,66.5634],[6,66.5634],[8,66.5634],[10,66.5634],[12,66.5634],[14,66.5634],[16,66.5634],[18,66.5634],[20,66.5634],[22,66.5634],[24,66.5634],[26,66.5634],[28,66.5634],[30,66.5634],[32,66.5634],[34,66.5634],[36,66.5634],[38,66.5634],[40,66.5634],[42,66.5634],[44,66.5634],[46,66.5634],[48,66.5634],[50,66.5634],[52,66.5634],[54,66.5634],[56,66.5634],[58,66.5634],[60,66.5634],[62,66.5634],[64,66.5634],[66,66.5634],[68,66.5634],[70,66.5634],[72,66.5634],[74,66.5634],[76,66.5634],[78,66.5634],[80,66.5634],[82,66.5634],[84,66.5634],[86,66.5634],[88,66.5634],[90,66.5634],[92,66.5634],[94,66.5634],[96,66.5634],[98,66.5634],[100,66.5634],[102,66.5634],[104,66.5634],[106,66.5634],[108,66.5634],[110,66.5634],[112,66.5634],[114,66.5634],[116,66.5634],[118,66.5634],[120,66.5634],[122,66.5634],[124,66.5634],[126,66.5634],[128,66.5634],[130,66.5634],[132,66.5634],[134,66.5634],[136,66.5634],[138,66.5634],[140,66.5634],[142,66.5634],[144,66.5634],[146,66.5634],[148,66.5634],[150,66.5634],[152,66.5634],[154,66.5634],[156,66.5634],[158,66.5634],[160,66.5634],[162,66.5634],[164,66.5634],[166,66.5634],[168,66.5634],[170,66.5634],[172,66.5634],[174,66.5634],[176,66.5634],[178,66.5634],[180,66.5634]]}},{"type":"Feature","properties":{"lat":-66.5634,"kind":"polar"},"geometry":{"type":"LineString","coordinates":[[-180,-66.5634],[-178,-66.5634],[-176,-66.5634],[-174,-66.5634],[-172,-66.5634],[-170,-66.5634],[-168,-66.5634],[-166,-66.5634],[-164,-66.5634],[-162,-66.5634],[-160,-66.5634],[-158,-66.5634],[-156,-66.5634],[-154,-66.5634],[-152,-66.5634],[-150,-66.5634],[-148,-66.5634],[-146,-66.5634],[-144,-66.5634],[-142,-66.5634],[-140,-66.5634],[-138,-66.5634],[-136,-66.5634],[-134,-66.5634],[-132,-66.5634],[-130,-66.5634],[-128,-66.5634],[-126,-66.5634],[-124,-66.5634],[-122,-66.5634],[-120,-66.5634],[-118,-66.5634],[-116,-66.5634],[-114,-66.5634],[-112,-66.5634],[-110,-66.5634],[-108,-66.5634],[-106,-66.5634],[-104,-66.5634],[-102,-66.5634],[-100,-66.5634],[-98,-66.5634],[-96,-66.5634],[-94,-66.5634],[-92,-66.5634],[-90,-66.5634],[-88,-66.5634],[-86,-66.5634],[-84,-66.5634],[-82,-66.5634],[-80,-66.5634],[-78,-66.5634],[-76,-66.5634],[-74,-66.5634],[-72,-66.5634],[-70,-66.5634],[-68,-66.5634],[-66,-66.5634],[-64,-66.5634],[-62,-66.5634],[-60,-66.5634],[-58,-66.5634],[-56,-66.5634],[-54,-66.5634],[-52,-66.5634],[-50,-66.5634],[-48,-66.5634],[-46,-66.5634],[-44,-66.5634],[-42,-66.5634],[-40,-66.5634],[-38,-66.5634],[-36,-66.5634],[-34,-66.5634],[-32,-66.5634],[-30,-66.5634],[-28,-66.5634],[-26,-66.5634],[-24,-66.5634],[-22,-66.5634],[-20,-66.5634],[-18,-66.5634],[-16,-66.5634],[-14,-66.5634],[-12,-66.5634],[-10,-66.5634],[-8,-66.5634],[-6,-66.5634],[-4,-66.5634],[-2,-66.5634],[0,-66.5634],[2,-66.5634],[4,-66.5634],[6,-66.5634],[8,-66.5634],[10,-66.5634],[12,-66.5634],[14,-66.5634],[16,-66.5634],[18,-66.5634],[20,-66.5634],[22,-66.5634],[24,-66.5634],[26,-66.5634],[28,-66.5634],[30,-66.5634],[32,-66.5634],[34,-66.5634],[36,-66.5634],[38,-66.5634],[40,-66.5634],[42,-66.5634],[44,-66.5634],[46,-66.5634],[48,-66.5634],[50,-66.5634],[52,-66.5634],[54,-66.5634],[56,-66.5634],[58,-66.5634],[60,-66.5634],[62,-66.5634],[64,-66.5634],[66,-66.5634],[68,-66.5634],[70,-66.5634],[72,-66.5634],[74,-66.5634],[76,-66.5634],[78,-66.5634],[80,-66.5634],[82,-66.5634],[84,-66.5634],[86,-66.5634],[88,-66.5634],[90,-66.5634],[92,-66.5634],[94,-66.5634],[96,-66.5634],[98,-66.5634],[100,-66.5634],[102,-66.5634],[104,-66.5634],[106,-66.5634],[108,-66.5634],[110,-66.5634],[112,-66.5634],[114,-66.5634],[116,-66.5634],[118,-66.5634],[120,-66.5634],[122,-66.5634],[124,-66.5634],[126,-66.5634],[128,-66.5634],[130,-66.5634],[132,-66.5634],[134,-66.5634],[136,-66.5634],[138,-66.5634],[140,-66.5634],[142,-66.5634],[144,-66.5634],[146,-66.5634],[148,-66.5634],[150,-66.5634],[152,-66.5634],[154,-66.5634],[156,-66.5634],[158,-66.5634],[160,-66.5634],[162,-66.5634],[164,-66.5634],[166,-66.5634],[168,-66.5634],[170,-66.5634],[172,-66.5634],[174,-66.5634],[176,-66.5634],[178,-66.5634],[180,-66.5634]]}},{"type":"Feature","properties":{"kind":"graticule","name":"Tropic of Cancer","min_label":2.0,"max_label":8.0,"rank":0,"anchor_source":"native-nosidebar.png px 773,462 @1x through camera lat0 30.14 lng0 124.45"},"geometry":{"type":"Point","coordinates":[135.2,23.4366]}},{"type":"Feature","properties":{"kind":"graticule","name":"Equator","min_label":2.0,"max_label":8.0,"rank":0,"anchor_source":"native.png px 105,540 @1x through camera lat0 30.18 lng0 116.15"},"geometry":{"type":"Point","coordinates":[64.9,0.0]}},{"type":"Feature","properties":{"kind":"graticule","name":"Tropic of Capricorn","min_label":2.0,"max_label":8.0,"rank":0,"anchor_source":"not observed; longitude of Tropic of Cancer by symmetry"},"geometry":{"type":"Point","coordinates":[135.2,-23.4366]}}]}