{"type":"FeatureCollection","features":[{"type":"Feature","properties":{"kind":"continent","name":"SOUTH AMERICA","min_label":0.0,"max_label":4.0,"rank":0},"geometry":{"type":"Point","coordinates":[-60.596,-17.632]}},{"type":"Feature","properties":{"kind":"continent","name":"AUSTRALIA","min_label":0.0,"max_label":3.0,"rank":0},"geometry":{"type":"Point","coordinates":[135.22,-26.997]}},{"type":"Feature","properties":{"kind":"continent","name":"AFRICA","min_label":0.0,"max_label":4.0,"rank":0},"geometry":{"type":"Point","coordinates":[18.133,7.094]}},{"type":"Feature","properties":{"kind":"continent","name":"ANTARCTICA","min_label":0.0,"max_label":4.0,"rank":0},"geometry":{"type":"Point","coordinates":[-69.534,-78.733]}},{"type":"Feature","properties":{"kind":"continent","name":"ASIA","min_label":0.0,"max_label":4.0,"rank":0},"geometry":{"type":"Point","coordinates":[120.63,47.444]}},{"type":"Feature","properties":{"kind":"continent","name":"EUROPE","min_label":0.0,"max_label":4.0,"rank":0},"geometry":{"type":"Point","coordinates":[24.299,52.944]}},{"type":"Feature","properties":{"kind":"continent","name":"NORTH AMERICA","min_label":0.0,"max_label":4.0,"rank":0},"geometry":{"type":"Point","coordinates":[-93.423,66.317]}},{"type":"Feature","properties":{"kind":"country","name":"Indonesia","min_label":1.7,"max_label":6.7,"rank":2},"geometry":{"type":"Point","coordinates":[101.893,-0.954]}},{"type":"Feature","properties":{"kind":"country","name":"Malaysia","min_label":3.0,"max_label":8.0,"rank":3},"geometry":{"type":"Point","coordinates":[113.837,2.529]}},{"type":"Feature","properties":{"kind":"country","name":"Chile","min_label":1.7,"max_label":6.7,"rank":2},"geometry":{"type":"Point","coordinates":[-72.319,-38.152]}},{"type":"Feature","properties":{"kind":"country","name":"Bolivia","min_label":3.0,"max_label":7.5,"rank":3},"geometry":{"type":"Point","coordinates":[-64.593,-16.666]}},{"type":"Feature","properties":{"kind":"country","name":"Peru","min_label":2.0,"max_label":7.0,"rank":2},"geometry":{"type":"Point","coordinates":[-72.9,-12.977]}},{"type":"Feature","properties":{"kind":"country","name":"Argentina","min_label":2.0,"max_label":7.0,"rank":2},"geometry":{"type":"Point","coordinates":[-64.173,-33.501]}},{"type":"Feature","properties":{"kind":"country","name":"Dhekelia","min_label":6.5,"max_label":11.0,"rank":3},"geometry":{"type":"Point","coordinates":[33.791,35.011]}},{"type":"Feature","properties":{"kind":"country","name":"Cyprus","min_label":4.5,"max_label":9.5,"rank":5},"geometry":{"type":"Point","coordinates":[33.084,34.913]}},{"type":"Feature","properties":{"kind":"country","name":"India","min_label":1.7,"max_label":6.7,"rank":2},"geometry":{"type":"Point","coordinates":[79.358,22.687]}},{"type":"Feature","properties":{"kind":"country","name":"China","min_label":1.7,"max_label":5.7,"rank":2},"geometry":{"type":"Point","coordinates":[106.337,32.498]}},{"type":"Feature","properties":{"kind":"country","name":"Israel","min_label":3.0,"max_label":8.0,"rank":4},"geometry":{"type":"Point","coordinates":[34.848,30.911]}},{"type":"Feature","properties":{"kind":"country","name":"Palestine","min_label":4.5,"max_label":9.5,"rank":5},"geometry":{"type":"Point","coordinates":[35.291,32.047]}},{"type":"Feature","properties":{"kind":"country","name":"Lebanon","min_label":4.0,"max_label":9.0,"rank":5},"geometry":{"type":"Point","coordinates":[35.993,34.133]}},{"type":"Feature","properties":{"kind":"country","name":"Ethiopia","min_label":2.0,"max_label":7.0,"rank":2},"geometry":{"type":"Point","coordinates":[39.089,8.033]}},{"type":"Feature","properties":{"kind":"country","name":"S. Sudan","min_label":3.0,"max_label":8.0,"rank":3},"geometry":{"type":"Point","coordinates":[30.39,7.23]}},{"type":"Feature","properties":{"kind":"country","name":"Somalia","min_label":4.0,"max_label":9.0,"rank":6},"geometry":{"type":"Point","coordinates":[45.192,3.569]}},{"type":"Feature","properties":{"kind":"country","name":"Kenya","min_label":1.7,"max_label":6.7,"rank":2},"geometry":{"type":"Point","coordinates":[37.908,0.549]}},{"type":"Feature","properties":{"kind":"country","name":"Malawi","min_label":4.0,"max_label":9.0,"rank":6},"geometry":{"type":"Point","coordinates":[33.608,-13.387]}},{"type":"Feature","properties":{"kind":"country","name":"Tanzania","min_label":3.0,"max_label":8.0,"rank":3},"geometry":{"type":"Point","coordinates":[34.959,-6.052]}},{"type":"Feature","properties":{"kind":"country","name":"Syria","min_label":3.0,"max_label":8.0,"rank":3},"geometry":{"type":"Point","coordinates":[38.278,35.007]}},{"type":"Feature","properties":{"kind":"country","name":"Somaliland","min_label":4.5,"max_label":9.0,"rank":5},"geometry":{"type":"Point","coordinates":[46.732,9.444]}},{"type":"Feature","properties":{"kind":"country","name":"France","min_label":1.7,"max_label":6.7,"rank":2},"geometry":{"type":"Point","coordinates":[2.552,46.696]}},{"type":"Feature","properties":{"kind":"country","name":"Suriname","min_label":4.0,"max_label":9.0,"rank":4},"geometry":{"type":"Point","coordinates":[-55.911,4.144]}},{"type":"Feature","properties":{"kind":"country","name":"Guyana","min_label":4.0,"max_label":9.0,"rank":4},"geometry":{"type":"Point","coordinates":[-58.943,5.124]}},{"type":"Feature","properties":{"kind":"country","name":"South Korea","min_label":2.5,"max_label":7.0,"rank":2},"geometry":{"type":"Point","coordinates":[128.13,36.385]}},{"type":"Feature","properties":{"kind":"country","name":"North Korea","min_label":3.0,"max_label":8.0,"rank":3},"geometry":{"type":"Point","coordinates":[126.445,39.885]}},{"type":"Feature","properties":{"kind":"country","name":"Morocco","min_label":2.7,"max_label":8.0,"rank":3},"geometry":{"type":"Point","coordinates":[-7.187,31.651]}},{"type":"Feature","properties":{"kind":"country","name":"W. Sahara","min_label":6.0,"max_label":11.0,"rank":7},"geometry":{"type":"Point","coordinates":[-12.63,23.968]}},{"type":"Feature","properties":{"kind":"country","name":"Costa Rica","min_label":2.5,"max_label":8.0,"rank":5},"geometry":{"type":"Point","coordinates":[-84.078,10.065]}},{"type":"Feature","properties":{"kind":"country","name":"Nicaragua","min_label":4.0,"max_label":9.0,"rank":5},"geometry":{"type":"Point","coordinates":[-85.069,12.671]}},{"type":"Feature","properties":{"kind":"country","name":"Congo","min_label":4.0,"max_label":9.0,"rank":4},"geometry":{"type":"Point","coordinates":[15.9,0.142]}},{"type":"Feature","properties":{"kind":"country","name":"Dem. Rep. Congo","min_label":2.0,"max_label":7.0,"rank":2},"geometry":{"type":"Point","coordinates":[23.459,-1.858]}},{"type":"Feature","properties":{"kind":"country","name":"Bhutan","min_label":4.0,"max_label":9.0,"rank":5},"geometry":{"type":"Point","coordinates":[90.04,27.537]}},{"type":"Feature","properties":{"kind":"country","name":"Ukraine","min_label":2.7,"max_label":7.0,"rank":3},"geometry":{"type":"Point","coordinates":[32.141,49.725]}},{"type":"Feature","properties":{"kind":"country","name":"Belarus","min_label":3.0,"max_label":8.0,"rank":4},"geometry":{"type":"Point","coordinates":[28.418,53.822]}},{"type":"Feature","properties":{"kind":"country","name":"Namibia","min_label":3.0,"max_label":7.5,"rank":3},"geometry":{"type":"Point","coordinates":[17.108,-20.575]}},{"type":"Feature","properties":{"kind":"country","name":"South Africa","min_label":1.7,"max_label":6.7,"rank":2},"geometry":{"type":"Point","coordinates":[23.666,-29.709]}},{"type":"Feature","properties":{"kind":"country","name":"St-Martin","min_label":5.0,"max_label":10.0,"rank":6},"geometry":{"type":"Point","coordinates":[-63.049,18.081]}},{"type":"Feature","properties":{"kind":"country","name":"Sint Maarten","min_label":5.0,"max_label":10.0,"rank":6},"geometry":{"type":"Point","coordinates":[-63.07,18.041]}},{"type":"Feature","properties":{"kind":"country","name":"Oman","min_label":4.0,"max_label":9.0,"rank":4},"geometry":{"type":"Point","coordinates":[57.337,22.12]}},{"type":"Feature","properties":{"kind":"country","name":"Uzbekistan","min_label":3.0,"max_label":8.0,"rank":3},"geometry":{"type":"Point","coordinates":[64.005,41.694]}},{"type":"Feature","properties":{"kind":"country","name":"Kazakhstan","min_label":2.7,"max_label":7.0,"rank":3},"geometry":{"type":"Point","coordinates":[68.686,49.054]}},{"type":"Feature","properties":{"kind":"country","name":"Tajikistan","min_label":4.0,"max_label":9.0,"rank":4},"geometry":{"type":"Point","coordinates":[72.587,38.2]}},{"type":"Feature","properties":{"kind":"country","name":"Lithuania","min_label":4.0,"max_label":9.0,"rank":5},"geometry":{"type":"Point","coordinates":[24.09,55.104]}},{"type":"Feature","properties":{"kind":"country","name":"Brazil","min_label":1.7,"max_label":5.7,"rank":2},"geometry":{"type":"Point","coordinates":[-49.559,-12.099]}},{"type":"Feature","properties":{"kind":"country","name":"Uruguay","min_label":3.0,"max_label":8.0,"rank":4},"geometry":{"type":"Point","coordinates":[-55.967,-32.961]}},{"type":"Feature","properties":{"kind":"country","name":"Mongolia","min_label":3.0,"max_label":7.0,"rank":3},"geometry":{"type":"Point","coordinates":[104.15,45.997]}},{"type":"Feature","properties":{"kind":"country","name":"Russia","min_label":1.7,"max_label":5.2,"rank":2},"geometry":{"type":"Point","coordinates":[44.686,58.249]}},{"type":"Feature","properties":{"kind":"country","name":"Czechia","min_label":4.0,"max_label":9.0,"rank":5},"geometry":{"type":"Point","coordinates":[15.378,49.882]}},{"type":"Feature","properties":{"kind":"country","name":"Germany","min_label":1.7,"max_label":6.7,"rank":2},"geometry":{"type":"Point","coordinates":[9.678,50.962]}},{"type":"Feature","properties":{"kind":"country","name":"Estonia","min_label":3.0,"max_label":8.0,"rank":6},"geometry":{"type":"Point","coordinates":[25.867,58.725]}},{"type":"Feature","properties":{"kind":"country","name":"Latvia","min_label":4.0,"max_label":9.0,"rank":5},"geometry":{"type":"Point","coordinates":[25.459,57.067]}},{"type":"Feature","properties":{"kind":"country","name":"Norway","min_label":3.0,"max_label":7.0,"rank":3},"geometry":{"type":"Point","coordinates":[9.68,61.357]}},{"type":"Feature","properties":{"kind":"country","name":"Sweden","min_label":2.0,"max_label":7.0,"rank":3},"geometry":{"type":"Point","coordinates":[19.017,65.859]}},{"type":"Feature","properties":{"kind":"country","name":"Finland","min_label":3.0,"max_label":8.0,"rank":3},"geometry":{"type":"Point","coordinates":[27.276,63.252]}},{"type":"Feature","properties":{"kind":"country","name":"Vietnam","min_label":2.0,"max_label":7.0,"rank":2},"geometry":{"type":"Point","coordinates":[105.387,21.715]}},{"type":"Feature","properties":{"kind":"country","name":"Cambodia","min_label":3.0,"max_label":8.0,"rank":3},"geometry":{"type":"Point","coordinates":[104.505,12.648]}},{"type":"Feature","properties":{"kind":"country","name":"Luxembourg","min_label":5.7,"max_label":10.0,"rank":6},"geometry":{"type":"Point","coordinates":[6.078,49.734]}},{"type":"Feature","properties":{"kind":"country","name":"United Arab Emirates","min_label":4.0,"max_label":9.0,"rank":4},"geometry":{"type":"Point","coordinates":[54.547,23.466]}},{"type":"Feature","properties":{"kind":"country","name":"Belgium","min_label":4.0,"max_label":9.0,"rank":2},"geometry":{"type":"Point","coordinates":[4.8,50.785]}},{"type":"Feature","properties":{"kind":"country","name":"Georgia","min_label":4.0,"max_label":9.0,"rank":5},"geometry":{"type":"Point","coordinates":[43.736,41.87]}},{"type":"Feature","properties":{"kind":"country","name":"North Macedonia","min_label":5.0,"max_label":10.0,"rank":6},"geometry":{"type":"Point","coordinates":[21.556,41.558]}},{"type":"Feature","properties":{"kind":"country","name":"Albania","min_label":5.0,"max_label":10.0,"rank":6},"geometry":{"type":"Point","coordinates":[20.114,40.655]}},{"type":"Feature","properties":{"kind":"country","name":"Azerbaijan","min_label":4.0,"max_label":9.0,"rank":5},"geometry":{"type":"Point","coordinates":[47.211,40.402]}},{"type":"Feature","properties":{"kind":"country","name":"Kosovo","min_label":5.0,"max_label":10.0,"rank":6},"geometry":{"type":"Point","coordinates":[20.861,42.594]}},{"type":"Feature","properties":{"kind":"country","name":"Turkey","min_label":2.0,"max_label":7.0,"rank":2},"geometry":{"type":"Point","coordinates":[34.508,39.345]}},{"type":"Feature","properties":{"kind":"country","name":"Spain","min_label":2.0,"max_label":7.0,"rank":2},"geometry":{"type":"Point","coordinates":[-3.465,40.091]}},{"type":"Feature","properties":{"kind":"country","name":"Laos","min_label":4.0,"max_label":9.0,"rank":4},"geometry":{"type":"Point","coordinates":[102.534,19.432]}},{"type":"Feature","properties":{"kind":"country","name":"Kyrgyzstan","min_label":3.0,"max_label":8.0,"rank":4},"geometry":{"type":"Point","coordinates":[74.533,41.669]}},{"type":"Feature","properties":{"kind":"country","name":"Armenia","min_label":5.0,"max_label":10.0,"rank":6},"geometry":{"type":"Point","coordinates":[44.801,40.459]}},{"type":"Feature","properties":{"kind":"country","name":"Denmark","min_label":3.0,"max_label":8.0,"rank":4},"geometry":{"type":"Point","coordinates":[9.018,55.967]}},{"type":"Feature","properties":{"kind":"country","name":"Libya","min_label":3.0,"max_label":8.0,"rank":3},"geometry":{"type":"Point","coordinates":[18.011,26.639]}},{"type":"Feature","properties":{"kind":"country","name":"Tunisia","min_label":3.0,"max_label":8.0,"rank":3},"geometry":{"type":"Point","coordinates":[9.008,33.687]}},{"type":"Feature","properties":{"kind":"country","name":"Romania","min_label":3.0,"max_label":8.0,"rank":3},"geometry":{"type":"Point","coordinates":[24.973,45.733]}},{"type":"Feature","properties":{"kind":"country","name":"Hungary","min_label":4.0,"max_label":9.0,"rank":5},"geometry":{"type":"Point","coordinates":[19.448,47.087]}},{"type":"Feature","properties":{"kind":"country","name":"Slovakia","min_label":4.0,"max_label":9.0,"rank":6},"geometry":{"type":"Point","coordinates":[19.05,48.734]}},{"type":"Feature","properties":{"kind":"country","name":"Poland","min_label":2.5,"max_label":7.0,"rank":3},"geometry":{"type":"Point","coordinates":[19.49,51.99]}},{"type":"Feature","properties":{"kind":"country","name":"Ireland","min_label":3.0,"max_label":8.0,"rank":3},"geometry":{"type":"Point","coordinates":[-7.799,53.079]}},{"type":"Feature","properties":{"kind":"country","name":"United Kingdom","min_label":1.7,"max_label":6.7,"rank":2},"geometry":{"type":"Point","coordinates":[-2.116,54.403]}},{"type":"Feature","properties":{"kind":"country","name":"Greece","min_label":2.7,"max_label":8.0,"rank":3},"geometry":{"type":"Point","coordinates":[21.726,39.493]}},{"type":"Feature","properties":{"kind":"country","name":"Zambia","min_label":3.0,"max_label":8.0,"rank":3},"geometry":{"type":"Point","coordinates":[26.395,-14.661]}},{"type":"Feature","properties":{"kind":"country","name":"Sierra Leone","min_label":4.0,"max_label":9.0,"rank":4},"geometry":{"type":"Point","coordinates":[-11.764,8.617]}},{"type":"Feature","properties":{"kind":"country","name":"Guinea","min_label":3.0,"max_label":8.0,"rank":3},"geometry":{"type":"Point","coordinates":[-10.016,10.619]}},{"type":"Feature","properties":{"kind":"country","name":"Liberia","min_label":4.0,"max_label":9.0,"rank":4},"geometry":{"type":"Point","coordinates":[-9.46,6.447]}},{"type":"Feature","properties":{"kind":"country","name":"Central African Rep.","min_label":4.0,"max_label":9.0,"rank":4},"geometry":{"type":"Point","coordinates":[20.907,6.99]}},{"type":"Feature","properties":{"kind":"country","name":"Sudan","min_label":2.5,"max_label":8.0,"rank":3},"geometry":{"type":"Point","coordinates":[29.261,16.331]}},{"type":"Feature","properties":{"kind":"country","name":"Djibouti","min_label":4.0,"max_label":9.0,"rank":5},"geometry":{"type":"Point","coordinates":[42.499,11.976]}},{"type":"Feature","properties":{"kind":"country","name":"Eritrea","min_label":4.0,"max_label":9.0,"rank":4},"geometry":{"type":"Point","coordinates":[38.286,15.787]}},{"type":"Feature","properties":{"kind":"country","name":"Austria","min_label":3.0,"max_label":8.0,"rank":4},"geometry":{"type":"Point","coordinates":[14.131,47.519]}},{"type":"Feature","properties":{"kind":"country","name":"Iraq","min_label":3.0,"max_label":7.5,"rank":3},"geometry":{"type":"Point","coordinates":[43.262,33.094]}},{"type":"Feature","properties":{"kind":"country","name":"Italy","min_label":2.0,"max_label":7.0,"rank":2},"geometry":{"type":"Point","coordinates":[11.077,44.732]}},{"type":"Feature","properties":{"kind":"country","name":"Switzerland","min_label":4.0,"max_label":9.0,"rank":4},"geometry":{"type":"Point","coordinates":[7.464,46.719]}},{"type":"Feature","properties":{"kind":"country","name":"Iran","min_label":2.5,"max_label":6.7,"rank":2},"geometry":{"type":"Point","coordinates":[54.931,32.166]}},{"type":"Feature","properties":{"kind":"country","name":"Netherlands","min_label":4.0,"max_label":10.0,"rank":5},"geometry":{"type":"Point","coordinates":[5.611,52.422]}},{"type":"Feature","properties":{"kind":"country","name":"Liechtenstein","min_label":5.0,"max_label":10.0,"rank":6},"geometry":{"type":"Point","coordinates":[9.559,47.111]}},{"type":"Feature","properties":{"kind":"country","name":"Côte d'Ivoire","min_label":2.5,"max_label":8.0,"rank":3},"geometry":{"type":"Point","coordinates":[-5.569,7.491]}},{"type":"Feature","properties":{"kind":"country","name":"Serbia","min_label":4.0,"max_label":7.0,"rank":5},"geometry":{"type":"Point","coordinates":[20.788,44.19]}},{"type":"Feature","properties":{"kind":"country","name":"Mali","min_label":3.0,"max_label":7.0,"rank":3},"geometry":{"type":"Point","coordinates":[-2.038,18.693]}},{"type":"Feature","properties":{"kind":"country","name":"Senegal","min_label":2.7,"max_label":8.0,"rank":3},"geometry":{"type":"Point","coordinates":[-14.779,15.138]}},{"type":"Feature","properties":{"kind":"country","name":"Nigeria","min_label":1.7,"max_label":6.7,"rank":2},"geometry":{"type":"Point","coordinates":[7.503,9.44]}},{"type":"Feature","properties":{"kind":"country","name":"Benin","min_label":4.0,"max_label":9.0,"rank":5},"geometry":{"type":"Point","coordinates":[2.352,10.325]}},{"type":"Feature","properties":{"kind":"country","name":"Angola","min_label":3.0,"max_label":7.0,"rank":3},"geometry":{"type":"Point","coordinates":[17.984,-12.183]}},{"type":"Feature","properties":{"kind":"country","name":"Croatia","min_label":4.0,"max_label":9.0,"rank":6},"geometry":{"type":"Point","coordinates":[16.372,45.806]}},{"type":"Feature","properties":{"kind":"country","name":"Slovenia","min_label":5.0,"max_label":10.0,"rank":6},"geometry":{"type":"Point","coordinates":[14.915,46.061]}},{"type":"Feature","properties":{"kind":"country","name":"Qatar","min_label":4.0,"max_label":9.0,"rank":5},"geometry":{"type":"Point","coordinates":[51.144,25.237]}},{"type":"Feature","properties":{"kind":"country","name":"Saudi Arabia","min_label":1.7,"max_label":7.0,"rank":2},"geometry":{"type":"Point","coordinates":[44.7,23.807]}},{"type":"Feature","properties":{"kind":"country","name":"Botswana","min_label":4.0,"max_label":9.0,"rank":4},"geometry":{"type":"Point","coordinates":[24.179,-22.103]}},{"type":"Feature","properties":{"kind":"country","name":"Zimbabwe","min_label":2.5,"max_label":8.0,"rank":3},"geometry":{"type":"Point","coordinates":[29.925,-18.912]}},{"type":"Feature","properties":{"kind":"country","name":"Pakistan","min_label":2.7,"max_label":7.0,"rank":2},"geometry":{"type":"Point","coordinates":[68.546,29.328]}},{"type":"Feature","properties":{"kind":"country","name":"Bulgaria","min_label":4.0,"max_label":9.0,"rank":4},"geometry":{"type":"Point","coordinates":[25.157,42.509]}},{"type":"Feature","properties":{"kind":"country","name":"Thailand","min_label":2.7,"max_label":8.0,"rank":3},"geometry":{"type":"Point","coordinates":[101.073,15.46]}},{"type":"Feature","properties":{"kind":"country","name":"San Marino","min_label":5.0,"max_label":10.0,"rank":6},"geometry":{"type":"Point","coordinates":[12.441,43.934]}},{"type":"Feature","properties":{"kind":"country","name":"Haiti","min_label":4.0,"max_label":9.0,"rank":5},"geometry":{"type":"Point","coordinates":[-72.224,19.264]}},{"type":"Feature","properties":{"kind":"country","name":"Dominican Rep.","min_label":4.5,"max_label":9.5,"rank":5},"geometry":{"type":"Point","coordinates":[-70.654,19.104]}},{"type":"Feature","properties":{"kind":"country","name":"Chad","min_label":3.0,"max_label":8.0,"rank":3},"geometry":{"type":"Point","coordinates":[18.645,15.143]}},{"type":"Feature","properties":{"kind":"country","name":"Kuwait","min_label":5.0,"max_label":10.0,"rank":6},"geometry":{"type":"Point","coordinates":[47.314,29.414]}},{"type":"Feature","properties":{"kind":"country","name":"El Salvador","min_label":5.0,"max_label":10.0,"rank":6},"geometry":{"type":"Point","coordinates":[-88.89,13.685]}},{"type":"Feature","properties":{"kind":"country","name":"Guatemala","min_label":3.0,"max_label":8.0,"rank":3},"geometry":{"type":"Point","coordinates":[-90.497,14.982]}},{"type":"Feature","properties":{"kind":"country","name":"Timor-Leste","min_label":4.0,"max_label":9.0,"rank":5},"geometry":{"type":"Point","coordinates":[125.855,-8.804]}},{"type":"Feature","properties":{"kind":"country","name":"Brunei","min_label":4.0,"max_label":9.0,"rank":6},"geometry":{"type":"Point","coordinates":[114.552,4.448]}},{"type":"Feature","properties":{"kind":"country","name":"Monaco","min_label":5.0,"max_label":10.0,"rank":6},"geometry":{"type":"Point","coordinates":[7.398,43.74]}},{"type":"Feature","properties":{"kind":"country","name":"Algeria","min_label":2.5,"max_label":7.0,"rank":3},"geometry":{"type":"Point","coordinates":[2.808,27.397]}},{"type":"Feature","properties":{"kind":"country","name":"Mozambique","min_label":3.0,"max_label":8.0,"rank":3},"geometry":{"type":"Point","coordinates":[37.838,-13.943]}},{"type":"Feature","properties":{"kind":"country","name":"eSwatini","min_label":4.0,"max_label":9.0,"rank":4},"geometry":{"type":"Point","coordinates":[31.467,-26.534]}},{"type":"Feature","properties":{"kind":"country","name":"Burundi","min_label":4.0,"max_label":9.0,"rank":6},"geometry":{"type":"Point","coordinates":[29.917,-3.333]}},{"type":"Feature","properties":{"kind":"country","name":"Rwanda","min_label":3.0,"max_label":8.0,"rank":3},"geometry":{"type":"Point","coordinates":[30.104,-1.897]}},{"type":"Feature","properties":{"kind":"country","name":"Myanmar","min_label":3.0,"max_label":8.0,"rank":3},"geometry":{"type":"Point","coordinates":[95.804,21.574]}},{"type":"Feature","properties":{"kind":"country","name":"Bangladesh","min_label":3.0,"max_label":8.0,"rank":3},"geometry":{"type":"Point","coordinates":[89.685,24.215]}},{"type":"Feature","properties":{"kind":"country","name":"Andorra","min_label":5.0,"max_label":10.0,"rank":6},"geometry":{"type":"Point","coordinates":[1.539,42.548]}},{"type":"Feature","properties":{"kind":"country","name":"Afghanistan","min_label":3.0,"max_label":7.0,"rank":3},"geometry":{"type":"Point","coordinates":[66.497,34.164]}},{"type":"Feature","properties":{"kind":"country","name":"Montenegro","min_label":5.0,"max_label":10.0,"rank":6},"geometry":{"type":"Point","coordinates":[19.144,42.803]}},{"type":"Feature","properties":{"kind":"country","name":"Bosnia and Herz.","min_label":4.5,"max_label":6.8,"rank":5},"geometry":{"type":"Point","coordinates":[18.068,44.091]}},{"type":"Feature","properties":{"kind":"country","name":"Uganda","min_label":3.0,"max_label":8.0,"rank":3},"geometry":{"type":"Point","coordinates":[32.949,1.973]}},{"type":"Feature","properties":{"kind":"country","name":"USNB Guantanamo Bay","min_label":6.0,"max_label":11.0,"rank":10},"geometry":{"type":"Point","coordinates":[-75.117,19.918]}},{"type":"Feature","properties":{"kind":"country","name":"Cuba","min_label":2.7,"max_label":8.0,"rank":3},"geometry":{"type":"Point","coordinates":[-77.976,21.334]}},{"type":"Feature","properties":{"kind":"country","name":"Honduras","min_label":4.5,"max_label":9.5,"rank":5},"geometry":{"type":"Point","coordinates":[-86.888,14.795]}},{"type":"Feature","properties":{"kind":"country","name":"Ecuador","min_label":3.0,"max_label":8.0,"rank":3},"geometry":{"type":"Point","coordinates":[-78.188,-1.259]}},{"type":"Feature","properties":{"kind":"country","name":"Colombia","min_label":3.0,"max_label":7.0,"rank":2},"geometry":{"type":"Point","coordinates":[-73.174,3.373]}},{"type":"Feature","properties":{"kind":"country","name":"Paraguay","min_label":3.0,"max_label":8.0,"rank":4},"geometry":{"type":"Point","coordinates":[-60.146,-21.675]}},{"type":"Feature","properties":{"kind":"country","name":"Brazilian I.","min_label":7.7,"max_label":9.0,"rank":9},"geometry":{"type":"Point","coordinates":[-57.623,-30.188]}},{"type":"Feature","properties":{"kind":"country","name":"Portugal","min_label":3.0,"max_label":8.0,"rank":2},"geometry":{"type":"Point","coordinates":[-8.272,39.607]}},{"type":"Feature","properties":{"kind":"country","name":"Moldova","min_label":5.0,"max_label":10.0,"rank":6},"geometry":{"type":"Point","coordinates":[28.488,47.435]}},{"type":"Feature","properties":{"kind":"country","name":"Turkmenistan","min_label":3.0,"max_label":8.0,"rank":4},"geometry":{"type":"Point","coordinates":[58.677,39.855]}},{"type":"Feature","properties":{"kind":"country","name":"Jordan","min_label":4.0,"max_label":9.0,"rank":4},"geometry":{"type":"Point","coordinates":[36.376,30.805]}},{"type":"Feature","properties":{"kind":"country","name":"Nepal","min_label":3.0,"max_label":8.0,"rank":3},"geometry":{"type":"Point","coordinates":[83.64,28.298]}},{"type":"Feature","properties":{"kind":"country","name":"Lesotho","min_label":4.0,"max_label":9.0,"rank":6},"geometry":{"type":"Point","coordinates":[28.247,-29.48]}},{"type":"Feature","properties":{"kind":"country","name":"Cameroon","min_label":3.0,"max_label":8.0,"rank":3},"geometry":{"type":"Point","coordinates":[12.473,4.585]}},{"type":"Feature","properties":{"kind":"country","name":"Gabon","min_label":3.0,"max_label":8.0,"rank":4},"geometry":{"type":"Point","coordinates":[11.836,-0.438]}},{"type":"Feature","properties":{"kind":"country","name":"Niger","min_label":3.0,"max_label":8.0,"rank":3},"geometry":{"type":"Point","coordinates":[9.504,17.446]}},{"type":"Feature","properties":{"kind":"country","name":"Burkina Faso","min_label":3.0,"max_label":8.0,"rank":3},"geometry":{"type":"Point","coordinates":[-1.364,12.673]}},{"type":"Feature","properties":{"kind":"country","name":"Togo","min_label":5.0,"max_label":10.0,"rank":6},"geometry":{"type":"Point","coordinates":[1.058,8.807]}},{"type":"Feature","properties":{"kind":"country","name":"Ghana","min_label":2.7,"max_label":8.0,"rank":3},"geometry":{"type":"Point","coordinates":[-1.037,7.718]}},{"type":"Feature","properties":{"kind":"country","name":"Guinea-Bissau","min_label":5.0,"max_label":10.0,"rank":6},"geometry":{"type":"Point","coordinates":[-14.524,12.164]}},{"type":"Feature","properties":{"kind":"country","name":"Gibraltar","min_label":5.0,"max_label":9.5,"rank":5},"geometry":{"type":"Point","coordinates":[-5.347,36.129]}},{"type":"Feature","properties":{"kind":"country","name":"United States of America","min_label":1.7,"max_label":5.7,"rank":2},"geometry":{"type":"Point","coordinates":[-97.483,39.538]}},{"type":"Feature","properties":{"kind":"country","name":"Canada","min_label":1.7,"max_label":5.7,"rank":2},"geometry":{"type":"Point","coordinates":[-101.911,60.324]}},{"type":"Feature","properties":{"kind":"country","name":"Mexico","min_label":2.0,"max_label":6.7,"rank":2},"geometry":{"type":"Point","coordinates":[-102.289,23.92]}},{"type":"Feature","properties":{"kind":"country","name":"Belize","min_label":5.0,"max_label":10.0,"rank":6},"geometry":{"type":"Point","coordinates":[-88.713,17.202]}},{"type":"Feature","properties":{"kind":"country","name":"Panama","min_label":4.0,"max_label":9.0,"rank":4},"geometry":{"type":"Point","coordinates":[-80.352,8.722]}},{"type":"Feature","properties":{"kind":"country","name":"Venezuela","min_label":2.5,"max_label":7.5,"rank":3},"geometry":{"type":"Point","coordinates":[-64.599,7.182]}},{"type":"Feature","properties":{"kind":"country","name":"Papua New Guinea","min_label":2.5,"max_label":7.5,"rank":2},"geometry":{"type":"Point","coordinates":[143.91,-5.695]}},{"type":"Feature","properties":{"kind":"country","name":"Egypt","min_label":1.7,"max_label":6.7,"rank":2},"geometry":{"type":"Point","coordinates":[29.446,26.186]}},{"type":"Feature","properties":{"kind":"country","name":"Yemen","min_label":3.0,"max_label":8.0,"rank":3},"geometry":{"type":"Point","coordinates":[45.874,15.328]}},{"type":"Feature","properties":{"kind":"country","name":"Mauritania","min_label":3.0,"max_label":8.0,"rank":3},"geometry":{"type":"Point","coordinates":[-9.74,19.587]}},{"type":"Feature","properties":{"kind":"country","name":"Eq. Guinea","min_label":4.0,"max_label":9.0,"rank":4},"geometry":{"type":"Point","coordinates":[8.99,2.333]}},{"type":"Feature","properties":{"kind":"country","name":"Gambia","min_label":5.0,"max_label":10.0,"rank":6},"geometry":{"type":"Point","coordinates":[-14.998,13.642]}},{"type":"Feature","properties":{"kind":"country","name":"Hong Kong","min_label":4.0,"max_label":9.0,"rank":4},"geometry":{"type":"Point","coordinates":[114.098,22.449]}},{"type":"Feature","properties":{"kind":"country","name":"Vatican","min_label":5.0,"max_label":10.0,"rank":6},"geometry":{"type":"Point","coordinates":[12.453,41.903]}},{"type":"Feature","properties":{"kind":"country","name":"N. Cyprus","min_label":6.0,"max_label":10.0,"rank":6},"geometry":{"type":"Point","coordinates":[33.692,35.216]}},{"type":"Feature","properties":{"kind":"country","name":"Cyprus U.N. Buffer Zone","min_label":7.7,"max_label":11.0,"rank":9},"geometry":{"type":"Point","coordinates":[33.288,35.141]}},{"type":"Feature","properties":{"kind":"country","name":"Siachen Glacier","min_label":6.5,"max_label":9.5,"rank":5},"geometry":{"type":"Point","coordinates":[77.13,35.341]}},{"type":"Feature","properties":{"kind":"country","name":"Baikonur","min_label":6.0,"max_label":9.5,"rank":5},"geometry":{"type":"Point","coordinates":[63.384,45.978]}},{"type":"Feature","properties":{"kind":"country","name":"Akrotiri","min_label":6.5,"max_label":11.0,"rank":3},"geometry":{"type":"Point","coordinates":[32.979,34.601]}},{"type":"Feature","properties":{"kind":"country","name":"Southern Patagonian Ice Field","min_label":7.7,"max_label":9.0,"rank":9},"geometry":{"type":"Point","coordinates":[-73.314,-49.511]}},{"type":"Feature","properties":{"kind":"country","name":"Bir Tawil","min_label":7.0,"max_label":9.0,"rank":8},"geometry":{"type":"Point","coordinates":[33.673,21.86]}},{"type":"Feature","properties":{"kind":"country","name":"Antarctica","min_label":4.0,"max_label":9.0,"rank":4},"geometry":{"type":"Point","coordinates":[35.885,-79.843]}},{"type":"Feature","properties":{"kind":"country","name":"Australia","min_label":1.7,"max_label":5.7,"rank":2},"geometry":{"type":"Point","coordinates":[134.05,-24.13]}},{"type":"Feature","properties":{"kind":"country","name":"Greenland","min_label":1.7,"max_label":6.7,"rank":3},"geometry":{"type":"Point","coordinates":[-39.335,74.319]}},{"type":"Feature","properties":{"kind":"country","name":"Fiji","min_label":3.0,"max_label":8.0,"rank":6},"geometry":{"type":"Point","coordinates":[177.975,-17.826]}},{"type":"Feature","properties":{"kind":"country","name":"New Zealand","min_label":2.0,"max_label":6.7,"rank":2},"geometry":{"type":"Point","coordinates":[172.787,-39.759]}},{"type":"Feature","properties":{"kind":"country","name":"New Caledonia","min_label":4.6,"max_label":8.0,"rank":3},"geometry":{"type":"Point","coordinates":[165.084,-21.065]}},{"type":"Feature","properties":{"kind":"country","name":"Madagascar","min_label":2.7,"max_label":7.0,"rank":3},"geometry":{"type":"Point","coordinates":[46.704,-18.628]}},{"type":"Feature","properties":{"kind":"country","name":"Philippines","min_label":2.5,"max_label":7.0,"rank":2},"geometry":{"type":"Point","coordinates":[122.465,11.198]}},{"type":"Feature","properties":{"kind":"country","name":"Sri Lanka","min_label":3.0,"max_label":8.0,"rank":3},"geometry":{"type":"Point","coordinates":[80.705,7.581]}},{"type":"Feature","properties":{"kind":"country","name":"Curaçao","min_label":5.0,"max_label":10.0,"rank":5},"geometry":{"type":"Point","coordinates":[-68.921,12.145]}},{"type":"Feature","properties":{"kind":"country","name":"Aruba","min_label":5.0,"max_label":10.0,"rank":5},"geometry":{"type":"Point","coordinates":[-69.973,12.517]}},{"type":"Feature","properties":{"kind":"country","name":"Bahamas","min_label":4.0,"max_label":9.0,"rank":4},"geometry":{"type":"Point","coordinates":[-77.147,26.402]}},{"type":"Feature","properties":{"kind":"country","name":"Turks and Caicos Is.","min_label":5.0,"max_label":10.0,"rank":6},"geometry":{"type":"Point","coordinates":[-71.753,21.817]}},{"type":"Feature","properties":{"kind":"country","name":"Taiwan","min_label":4.5,"max_label":8.0,"rank":3},"geometry":{"type":"Point","coordinates":[120.868,23.652]}},{"type":"Feature","properties":{"kind":"country","name":"Japan","min_label":1.7,"max_label":7.0,"rank":2},"geometry":{"type":"Point","coordinates":[138.442,36.143]}},{"type":"Feature","properties":{"kind":"country","name":"St. Pierre and Miquelon","min_label":5.0,"max_label":10.0,"rank":4},"geometry":{"type":"Point","coordinates":[-56.332,47.04]}},{"type":"Feature","properties":{"kind":"country","name":"Iceland","min_label":2.0,"max_label":7.0,"rank":3},"geometry":{"type":"Point","coordinates":[-18.674,64.779]}},{"type":"Feature","properties":{"kind":"country","name":"Pitcairn Is.","min_label":5.0,"max_label":9.0,"rank":4},"geometry":{"type":"Point","coordinates":[-128.318,-24.365]}},{"type":"Feature","properties":{"kind":"country","name":"Fr. Polynesia","min_label":3.5,"max_label":8.5,"rank":4},"geometry":{"type":"Point","coordinates":[-149.462,-17.628]}},{"type":"Feature","properties":{"kind":"country","name":"Fr. S. Antarctic Lands","min_label":4.0,"max_label":9.0,"rank":6},"geometry":{"type":"Point","coordinates":[69.122,-49.304]}},{"type":"Feature","properties":{"kind":"country","name":"Seychelles","min_label":5.0,"max_label":10.0,"rank":6},"geometry":{"type":"Point","coordinates":[55.48,-4.677]}},{"type":"Feature","properties":{"kind":"country","name":"Kiribati","min_label":5.0,"max_label":10.0,"rank":6},"geometry":{"type":"Point","coordinates":[-157.385,1.82]}},{"type":"Feature","properties":{"kind":"country","name":"Marshall Is.","min_label":5.0,"max_label":10.0,"rank":6},"geometry":{"type":"Point","coordinates":[171.194,7.083]}},{"type":"Feature","properties":{"kind":"country","name":"Trinidad and Tobago","min_label":4.5,"max_label":9.5,"rank":5},"geometry":{"type":"Point","coordinates":[-60.918,10.999]}},{"type":"Feature","properties":{"kind":"country","name":"Grenada","min_label":4.0,"max_label":9.0,"rank":6},"geometry":{"type":"Point","coordinates":[-61.68,12.113]}},{"type":"Feature","properties":{"kind":"country","name":"St. Vin. and Gren.","min_label":5.0,"max_label":10.0,"rank":6},"geometry":{"type":"Point","coordinates":[-61.336,13.088]}},{"type":"Feature","properties":{"kind":"country","name":"Barbados","min_label":4.5,"max_label":9.5,"rank":5},"geometry":{"type":"Point","coordinates":[-59.569,13.164]}},{"type":"Feature","properties":{"kind":"country","name":"Saint Lucia","min_label":5.0,"max_label":9.5,"rank":6},"geometry":{"type":"Point","coordinates":[-60.98,13.892]}},{"type":"Feature","properties":{"kind":"country","name":"Dominica","min_label":4.0,"max_label":9.0,"rank":6},"geometry":{"type":"Point","coordinates":[-61.345,15.459]}},{"type":"Feature","properties":{"kind":"country","name":"U.S. Minor Outlying Is.","min_label":7.0,"max_label":11.0,"rank":5},"geometry":{"type":"Point","coordinates":[166.645,19.286]}},{"type":"Feature","properties":{"kind":"country","name":"Montserrat","min_label":5.0,"max_label":10.0,"rank":6},"geometry":{"type":"Point","coordinates":[-62.188,16.737]}},{"type":"Feature","properties":{"kind":"country","name":"Antigua and Barb.","min_label":5.0,"max_label":9.5,"rank":6},"geometry":{"type":"Point","coordinates":[-61.791,17.352]}},{"type":"Feature","properties":{"kind":"country","name":"St. Kitts and Nevis","min_label":5.0,"max_label":10.0,"rank":6},"geometry":{"type":"Point","coordinates":[-62.758,17.337]}},{"type":"Feature","properties":{"kind":"country","name":"U.S. Virgin Is.","min_label":5.0,"max_label":10.0,"rank":6},"geometry":{"type":"Point","coordinates":[-64.779,17.747]}},{"type":"Feature","properties":{"kind":"country","name":"St-Barthélemy","min_label":5.7,"max_label":10.0,"rank":6},"geometry":{"type":"Point","coordinates":[-62.833,17.902]}},{"type":"Feature","properties":{"kind":"country","name":"Puerto Rico","min_label":3.0,"max_label":8.0,"rank":5},"geometry":{"type":"Point","coordinates":[-66.481,18.235]}},{"type":"Feature","properties":{"kind":"country","name":"Anguilla","min_label":5.0,"max_label":10.0,"rank":6},"geometry":{"type":"Point","coordinates":[-63.026,18.243]}},{"type":"Feature","properties":{"kind":"country","name":"British Virgin Is.","min_label":5.0,"max_label":9.5,"rank":6},"geometry":{"type":"Point","coordinates":[-64.637,18.427]}},{"type":"Feature","properties":{"kind":"country","name":"Jamaica","min_label":4.0,"max_label":9.0,"rank":4},"geometry":{"type":"Point","coordinates":[-77.319,18.137]}},{"type":"Feature","properties":{"kind":"country","name":"Cayman Is.","min_label":5.0,"max_label":9.5,"rank":5},"geometry":{"type":"Point","coordinates":[-81.241,19.32]}},{"type":"Feature","properties":{"kind":"country","name":"Bermuda","min_label":4.0,"max_label":9.0,"rank":6},"geometry":{"type":"Point","coordinates":[-64.764,32.297]}},{"type":"Feature","properties":{"kind":"country","name":"Heard I. and McDonald Is.","min_label":4.5,"max_label":9.5,"rank":5},"geometry":{"type":"Point","coordinates":[73.505,-53.103]}},{"type":"Feature","properties":{"kind":"country","name":"Saint Helena","min_label":5.0,"max_label":10.0,"rank":6},"geometry":{"type":"Point","coordinates":[-5.713,-15.95]}},{"type":"Feature","properties":{"kind":"country","name":"Mauritius","min_label":4.0,"max_label":9.0,"rank":5},"geometry":{"type":"Point","coordinates":[57.566,-20.3]}},{"type":"Feature","properties":{"kind":"country","name":"Comoros","min_label":4.0,"max_label":9.0,"rank":6},"geometry":{"type":"Point","coordinates":[43.318,-11.728]}},{"type":"Feature","properties":{"kind":"country","name":"São Tomé and Principe","min_label":5.0,"max_label":10.0,"rank":6},"geometry":{"type":"Point","coordinates":[7.021,0.971]}},{"type":"Feature","properties":{"kind":"country","name":"Cabo Verde","min_label":4.0,"max_label":9.0,"rank":4},"geometry":{"type":"Point","coordinates":[-23.639,15.075]}},{"type":"Feature","properties":{"kind":"country","name":"Malta","min_label":4.0,"max_label":9.0,"rank":5},"geometry":{"type":"Point","coordinates":[14.433,35.893]}},{"type":"Feature","properties":{"kind":"country","name":"Jersey","min_label":5.0,"max_label":10.0,"rank":6},"geometry":{"type":"Point","coordinates":[-2.09,49.221]}},{"type":"Feature","properties":{"kind":"country","name":"Guernsey","min_label":5.0,"max_label":10.0,"rank":6},"geometry":{"type":"Point","coordinates":[-2.562,49.464]}},{"type":"Feature","properties":{"kind":"country","name":"Isle of Man","min_label":5.0,"max_label":10.0,"rank":6},"geometry":{"type":"Point","coordinates":[-4.53,54.221]}},{"type":"Feature","properties":{"kind":"country","name":"Åland","min_label":5.0,"max_label":10.0,"rank":6},"geometry":{"type":"Point","coordinates":[19.87,60.156]}},{"type":"Feature","properties":{"kind":"country","name":"Faeroe Is.","min_label":4.0,"max_label":9.0,"rank":6},"geometry":{"type":"Point","coordinates":[-7.058,62.186]}},{"type":"Feature","properties":{"kind":"country","name":"Indian Ocean Ter.","min_label":5.0,"max_label":9.5,"rank":5},"geometry":{"type":"Point","coordinates":[105.673,-10.491]}},{"type":"Feature","properties":{"kind":"country","name":"Br. Indian Ocean Ter.","min_label":5.0,"max_label":9.5,"rank":5},"geometry":{"type":"Point","coordinates":[71.348,-6.191]}},{"type":"Feature","properties":{"kind":"country","name":"Singapore","min_label":4.0,"max_label":9.0,"rank":6},"geometry":{"type":"Point","coordinates":[103.817,1.367]}},{"type":"Feature","properties":{"kind":"country","name":"Norfolk Island","min_label":4.5,"max_label":9.5,"rank":5},"geometry":{"type":"Point","coordinates":[167.955,-29.033]}},{"type":"Feature","properties":{"kind":"country","name":"Cook Is.","min_label":4.0,"max_label":9.0,"rank":4},"geometry":{"type":"Point","coordinates":[-159.786,-21.216]}},{"type":"Feature","properties":{"kind":"country","name":"Tonga","min_label":4.0,"max_label":9.0,"rank":4},"geometry":{"type":"Point","coordinates":[-175.163,-21.21]}},{"type":"Feature","properties":{"kind":"country","name":"Wallis and Futuna Is.","min_label":4.7,"max_label":9.0,"rank":4},"geometry":{"type":"Point","coordinates":[-178.137,-14.286]}},{"type":"Feature","properties":{"kind":"country","name":"Samoa","min_label":3.0,"max_label":8.0,"rank":4},"geometry":{"type":"Point","coordinates":[-172.438,-13.639]}},{"type":"Feature","properties":{"kind":"country","name":"Solomon Is.","min_label":3.0,"max_label":8.0,"rank":3},"geometry":{"type":"Point","coordinates":[159.17,-8.03]}},{"type":"Feature","properties":{"kind":"country","name":"Tuvalu","min_label":5.0,"max_label":10.0,"rank":6},"geometry":{"type":"Point","coordinates":[179.21,-8.514]}},{"type":"Feature","properties":{"kind":"country","name":"Maldives","min_label":4.0,"max_label":9.0,"rank":5},"geometry":{"type":"Point","coordinates":[73.508,4.174]}},{"type":"Feature","properties":{"kind":"country","name":"Nauru","min_label":5.0,"max_label":10.0,"rank":6},"geometry":{"type":"Point","coordinates":[166.933,-0.52]}},{"type":"Feature","properties":{"kind":"country","name":"Micronesia","min_label":5.0,"max_label":10.0,"rank":6},"geometry":{"type":"Point","coordinates":[158.234,6.888]}},{"type":"Feature","properties":{"kind":"country","name":"S. Geo. and the Is.","min_label":5.0,"max_label":9.0,"rank":4},"geometry":{"type":"Point","coordinates":[-31.063,-55.683]}},{"type":"Feature","properties":{"kind":"country","name":"Falkland Is.","min_label":4.5,"max_label":9.0,"rank":5},"geometry":{"type":"Point","coordinates":[-58.739,-51.609]}},{"type":"Feature","properties":{"kind":"country","name":"Vanuatu","min_label":4.0,"max_label":9.0,"rank":4},"geometry":{"type":"Point","coordinates":[166.909,-15.372]}},{"type":"Feature","properties":{"kind":"country","name":"Niue","min_label":4.0,"max_label":9.0,"rank":4},"geometry":{"type":"Point","coordinates":[-169.863,-19.046]}},{"type":"Feature","properties":{"kind":"country","name":"American Samoa","min_label":4.0,"max_label":9.0,"rank":4},"geometry":{"type":"Point","coordinates":[-170.747,-14.327]}},{"type":"Feature","properties":{"kind":"country","name":"Palau","min_label":5.0,"max_label":10.0,"rank":6},"geometry":{"type":"Point","coordinates":[134.58,7.518]}},{"type":"Feature","properties":{"kind":"country","name":"Guam","min_label":3.0,"max_label":10.0,"rank":6},"geometry":{"type":"Point","coordinates":[144.704,13.354]}},{"type":"Feature","properties":{"kind":"country","name":"N. Mariana Is.","min_label":5.0,"max_label":10.0,"rank":6},"geometry":{"type":"Point","coordinates":[145.734,15.188]}},{"type":"Feature","properties":{"kind":"country","name":"Bahrain","min_label":4.0,"max_label":9.0,"rank":4},"geometry":{"type":"Point","coordinates":[50.555,26.056]}},{"type":"Feature","properties":{"kind":"country","name":"Coral Sea Is.","min_label":4.5,"max_label":9.5,"rank":5},"geometry":{"type":"Point","coordinates":[154.391,-21.029]}},{"type":"Feature","properties":{"kind":"country","name":"Spratly Is.","min_label":6.0,"max_label":10.0,"rank":6},"geometry":{"type":"Point","coordinates":[115.82,10.73]}},{"type":"Feature","properties":{"kind":"country","name":"Clipperton I.","min_label":5.0,"max_label":9.5,"rank":5},"geometry":{"type":"Point","coordinates":[-109.22,10.297]}},{"type":"Feature","properties":{"kind":"country","name":"Macao","min_label":4.0,"max_label":9.0,"rank":4},"geometry":{"type":"Point","coordinates":[113.556,22.13]}},{"type":"Feature","properties":{"kind":"country","name":"Ashmore and Cartier Is.","min_label":4.5,"max_label":9.5,"rank":5},"geometry":{"type":"Point","coordinates":[123.586,-12.433]}},{"type":"Feature","properties":{"kind":"country","name":"Bajo Nuevo Bank","min_label":7.0,"max_label":11.0,"rank":8},"geometry":{"type":"Point","coordinates":[-79.846,15.792]}},{"type":"Feature","properties":{"kind":"country","name":"Serranilla Bank","min_label":7.0,"max_label":9.5,"rank":5},"geometry":{"type":"Point","coordinates":[-78.638,15.864]}},{"type":"Feature","properties":{"kind":"country","name":"Scarborough Reef","min_label":6.0,"max_label":10.0,"rank":6},"geometry":{"type":"Point","coordinates":[117.754,15.152]}},{"type":"Feature","properties":{"kind":"ocean","name":"Arctic Ocean","min_label":1.0,"max_label":6.5,"rank":0},"geometry":{"type":"Point","coordinates":[-174.599,84.845]}},{"type":"Feature","properties":{"kind":"ocean","name":"SOUTHERN OCEAN","min_label":1.0,"max_label":6.5,"rank":0},"geometry":{"type":"Point","coordinates":[-88.5,-70.759]}},{"type":"Feature","properties":{"kind":"ocean","name":"North Atlantic Ocean","min_label":1.0,"max_label":6.5,"rank":0},"geometry":{"type":"Point","coordinates":[-38.449,29.527]}},{"type":"Feature","properties":{"kind":"ocean","name":"North Pacific Ocean","min_label":1.0,"max_label":6.5,"rank":0},"geometry":{"type":"Point","coordinates":[-179.132,25.99]}},{"type":"Feature","properties":{"kind":"ocean","name":"South Pacific Ocean","min_label":1.0,"max_label":6.5,"rank":0},"geometry":{"type":"Point","coordinates":[-147.949,-31.421]}},{"type":"Feature","properties":{"kind":"ocean","name":"INDIAN OCEAN","min_label":1.0,"max_label":6.5,"rank":0},"geometry":{"type":"Point","coordinates":[79.599,-33.632]}},{"type":"Feature","properties":{"kind":"ocean","name":"South Atlantic Ocean","min_label":1.0,"max_label":6.5,"rank":0},"geometry":{"type":"Point","coordinates":[-17.273,-32.324]}},{"type":"Feature","properties":{"kind":"sea","name":"Black Sea","min_label":2.0,"max_label":7.5,"rank":1},"geometry":{"type":"Point","coordinates":[34.197,43.283]}},{"type":"Feature","properties":{"kind":"sea","name":"Philippine Sea","min_label":2.0,"max_label":7.5,"rank":1},"geometry":{"type":"Point","coordinates":[133.598,18.485]}},{"type":"Feature","properties":{"kind":"sea","name":"Tasman Sea","min_label":2.0,"max_label":7.5,"rank":1},"geometry":{"type":"Point","coordinates":[160.654,-39.509]}},{"type":"Feature","properties":{"kind":"sea","name":"Bay of Bengal","min_label":2.0,"max_label":7.5,"rank":1},"geometry":{"type":"Point","coordinates":[87.495,13.527]}},{"type":"Feature","properties":{"kind":"sea","name":"South China Sea","min_label":2.0,"max_label":7.5,"rank":1},"geometry":{"type":"Point","coordinates":[112.245,11.117]}},{"type":"Feature","properties":{"kind":"sea","name":"Arabian Sea","min_label":2.0,"max_label":7.5,"rank":1},"geometry":{"type":"Point","coordinates":[63.863,13.249]}},{"type":"Feature","properties":{"kind":"sea","name":"Beaufort Sea","min_label":2.0,"max_label":7.5,"rank":1},"geometry":{"type":"Point","coordinates":[-137.178,72.259]}},{"type":"Feature","properties":{"kind":"sea","name":"Caribbean Sea","min_label":2.0,"max_label":7.5,"rank":1},"geometry":{"type":"Point","coordinates":[-74.3,15.412]}},{"type":"Feature","properties":{"kind":"sea","name":"Gulf of Mexico","min_label":2.0,"max_label":7.5,"rank":1},"geometry":{"type":"Point","coordinates":[-89.954,25.51]}},{"type":"Feature","properties":{"kind":"sea","name":"Labrador Sea","min_label":2.0,"max_label":7.5,"rank":1},"geometry":{"type":"Point","coordinates":[-53.554,55.919]}},{"type":"Feature","properties":{"kind":"sea","name":"Hudson Bay","min_label":2.0,"max_label":7.5,"rank":1},"geometry":{"type":"Point","coordinates":[-84.99,59.548]}},{"type":"Feature","properties":{"kind":"sea","name":"Caspian Sea","min_label":2.0,"max_label":7.5,"rank":1},"geometry":{"type":"Point","coordinates":[50.724,41.668]}},{"type":"Feature","properties":{"kind":"sea","name":"Baffin Bay","min_label":2.0,"max_label":7.5,"rank":1},"geometry":{"type":"Point","coordinates":[-66.668,73.423]}},{"type":"Feature","properties":{"kind":"sea","name":"Gulf of Alaska","min_label":2.0,"max_label":7.5,"rank":1},"geometry":{"type":"Point","coordinates":[-149.769,57.715]}},{"type":"Feature","properties":{"kind":"sea","name":"Red Sea","min_label":2.0,"max_label":7.5,"rank":1},"geometry":{"type":"Point","coordinates":[38.861,20.211]}},{"type":"Feature","properties":{"kind":"sea","name":"Sea of Okhotsk","min_label":2.0,"max_label":7.5,"rank":1},"geometry":{"type":"Point","coordinates":[148.213,52.43]}},{"type":"Feature","properties":{"kind":"sea","name":"Weddell Sea","min_label":2.0,"max_label":7.5,"rank":1},"geometry":{"type":"Point","coordinates":[-43.968,-76.279]}},{"type":"Feature","properties":{"kind":"sea","name":"Persian Gulf","min_label":2.0,"max_label":7.5,"rank":1},"geometry":{"type":"Point","coordinates":[52.04,26.816]}},{"type":"Feature","properties":{"kind":"sea","name":"Celebes Sea","min_label":4.0,"max_label":8.5,"rank":2},"geometry":{"type":"Point","coordinates":[121.923,3.724]}},{"type":"Feature","properties":{"kind":"sea","name":"Sulu Sea","min_label":4.0,"max_label":8.5,"rank":2},"geometry":{"type":"Point","coordinates":[120.154,8.545]}},{"type":"Feature","properties":{"kind":"sea","name":"Norwegian Sea","min_label":4.0,"max_label":8.5,"rank":2},"geometry":{"type":"Point","coordinates":[3.076,68.199]}},{"type":"Feature","properties":{"kind":"sea","name":"Greenland Sea","min_label":4.0,"max_label":8.5,"rank":2},"geometry":{"type":"Point","coordinates":[-10.86,74.468]}},{"type":"Feature","properties":{"kind":"sea","name":"Banda Sea","min_label":4.0,"max_label":8.5,"rank":2},"geometry":{"type":"Point","coordinates":[126.125,-5.391]}},{"type":"Feature","properties":{"kind":"sea","name":"Bay of Biscay","min_label":4.0,"max_label":8.5,"rank":2},"geometry":{"type":"Point","coordinates":[-4.315,45.533]}},{"type":"Feature","properties":{"kind":"sea","name":"Gulf of Guinea","min_label":4.0,"max_label":8.5,"rank":2},"geometry":{"type":"Point","coordinates":[2.77,3.069]}},{"type":"Feature","properties":{"kind":"sea","name":"Scotia Sea","min_label":4.0,"max_label":8.5,"rank":2},"geometry":{"type":"Point","coordinates":[-54.901,-61.15]}},{"type":"Feature","properties":{"kind":"sea","name":"Baltic Sea","min_label":4.0,"max_label":8.5,"rank":2},"geometry":{"type":"Point","coordinates":[18.142,56.752]}},{"type":"Feature","properties":{"kind":"sea","name":"Barents Sea","min_label":4.0,"max_label":8.5,"rank":2},"geometry":{"type":"Point","coordinates":[42.515,74.776]}},{"type":"Feature","properties":{"kind":"sea","name":"North Sea","min_label":4.0,"max_label":8.5,"rank":2},"geometry":{"type":"Point","coordinates":[2.834,56.273]}},{"type":"Feature","properties":{"kind":"sea","name":"Inner Seas","min_label":5.7,"max_label":10.0,"rank":4},"geometry":{"type":"Point","coordinates":[-6.397,56.414]}},{"type":"Feature","properties":{"kind":"sea","name":"Irish Sea","min_label":4.0,"max_label":8.5,"rank":2},"geometry":{"type":"Point","coordinates":[-4.867,53.377]}},{"type":"Feature","properties":{"kind":"sea","name":"Java Sea","min_label":4.0,"max_label":8.5,"rank":2},"geometry":{"type":"Point","coordinates":[111.956,-5.155]}},{"type":"Feature","properties":{"kind":"sea","name":"Andaman Sea","min_label":4.0,"max_label":8.5,"rank":2},"geometry":{"type":"Point","coordinates":[95.44,10.986]}},{"type":"Feature","properties":{"kind":"sea","name":"Yellow Sea","min_label":4.0,"max_label":8.5,"rank":2},"geometry":{"type":"Point","coordinates":[123.354,35.737]}},{"type":"Feature","properties":{"kind":"sea","name":"East China Sea","min_label":4.0,"max_label":8.5,"rank":2},"geometry":{"type":"Point","coordinates":[125.235,28.692]}},{"type":"Feature","properties":{"kind":"sea","name":"Chukchi Sea","min_label":4.0,"max_label":8.5,"rank":2},"geometry":{"type":"Point","coordinates":[-172.328,69.382]}},{"type":"Feature","properties":{"kind":"sea","name":"Bahía de Campeche","min_label":4.0,"max_label":8.5,"rank":2},"geometry":{"type":"Point","coordinates":[-93.564,19.792]}},{"type":"Feature","properties":{"kind":"sea","name":"Arafura Sea","min_label":4.0,"max_label":8.5,"rank":2},"geometry":{"type":"Point","coordinates":[136.134,-8.812]}},{"type":"Feature","properties":{"kind":"sea","name":"Timor Sea","min_label":4.0,"max_label":8.5,"rank":2},"geometry":{"type":"Point","coordinates":[128.047,-10.984]}},{"type":"Feature","properties":{"kind":"sea","name":"Gulf of Thailand","min_label":4.0,"max_label":8.5,"rank":2},"geometry":{"type":"Point","coordinates":[101.876,9.698]}},{"type":"Feature","properties":{"kind":"sea","name":"Laccadive Sea","min_label":4.0,"max_label":8.5,"rank":2},"geometry":{"type":"Point","coordinates":[74.812,6.937]}},{"type":"Feature","properties":{"kind":"sea","name":"Bellingshausen Sea","min_label":4.0,"max_label":8.5,"rank":2},"geometry":{"type":"Point","coordinates":[-81.508,-71.751]}},{"type":"Feature","properties":{"kind":"sea","name":"Amundsen Sea","min_label":4.0,"max_label":8.5,"rank":2},"geometry":{"type":"Point","coordinates":[-106.276,-74.022]}},{"type":"Feature","properties":{"kind":"sea","name":"Kara Sea","min_label":4.0,"max_label":8.5,"rank":2},"geometry":{"type":"Point","coordinates":[74.315,75.918]}},{"type":"Feature","properties":{"kind":"sea","name":"Laptev Sea","min_label":4.0,"max_label":8.5,"rank":2},"geometry":{"type":"Point","coordinates":[122.653,76.052]}},{"type":"Feature","properties":{"kind":"sea","name":"Great Australian Bight","min_label":5.0,"max_label":9.5,"rank":3},"geometry":{"type":"Point","coordinates":[132.349,-36.78]}},{"type":"Feature","properties":{"kind":"sea","name":"Gulf of Aden","min_label":5.0,"max_label":9.5,"rank":3},"geometry":{"type":"Point","coordinates":[47.615,12.523]}},{"type":"Feature","properties":{"kind":"sea","name":"Gulf of Oman","min_label":5.0,"max_label":9.5,"rank":3},"geometry":{"type":"Point","coordinates":[58.782,24.544]}},{"type":"Feature","properties":{"kind":"sea","name":"Tyrrhenian Sea","min_label":5.0,"max_label":9.5,"rank":3},"geometry":{"type":"Point","coordinates":[12.179,40.124]}},{"type":"Feature","properties":{"kind":"sea","name":"White Sea","min_label":5.0,"max_label":9.5,"rank":3},"geometry":{"type":"Point","coordinates":[39.504,66.175]}},{"type":"Feature","properties":{"kind":"sea","name":"Sea of Azov","min_label":6.0,"max_label":10.0,"rank":5},"geometry":{"type":"Point","coordinates":[36.809,46.178]}},{"type":"Feature","properties":{"kind":"sea","name":"James Bay","min_label":5.0,"max_label":9.5,"rank":3},"geometry":{"type":"Point","coordinates":[-80.439,53.155]}},{"type":"Feature","properties":{"kind":"sea","name":"Gulf of Carpentaria","min_label":5.0,"max_label":9.5,"rank":3},"geometry":{"type":"Point","coordinates":[138.991,-14.535]}},{"type":"Feature","properties":{"kind":"sea","name":"Golfo de California","min_label":5.0,"max_label":9.5,"rank":3},"geometry":{"type":"Point","coordinates":[-111.04,27.032]}},{"type":"Feature","properties":{"kind":"sea","name":"Gulf of Finland","min_label":5.7,"max_label":10.0,"rank":4},"geometry":{"type":"Point","coordinates":[26.378,59.947]}},{"type":"Feature","properties":{"kind":"sea","name":"Gulf of Honduras","min_label":5.0,"max_label":9.5,"rank":3},"geometry":{"type":"Point","coordinates":[-88.012,16.274]}},{"type":"Feature","properties":{"kind":"sea","name":"Golfe du Lion","min_label":5.7,"max_label":10.0,"rank":4},"geometry":{"type":"Point","coordinates":[3.991,42.914]}},{"type":"Feature","properties":{"kind":"sea","name":"Gulf of Bothnia","min_label":5.0,"max_label":9.5,"rank":3},"geometry":{"type":"Point","coordinates":[20.651,62.476]}},{"type":"Feature","properties":{"kind":"sea","name":"Adriatic Sea","min_label":5.0,"max_label":9.5,"rank":3},"geometry":{"type":"Point","coordinates":[16.109,42.748]}},{"type":"Feature","properties":{"kind":"sea","name":"Bay of Plenty","min_label":5.7,"max_label":10.0,"rank":4},"geometry":{"type":"Point","coordinates":[176.822,-37.447]}},{"type":"Feature","properties":{"kind":"sea","name":"Ionian Sea","min_label":5.7,"max_label":10.0,"rank":4},"geometry":{"type":"Point","coordinates":[18.637,38.018]}},{"type":"Feature","properties":{"kind":"sea","name":"Gulf of Saint Lawrence","min_label":5.7,"max_label":10.0,"rank":4},"geometry":{"type":"Point","coordinates":[-61.026,48.274]}},{"type":"Feature","properties":{"kind":"sea","name":"Molucca Sea","min_label":5.7,"max_label":10.0,"rank":4},"geometry":{"type":"Point","coordinates":[126.086,0.666]}},{"type":"Feature","properties":{"kind":"sea","name":"Bismarck Sea","min_label":5.7,"max_label":10.0,"rank":4},"geometry":{"type":"Point","coordinates":[147.363,-3.595]}},{"type":"Feature","properties":{"kind":"sea","name":"Solomon Sea","min_label":5.7,"max_label":10.0,"rank":4},"geometry":{"type":"Point","coordinates":[154.308,-8.618]}},{"type":"Feature","properties":{"kind":"sea","name":"Gulf of Tonkin","min_label":5.7,"max_label":10.0,"rank":4},"geometry":{"type":"Point","coordinates":[107.754,19.852]}},{"type":"Feature","properties":{"kind":"sea","name":"Bay of Fundy","min_label":5.7,"max_label":10.0,"rank":4},"geometry":{"type":"Point","coordinates":[-65.798,44.986]}},{"type":"Feature","properties":{"kind":"sea","name":"Río de la Plata","min_label":5.7,"max_label":10.0,"rank":4},"geometry":{"type":"Point","coordinates":[-56.832,-35.105]}},{"type":"Feature","properties":{"kind":"sea","name":"Ceram Sea","min_label":5.7,"max_label":10.0,"rank":4},"geometry":{"type":"Point","coordinates":[130.23,-2.704]}},{"type":"Feature","properties":{"kind":"sea","name":"Inner Sea","min_label":5.7,"max_label":10.0,"rank":4},"geometry":{"type":"Point","coordinates":[133.08,33.981]}},{"type":"Feature","properties":{"kind":"sea","name":"Cook Inlet","min_label":5.7,"max_label":10.0,"rank":4},"geometry":{"type":"Point","coordinates":[-152.168,59.986]}},{"type":"Feature","properties":{"kind":"sea","name":"Bristol Bay","min_label":5.7,"max_label":10.0,"rank":4},"geometry":{"type":"Point","coordinates":[-159.966,57.676]}},{"type":"Feature","properties":{"kind":"sea","name":"Melville Bay","min_label":5.7,"max_label":10.0,"rank":4},"geometry":{"type":"Point","coordinates":[-61.017,75.412]}},{"type":"Feature","properties":{"kind":"sea","name":"Gulf of Maine","min_label":5.7,"max_label":10.0,"rank":4},"geometry":{"type":"Point","coordinates":[-68.483,43.332]}},{"type":"Feature","properties":{"kind":"sea","name":"Chesapeake Bay","min_label":5.7,"max_label":10.0,"rank":4},"geometry":{"type":"Point","coordinates":[-76.291,38.042]}},{"type":"Feature","properties":{"kind":"sea","name":"Golfo San Jorge","min_label":5.7,"max_label":10.0,"rank":4},"geometry":{"type":"Point","coordinates":[-66.505,-46.041]}},{"type":"Feature","properties":{"kind":"sea","name":"Balearic Sea","min_label":5.7,"max_label":10.0,"rank":4},"geometry":{"type":"Point","coordinates":[1.971,40.074]}},{"type":"Feature","properties":{"kind":"sea","name":"Aegean Sea","min_label":5.7,"max_label":10.0,"rank":4},"geometry":{"type":"Point","coordinates":[25.201,38.771]}},{"type":"Feature","properties":{"kind":"sea","name":"Gulf of Mannar","min_label":5.7,"max_label":10.0,"rank":4},"geometry":{"type":"Point","coordinates":[78.976,8.365]}},{"type":"Feature","properties":{"kind":"sea","name":"Shelikhova Gulf","min_label":5.7,"max_label":10.0,"rank":4},"geometry":{"type":"Point","coordinates":[158.668,60.173]}},{"type":"Feature","properties":{"kind":"sea","name":"Bo Hai","min_label":5.7,"max_label":10.0,"rank":4},"geometry":{"type":"Point","coordinates":[120.012,38.982]}},{"type":"Feature","properties":{"kind":"sea","name":"Gulf of Kutch","min_label":5.7,"max_label":10.0,"rank":4},"geometry":{"type":"Point","coordinates":[69.551,22.684]}},{"type":"Feature","properties":{"kind":"sea","name":"Golfo de Panamá","min_label":5.7,"max_label":10.0,"rank":4},"geometry":{"type":"Point","coordinates":[-79.246,8.151]}},{"type":"Feature","properties":{"kind":"sea","name":"Amundsen Gulf","min_label":5.0,"max_label":10.0,"rank":4},"geometry":{"type":"Point","coordinates":[-122.37,70.59]}},{"type":"Feature","properties":{"kind":"sea","name":"Ungava Bay","min_label":5.7,"max_label":10.0,"rank":4},"geometry":{"type":"Point","coordinates":[-67.588,59.556]}},{"type":"Feature","properties":{"kind":"sea","name":"Bering Sea","min_label":4.0,"max_label":8.5,"rank":2},"geometry":{"type":"Point","coordinates":[-178.614,57.545]}},{"type":"Feature","properties":{"kind":"sea","name":"East Siberian Sea","min_label":5.0,"max_label":10.0,"rank":5},"geometry":{"type":"Point","coordinates":[159.929,73.31]}},{"type":"Feature","properties":{"kind":"sea","name":"Lincoln Sea","min_label":5.0,"max_label":10.0,"rank":5},"geometry":{"type":"Point","coordinates":[-53.616,82.844]}},{"type":"Feature","properties":{"kind":"sea","name":"Franklin Bay","min_label":7.6,"max_label":10.0,"rank":7},"geometry":{"type":"Point","coordinates":[-125.479,69.463]}},{"type":"Feature","properties":{"kind":"sea","name":"Boca Grande","min_label":6.0,"max_label":10.0,"rank":5},"geometry":{"type":"Point","coordinates":[-60.86,8.803]}},{"type":"Feature","properties":{"kind":"sea","name":"Baía de Marajó","min_label":7.6,"max_label":10.0,"rank":7},"geometry":{"type":"Point","coordinates":[-48.839,-1.407]}},{"type":"Feature","properties":{"kind":"sea","name":"Golfo San Matías","min_label":6.0,"max_label":10.0,"rank":5},"geometry":{"type":"Point","coordinates":[-64.385,-41.569]}},{"type":"Feature","properties":{"kind":"sea","name":"Golfo Corcovado","min_label":6.0,"max_label":10.0,"rank":5},"geometry":{"type":"Point","coordinates":[-73.287,-43.466]}},{"type":"Feature","properties":{"kind":"sea","name":"Wrigley Gulf","min_label":6.0,"max_label":10.0,"rank":5},"geometry":{"type":"Point","coordinates":[-129.135,-74.305]}},{"type":"Feature","properties":{"kind":"sea","name":"Sulzberger Bay","min_label":6.0,"max_label":10.0,"rank":5},"geometry":{"type":"Point","coordinates":[-150.518,-76.981]}},{"type":"Feature","properties":{"kind":"sea","name":"Baía de São Marcos","min_label":7.6,"max_label":10.0,"rank":7},"geometry":{"type":"Point","coordinates":[-44.199,-2.447]}},{"type":"Feature","properties":{"kind":"sea","name":"Frobisher Bay","min_label":6.0,"max_label":10.0,"rank":5},"geometry":{"type":"Point","coordinates":[-66.977,63.005]}},{"type":"Feature","properties":{"kind":"sea","name":"Disko Bay","min_label":6.0,"max_label":10.0,"rank":5},"geometry":{"type":"Point","coordinates":[-51.933,69.38]}},{"type":"Feature","properties":{"kind":"sea","name":"Hamilton Inlet","min_label":7.6,"max_label":10.0,"rank":7},"geometry":{"type":"Point","coordinates":[-59.029,53.892]}},{"type":"Feature","properties":{"kind":"sea","name":"Kattegat","min_label":6.0,"max_label":10.0,"rank":5},"geometry":{"type":"Point","coordinates":[11.458,56.965]}},{"type":"Feature","properties":{"kind":"sea","name":"Gulf of Khambhät","min_label":6.0,"max_label":10.0,"rank":5},"geometry":{"type":"Point","coordinates":[72.222,20.876]}},{"type":"Feature","properties":{"kind":"sea","name":"Kronotskiy Gulf","min_label":6.0,"max_label":10.0,"rank":5},"geometry":{"type":"Point","coordinates":[160.513,53.972]}},{"type":"Feature","properties":{"kind":"sea","name":"Uda Bay","min_label":6.0,"max_label":10.0,"rank":5},"geometry":{"type":"Point","coordinates":[137.049,55.083]}},{"type":"Feature","properties":{"kind":"sea","name":"Uchiura Bay","min_label":6.0,"max_label":10.0,"rank":5},"geometry":{"type":"Point","coordinates":[141.831,41.751]}},{"type":"Feature","properties":{"kind":"sea","name":"Shark Bay","min_label":6.0,"max_label":10.0,"rank":5},"geometry":{"type":"Point","coordinates":[113.762,-25.551]}},{"type":"Feature","properties":{"kind":"sea","name":"Gulf of Gabès","min_label":6.0,"max_label":10.0,"rank":5},"geometry":{"type":"Point","coordinates":[10.655,34.276]}},{"type":"Feature","properties":{"kind":"sea","name":"Mackenzie Bay","min_label":6.0,"max_label":10.0,"rank":5},"geometry":{"type":"Point","coordinates":[-136.745,69.336]}},{"type":"Feature","properties":{"kind":"sea","name":"Gulf of Boothia","min_label":5.7,"max_label":10.0,"rank":5},"geometry":{"type":"Point","coordinates":[-88.21,69.299]}},{"type":"Feature","properties":{"kind":"sea","name":"Kane Basin","min_label":5.7,"max_label":10.0,"rank":5},"geometry":{"type":"Point","coordinates":[-70.368,79.468]}},{"type":"Feature","properties":{"kind":"sea","name":"Foxe Basin","min_label":5.7,"max_label":10.0,"rank":5},"geometry":{"type":"Point","coordinates":[-78.83,66.952]}},{"type":"Feature","properties":{"kind":"sea","name":"Golfo de Tehuantepec","min_label":6.0,"max_label":10.0,"rank":5},"geometry":{"type":"Point","coordinates":[-94.544,15.793]}},{"type":"Feature","properties":{"kind":"sea","name":"Golfo de Guayaquil","min_label":6.0,"max_label":10.0,"rank":5},"geometry":{"type":"Point","coordinates":[-80.434,-2.948]}},{"type":"Feature","properties":{"kind":"sea","name":"Gulf of Masira","min_label":6.0,"max_label":10.0,"rank":5},"geometry":{"type":"Point","coordinates":[58.104,19.916]}},{"type":"Feature","properties":{"kind":"sea","name":"Gulf of Yana","min_label":5.7,"max_label":10.0,"rank":5},"geometry":{"type":"Point","coordinates":[137.114,72.877]}},{"type":"Feature","properties":{"kind":"sea","name":"East Korea Bay","min_label":6.0,"max_label":10.0,"rank":5},"geometry":{"type":"Point","coordinates":[127.943,39.424]}},{"type":"Feature","properties":{"kind":"sea","name":"Geographe Bay","min_label":6.0,"max_label":10.0,"rank":5},"geometry":{"type":"Point","coordinates":[115.319,-32.281]}},{"type":"Feature","properties":{"kind":"sea","name":"Gulf of Papua","min_label":6.0,"max_label":10.0,"rank":5},"geometry":{"type":"Point","coordinates":[144.759,-8.408]}},{"type":"Feature","properties":{"kind":"sea","name":"Gulf of Olen‘k","min_label":6.0,"max_label":10.0,"rank":5},"geometry":{"type":"Point","coordinates":[121.195,73.249]}},{"type":"Feature","properties":{"kind":"sea","name":"Gulf of Riga","min_label":6.0,"max_label":10.0,"rank":5},"geometry":{"type":"Point","coordinates":[23.374,57.897]}},{"type":"Feature","properties":{"kind":"sea","name":"Gulf of Sidra","min_label":6.0,"max_label":10.0,"rank":5},"geometry":{"type":"Point","coordinates":[18.112,31.424]}},{"type":"Feature","properties":{"kind":"sea","name":"Sea of Crete","min_label":6.0,"max_label":10.0,"rank":5},"geometry":{"type":"Point","coordinates":[25.102,36.339]}},{"type":"Feature","properties":{"kind":"sea","name":"Ligurian Sea","min_label":6.0,"max_label":10.0,"rank":5},"geometry":{"type":"Point","coordinates":[8.945,43.812]}},{"type":"Feature","properties":{"kind":"sea","name":"Alboran Sea","min_label":7.6,"max_label":10.0,"rank":7},"geometry":{"type":"Point","coordinates":[-3.343,35.93]}},{"type":"Feature","properties":{"kind":"sea","name":"Bight of Benin","min_label":6.0,"max_label":10.0,"rank":5},"geometry":{"type":"Point","coordinates":[3.54,5.708]}},{"type":"Feature","properties":{"kind":"sea","name":"Bight of Biafra","min_label":6.0,"max_label":10.0,"rank":5},"geometry":{"type":"Point","coordinates":[8.48,3.91]}},{"type":"Feature","properties":{"kind":"sea","name":"Bahía Blanca","min_label":6.0,"max_label":10.0,"rank":5},"geometry":{"type":"Point","coordinates":[-62.008,-39.098]}},{"type":"Feature","properties":{"kind":"sea","name":"Golfo de Penas","min_label":6.0,"max_label":10.0,"rank":5},"geometry":{"type":"Point","coordinates":[-74.864,-47.181]}},{"type":"Feature","properties":{"kind":"sea","name":"Bahía Grande","min_label":6.0,"max_label":10.0,"rank":5},"geometry":{"type":"Point","coordinates":[-68.564,-50.985]}},{"type":"Feature","properties":{"kind":"sea","name":"Marguerite Bay","min_label":5.7,"max_label":10.0,"rank":5},"geometry":{"type":"Point","coordinates":[-68.436,-68.483]}},{"type":"Feature","properties":{"kind":"sea","name":"Prydz Bay","min_label":5.7,"max_label":10.0,"rank":5},"geometry":{"type":"Point","coordinates":[72.238,-69.688]}},{"type":"Feature","properties":{"kind":"sea","name":"Vincennes Bay","min_label":6.0,"max_label":10.0,"rank":5},"geometry":{"type":"Point","coordinates":[108.317,-66.339]}},{"type":"Feature","properties":{"kind":"sea","name":"Porpoise Bay","min_label":6.0,"max_label":10.0,"rank":5},"geometry":{"type":"Point","coordinates":[128.359,-66.662]}},{"type":"Feature","properties":{"kind":"sea","name":"Davis Sea","min_label":5.7,"max_label":10.0,"rank":5},"geometry":{"type":"Point","coordinates":[97.57,-65.239]}},{"type":"Feature","properties":{"kind":"sea","name":"Lützow-Holm Bay","min_label":6.0,"max_label":10.0,"rank":5},"geometry":{"type":"Point","coordinates":[37.292,-69.25]}},{"type":"Feature","properties":{"kind":"sea","name":"Antongila Bay","min_label":7.6,"max_label":10.0,"rank":7},"geometry":{"type":"Point","coordinates":[49.86,-15.808]}},{"type":"Feature","properties":{"kind":"sea","name":"Hangzhou Bay","min_label":6.0,"max_label":10.0,"rank":5},"geometry":{"type":"Point","coordinates":[121.447,30.402]}},{"type":"Feature","properties":{"kind":"sea","name":"Karaginskiy Gulf","min_label":6.0,"max_label":10.0,"rank":5},"geometry":{"type":"Point","coordinates":[164.024,59.071]}},{"type":"Feature","properties":{"kind":"sea","name":"Gulf of Kamchatka","min_label":6.0,"max_label":10.0,"rank":5},"geometry":{"type":"Point","coordinates":[162.321,55.678]}},{"type":"Feature","properties":{"kind":"sea","name":"Gulf St. Vincent","min_label":6.0,"max_label":10.0,"rank":5},"geometry":{"type":"Point","coordinates":[137.18,-34.657]}},{"type":"Feature","properties":{"kind":"sea","name":"Golfo de Urabá","min_label":7.6,"max_label":10.0,"rank":7},"geometry":{"type":"Point","coordinates":[-76.926,8.275]}},{"type":"Feature","properties":{"kind":"sea","name":"Baia de Maputo","min_label":6.0,"max_label":10.0,"rank":5},"geometry":{"type":"Point","coordinates":[32.893,-25.565]}},{"type":"Feature","properties":{"kind":"sea","name":"St. Helena Bay","min_label":6.0,"max_label":10.0,"rank":5},"geometry":{"type":"Point","coordinates":[18.274,-31.977]}},{"type":"Feature","properties":{"kind":"sea","name":"Joseph Bonaparte Gulf","min_label":6.0,"max_label":10.0,"rank":5},"geometry":{"type":"Point","coordinates":[128.678,-14.256]}},{"type":"Feature","properties":{"kind":"sea","name":"Gulf of Martaban","min_label":6.0,"max_label":10.0,"rank":5},"geometry":{"type":"Point","coordinates":[96.87,16.001]}},{"type":"Feature","properties":{"kind":"sea","name":"Gulf of Sakhalin","min_label":6.0,"max_label":10.0,"rank":5},"geometry":{"type":"Point","coordinates":[141.439,53.875]}},{"type":"Feature","properties":{"kind":"sea","name":"Chaun Bay","min_label":7.0,"max_label":10.0,"rank":6},"geometry":{"type":"Point","coordinates":[169.696,69.289]}},{"type":"Feature","properties":{"kind":"sea","name":"Khatanga Gulf","min_label":7.0,"max_label":10.0,"rank":6},"geometry":{"type":"Point","coordinates":[110.194,74.027]}},{"type":"Feature","properties":{"kind":"sea","name":"Garabogaz Bay","min_label":7.0,"max_label":10.0,"rank":6},"geometry":{"type":"Point","coordinates":[53.639,41.348]}},{"type":"Feature","properties":{"kind":"sea","name":"Gulf of Suez","min_label":7.0,"max_label":10.0,"rank":6},"geometry":{"type":"Point","coordinates":[33.248,28.484]}},{"type":"Feature","properties":{"kind":"sea","name":"Gulf of Ob","min_label":7.0,"max_label":10.0,"rank":6},"geometry":{"type":"Point","coordinates":[73.575,69.193]}},{"type":"Feature","properties":{"kind":"sea","name":"Yenisey Gulf","min_label":7.0,"max_label":10.0,"rank":6},"geometry":{"type":"Point","coordinates":[81.356,71.981]}},{"type":"Feature","properties":{"kind":"sea","name":"Sea of Marmara","min_label":7.0,"max_label":10.0,"rank":6},"geometry":{"type":"Point","coordinates":[28.171,40.706]}},{"type":"Feature","properties":{"kind":"sea","name":"Gulf of Aqaba","min_label":7.6,"max_label":10.0,"rank":7},"geometry":{"type":"Point","coordinates":[34.683,28.692]}},{"type":"Feature","properties":{"kind":"sea","name":"Massachusetts Bay","min_label":7.6,"max_label":10.0,"rank":7},"geometry":{"type":"Point","coordinates":[-70.493,42.149]}},{"type":"Feature","properties":{"kind":"sea","name":"Delaware Bay","min_label":7.6,"max_label":10.0,"rank":7},"geometry":{"type":"Point","coordinates":[-75.232,39.146]}},{"type":"Feature","properties":{"kind":"sea","name":"Darnley Bay","min_label":7.6,"max_label":10.0,"rank":7},"geometry":{"type":"Point","coordinates":[-123.76,69.541]}},{"type":"Feature","properties":{"kind":"sea","name":"Richard Collinson Inlet","min_label":7.7,"max_label":10.0,"rank":8},"geometry":{"type":"Point","coordinates":[-113.854,72.877]}},{"type":"Feature","properties":{"kind":"sea","name":"Liddon Gulf","min_label":7.6,"max_label":10.0,"rank":7},"geometry":{"type":"Point","coordinates":[-113.38,75.04]}},{"type":"Feature","properties":{"kind":"sea","name":"Wynniatt Bay","min_label":7.7,"max_label":10.0,"rank":8},"geometry":{"type":"Point","coordinates":[-110.955,72.625]}},{"type":"Feature","properties":{"kind":"sea","name":"Hadley Bay","min_label":7.6,"max_label":10.0,"rank":7},"geometry":{"type":"Point","coordinates":[-108.101,72.258]}},{"type":"Feature","properties":{"kind":"sea","name":"Bathurst Inlet","min_label":7.7,"max_label":10.0,"rank":8},"geometry":{"type":"Point","coordinates":[-107.764,67.087]}},{"type":"Feature","properties":{"kind":"sea","name":"Sherman Basin","min_label":7.7,"max_label":10.0,"rank":8},"geometry":{"type":"Point","coordinates":[-97.656,67.813]}},{"type":"Feature","properties":{"kind":"sea","name":"Wager Bay","min_label":7.7,"max_label":10.0,"rank":8},"geometry":{"type":"Point","coordinates":[-89.295,65.634]}},{"type":"Feature","properties":{"kind":"sea","name":"Hall Basin","min_label":7.6,"max_label":10.0,"rank":7},"geometry":{"type":"Point","coordinates":[-63.498,81.506]}},{"type":"Feature","properties":{"kind":"sea","name":"Bay Inútil","min_label":7.7,"max_label":10.0,"rank":8},"geometry":{"type":"Point","coordinates":[-70.18,-53.821]}},{"type":"Feature","properties":{"kind":"sea","name":"Guba Gusinaya","min_label":7.7,"max_label":10.0,"rank":8},"geometry":{"type":"Point","coordinates":[145.847,71.937]}},{"type":"Feature","properties":{"kind":"sea","name":"Bali Sea","min_label":7.6,"max_label":10.0,"rank":7},"geometry":{"type":"Point","coordinates":[115.956,-7.897]}},{"type":"Feature","properties":{"kind":"sea","name":"Davao Gulf","min_label":7.6,"max_label":10.0,"rank":7},"geometry":{"type":"Point","coordinates":[125.777,6.662]}},{"type":"Feature","properties":{"kind":"sea","name":"Halmahera Sea","min_label":7.6,"max_label":10.0,"rank":7},"geometry":{"type":"Point","coordinates":[129.06,-0.649]}},{"type":"Feature","properties":{"kind":"sea","name":"Gulf of Tomini","min_label":7.6,"max_label":10.0,"rank":7},"geometry":{"type":"Point","coordinates":[121.662,-0.254]}},{"type":"Feature","properties":{"kind":"sea","name":"Flores Sea","min_label":7.6,"max_label":10.0,"rank":7},"geometry":{"type":"Point","coordinates":[119.588,-7.455]}},{"type":"Feature","properties":{"kind":"sea","name":"Sibuyan Sea","min_label":7.6,"max_label":10.0,"rank":7},"geometry":{"type":"Point","coordinates":[122.425,12.514]}},{"type":"Feature","properties":{"kind":"sea","name":"Gulf of Buli","min_label":7.6,"max_label":10.0,"rank":7},"geometry":{"type":"Point","coordinates":[129.093,0.673]}},{"type":"Feature","properties":{"kind":"sea","name":"Gulf of Kau","min_label":7.7,"max_label":10.0,"rank":8},"geometry":{"type":"Point","coordinates":[128.335,1.683]}},{"type":"Feature","properties":{"kind":"sea","name":"Bohol Sea","min_label":7.6,"max_label":10.0,"rank":7},"geometry":{"type":"Point","coordinates":[124.352,9.477]}},{"type":"Feature","properties":{"kind":"sea","name":"Ragay Gulf","min_label":7.8,"max_label":10.0,"rank":9},"geometry":{"type":"Point","coordinates":[122.887,13.402]}},{"type":"Feature","properties":{"kind":"sea","name":"Samar Sea","min_label":7.7,"max_label":10.0,"rank":8},"geometry":{"type":"Point","coordinates":[124.167,12.144]}},{"type":"Feature","properties":{"kind":"sea","name":"Tayabas Bay","min_label":7.7,"max_label":10.0,"rank":8},"geometry":{"type":"Point","coordinates":[121.578,13.558]}},{"type":"Feature","properties":{"kind":"sea","name":"Leyte Gulf","min_label":7.8,"max_label":10.0,"rank":9},"geometry":{"type":"Point","coordinates":[125.363,10.842]}},{"type":"Feature","properties":{"kind":"sea","name":"Visayan Sea","min_label":7.7,"max_label":10.0,"rank":8},"geometry":{"type":"Point","coordinates":[123.673,11.313]}},{"type":"Feature","properties":{"kind":"sea","name":"Savu Sea","min_label":7.6,"max_label":10.0,"rank":7},"geometry":{"type":"Point","coordinates":[122.133,-9.486]}},{"type":"Feature","properties":{"kind":"sea","name":"Cordova Bay","min_label":7.7,"max_label":10.0,"rank":8},"geometry":{"type":"Point","coordinates":[-132.87,55.1]}},{"type":"Feature","properties":{"kind":"sea","name":"Mecklenburger Bucht","min_label":7.6,"max_label":10.0,"rank":7},"geometry":{"type":"Point","coordinates":[11.673,54.365]}},{"type":"Feature","properties":{"kind":"sea","name":"Sargasso Sea","min_label":4.0,"max_label":8.5,"rank":2},"geometry":{"type":"Point","coordinates":[-59.679,27.861]}},{"type":"Feature","properties":{"kind":"sea","name":"San Francisco Bay","min_label":7.6,"max_label":10.0,"rank":7},"geometry":{"type":"Point","coordinates":[-122.342,37.843]}},{"type":"Feature","properties":{"kind":"sea","name":"Monterey Bay","min_label":7.6,"max_label":10.0,"rank":7},"geometry":{"type":"Point","coordinates":[-121.937,36.811]}},{"type":"Feature","properties":{"kind":"sea","name":"Salish Sea","min_label":6.0,"max_label":10.0,"rank":6},"geometry":{"type":"Point","coordinates":[-123.552,48.811]}},{"type":"Feature","properties":{"kind":"sea","name":"Gulf of Anadyr'","min_label":5.7,"max_label":10.0,"rank":6},"geometry":{"type":"Point","coordinates":[-178.409,64.069]}},{"type":"Feature","properties":{"kind":"sea","name":"Mediterranean Sea","min_label":2.0,"max_label":7.5,"rank":1},"geometry":{"type":"Point","coordinates":[18.495,36.114]}},{"type":"Feature","properties":{"kind":"sea","name":"Ross Sea","min_label":2.0,"max_label":7.5,"rank":1},"geometry":{"type":"Point","coordinates":[179.551,-77.803]}},{"type":"Feature","properties":{"kind":"sea","name":"Coral Sea","min_label":2.0,"max_label":7.5,"rank":1},"geometry":{"type":"Point","coordinates":[156.842,-18.257]}},{"type":"Feature","properties":{"kind":"sea","name":"Sea of Japan","min_label":2.0,"max_label":7.5,"rank":1},"geometry":{"type":"Point","coordinates":[135.451,41.105]}}]}